{
"type": "FeatureCollection",
"name": "high_risk_displacement_tier1",
"crs": { "type": "name", "properties": { "name": "urn:ogc:def:crs:OGC:1.3:CRS84" } },
"features": [
{ "type": "Feature", "properties": { "OBJECTID_1": 10, "county_fip": "001", "tract": "401000", "tot_pop": 6024, "tot_pop_po": 6016, "tot_pop_ci": 6016, "tot_hh": 2439, "tot_fam": 1159, "tot_pop_ov": 5790, "pop_over75": 238, "pop_poc": 4118, "pop_spfam": 366, "pop_lep": 214, "pop_below2": 1780, "pop_disabi": 916, "pop_hus_re": 548, "pop_zvhhs": 645, "pct_over75": 0.039508632138114202, "pct_poc_1": 0.68359893758300105, "pct_spfam": 0.31578947368421101, "pct_lep": 0.036960276338514703, "pct_below2": 0.29587765957446799, "pct_disab": 0.15226063829787201, "pct_hus_re": 0.22468224682246801, "pct_zvhhs": 0.26445264452644501, "over75_1_2": 0, "poc_1_2": 0, "spfam_1_2": 1, "lep_1_2": 0, "below2_1_2": 1, "disab_1_2": 1, "hus_re_1_2": 1, "zvhh_1_2": 1, "epc_2035": 1, "epc_2040": 1, "epc_2050": 1, "c2040_2050": 0, "epc_class": "High", "geoid": "06001401000", "state_fip": "06", "fips": "06001401400", "fips_bg": null, "county_name": "Alameda", "region": "Bay Area Region", "pct_above_200_pov": 0.47778691896338954, "pct_bachelors_plus": 0.39563953488372094, "pct_employed": 0.7579242636746143, "home_value": 846800.0, "math_prof": 0.43133796792834717, "read_prof": 0.44523126493293314, "grad_rate": 0.89951384423138214, "pct_not_frpm": 0.31234901548906302, "pct_above_200_pov_median": 0.84730388039643878, "pct_bachelors_plus_median": 0.5261797026502909, "pct_employed_median": 0.78294937050582336, "home_value_median": 1111500.0, "math_prof_median": 0.45779087822494302, "read_prof_median": 0.48794991395350246, "grad_rate_median": 0.91924847573665891, "pct_not_frpm_median": 0.5504194029081021, "env_burden_flag": 0.0, "oppscore": 1.0, "oppcat": "Low Resource", "pct_below_pov": 0.33340189222542166, "pct_asian": 0.16826923076923078, "pct_black": 0.35828547990155868, "pct_hispanic": 0.22354388843314191, "pct_poc_2": 0.73789991796554555, "pct_asian_cty": 0.3198506733561387, "pct_black_cty": 0.096275369275928016, "pct_hispanic_cty": 0.23320635201207784, "pct_poc_cty": 0.71763958814709172, "pov_seg_flag": 1.0, "parent_sta": "901109", "stop_id": "WOAK_1", "stop_name": "North Station Entrance / Exit", "stop_code": "WOAK_1", "stop_desc": "Pedestrian Access Point", "stop_lat": 37.80503, "stop_lon": -122.2953, "zone_id": "BA:79542", "stop_url": null, "tts_stop_n": null, "platform_c": null, "location_t": "2", "stop_timez": "America/Los_Angeles", "wheelchair": "0", "level_id": "mtc:12th-st-oakland-city-center-bart-street", "route_info": "{'route_id': None, 'route_type': None}", "station_id": "mtc:fruitvale", "OBJECTID_2": "152", "access_id": "mtc:BA-FTVL_2-1643433662776", "access_point_name": "Enter/Exit : Station entrance", "location_type": "2", "x": "-122.22445", "y": "37.77508" }, "geometry": { "type": "MultiPolygon", "coordinates": [ [ [ [ -122.415691, 37.657453 ], [ -122.412134, 37.656668 ], [ -122.41147, 37.658575 ], [ -122.409116, 37.65805 ], [ -122.406389, 37.657442 ], [ -122.406389, 37.657442 ], [ -122.404919, 37.660116 ], [ -122.404025, 37.661097 ], [ -122.402103850879413, 37.662365896791599 ], [ -122.401381334654914, 37.662108385233552 ], [ -122.400604451864098, 37.661755058921543 ], [ -122.399874881683886, 37.661342893804921 ], [ -122.399199651099096, 37.66087586019097 ], [ -122.398585263296312, 37.660358456846005 ], [ -122.398037635021396, 37.659795667632231 ], [ -122.397562039603571, 37.659192913472602 ], [ -122.397163056194572, 37.658556000107659 ], [ -122.396844525710918, 37.657891062148792 ], [ -122.396609513901993, 37.657204503968579 ], [ -122.396460281897134, 37.656502937997743 ], [ -122.396398264512911, 37.655793121024644 ], [ -122.396424056526115, 37.65508188911128 ], [ -122.396537407041194, 37.654376091753072 ], [ -122.396737222002741, 37.653682525916537 ], [ -122.396804168637317, 37.653523689542538 ], [ -122.396813472750992, 37.653465753218491 ], [ -122.397013282694616, 37.652772186824691 ], [ -122.397297629535089, 37.652097530745607 ], [ -122.397663772855239, 37.651448281693625 ], [ -122.39810818482627, 37.650830691555399 ], [ -122.39862658424704, 37.650250707210951 ], [ -122.399213977823052, 37.649713913294796 ], [ -122.399864708286259, 37.649225478448599 ], [ -122.400572508891088, 37.648790105581824 ], [ -122.40133056376078, 37.6484119866182 ], [ -122.40156887205039, 37.648317610071039 ], [ -122.402018146058637, 37.648093505805576 ], [ -122.402819149442422, 37.64777627665562 ], [ -122.403655395489196, 37.647522996067075 ], [ -122.40451883256469, 37.64733610261402 ], [ -122.405401147459699, 37.647217395682382 ], [ -122.40629384536777, 37.647168018160215 ], [ -122.407081262550648, 37.647186000678062 ], [ -122.407479655939355, 37.647163959589058 ], [ -122.408374142451862, 37.647184377860277 ], [ -122.409261806513953, 37.647274404336365 ], [ -122.410134101863108, 37.647433172260861 ], [ -122.410982630076319, 37.64765915304109 ], [ -122.411799221365015, 37.647950170952875 ], [ -122.412576013177599, 37.648303424071266 ], [ -122.413305525855904, 37.648715511226051 ], [ -122.413980734619642, 37.649182464724369 ], [ -122.414595137187121, 37.649699788525979 ], [ -122.415142816382257, 37.650262501504933 ], [ -122.415618497125905, 37.650865185382727 ], [ -122.416017597261785, 37.651502036872678 ], [ -122.416336271727033, 37.652166923534409 ], [ -122.416571449640301, 37.652853442802531 ], [ -122.416713271190005, 37.653519333557291 ], [ -122.416720863947987, 37.653554983621454 ], [ -122.416726536460317, 37.653619706741715 ], [ -122.416783073340071, 37.654264790094416 ], [ -122.41678113437537, 37.654318665782405 ], [ -122.416757476222031, 37.654976026533738 ], [ -122.416644316603609, 37.655681843287219 ], [ -122.416444681845462, 37.656375442706022 ], [ -122.416160492280397, 37.657050144619383 ], [ -122.415906579318175, 37.657500589862273 ], [ -122.415691, 37.657453 ] ] ], [ [ [ -122.465994, 37.710154 ], [ -122.4611026417235, 37.710565422658767 ], [ -122.460659635246685, 37.710005197834292 ], [ -122.46025983873534, 37.709368503318387 ], [ -122.45994052634471, 37.708703741297555 ], [ -122.459778187472594, 37.708231073636206 ], [ -122.46893899999985, 37.708232000000102 ], [ -122.465994, 37.710154 ] ] ], [ [ [ -122.461684547179104, 37.711170183598433 ], [ -122.461274802492341, 37.710749971769687 ], [ -122.462556, 37.711254000000103 ], [ -122.46256020306086, 37.711867000259929 ], [ -122.462299793856573, 37.711687253553293 ], [ -122.461684547179104, 37.711170183598433 ] ] ], [ [ [ -122.453378, 37.717768 ], [ -122.454189, 37.718239 ], [ -122.456108, 37.718235 ], [ -122.456134998148315, 37.718234956157602 ], [ -122.45629407743391, 37.718566136803673 ], [ -122.456529834385037, 37.719252569327182 ], [ -122.456679759220123, 37.71995405235451 ], [ -122.456686131720815, 37.720026252123382 ], [ -122.452506, 37.72003 ], [ -122.451646, 37.719686 ], [ -122.449546, 37.723011 ], [ -122.447878, 37.723005 ], [ -122.448582, 37.718411000000103 ], [ -122.448582, 37.718411 ], [ -122.448727, 37.71745 ], [ -122.449627, 37.715739 ], [ -122.451342886666666, 37.714205923487874 ], [ -122.451342886666708, 37.714205923487889 ], [ -122.451750708946932, 37.714350966560644 ], [ -122.451900192921386, 37.714418817158879 ], [ -122.450378, 37.716169 ], [ -122.453378, 37.717768 ] ] ], [ [ [ -122.440418, 37.717245 ], [ -122.43983816676851, 37.71703229130862 ], [ -122.439923975433857, 37.716913027445983 ], [ -122.440442509376581, 37.716332864722638 ], [ -122.441030123084587, 37.715795867476913 ], [ -122.441681157167011, 37.715307206309362 ], [ -122.442295310660171, 37.714929427020522 ], [ -122.441896, 37.715308 ], [ -122.440999, 37.716488 ], [ -122.440418, 37.717245 ] ] ], [ [ [ -122.432447000003179, 37.727636999996207 ], [ -122.432447, 37.727637 ], [ -122.432447, 37.727637 ], [ -122.430085111697139, 37.726576177177847 ], [ -122.430085111697196, 37.726576177177819 ], [ -122.430200676996506, 37.726530424188397 ], [ -122.431037715691716, 37.726276952068126 ], [ -122.431901998670796, 37.726089859959785 ], [ -122.432785204581819, 37.725970949162402 ], [ -122.433678830041828, 37.725921364527004 ], [ -122.433848399030751, 37.725925193366351 ], [ -122.432447000003179, 37.727636999996207 ] ] ], [ [ [ -122.416413, 37.753968 ], [ -122.412047, 37.75423 ], [ -122.4119, 37.752629 ], [ -122.411746, 37.751034 ], [ -122.411488, 37.748344 ], [ -122.413673, 37.748297 ], [ -122.41587, 37.748267 ], [ -122.41587, 37.748267 ], [ -122.416108, 37.750771 ], [ -122.416413, 37.753968 ] ] ], [ [ [ -122.422044, 37.76654 ], [ -122.422044, 37.76654 ], [ -122.422308, 37.769278 ], [ -122.422439, 37.770664 ], [ -122.422587405948377, 37.77217183723247 ], [ -122.422366937490438, 37.772238541159744 ], [ -122.421502093584365, 37.772425561858434 ], [ -122.420618317308012, 37.772544387138744 ], [ -122.41972412228624, 37.772593872323696 ], [ -122.419175924454507, 37.772581432868321 ], [ -122.419404941411472, 37.772685386675889 ], [ -122.420135713442576, 37.773097423411961 ], [ -122.420812095693123, 37.773564328550947 ], [ -122.421087184766009, 37.773795526596572 ], [ -122.421087184766023, 37.773795526596594 ], [ -122.419334, 37.77521 ], [ -122.419334, 37.77521 ], [ -122.419212538162682, 37.775293866506722 ], [ -122.417794, 37.770435 ], [ -122.417794, 37.770435 ], [ -122.417794, 37.770435 ], [ -122.417801361508609, 37.768567017189042 ], [ -122.417802, 37.768405 ], [ -122.417645572049906, 37.766804965539158 ], [ -122.417487, 37.765183 ], [ -122.417332, 37.763572000000103 ], [ -122.417332, 37.763572000000103 ], [ -122.421732, 37.7633000000001 ], [ -122.421732000000844, 37.763300000008741 ], [ -122.421853, 37.764571 ], [ -122.421886, 37.764917 ], [ -122.422043999999119, 37.766539999990911 ], [ -122.422044, 37.76654 ] ] ], [ [ [ -122.412548, 37.780508 ], [ -122.412547999970485, 37.780508000023275 ], [ -122.411985, 37.780952 ], [ -122.413866, 37.781863 ], [ -122.415505, 37.781654 ], [ -122.417146, 37.781447 ], [ -122.417339, 37.782379 ], [ -122.418993, 37.782169 ], [ -122.420689, 37.781955 ], [ -122.420358, 37.780072 ], [ -122.420358000015554, 37.78007199999815 ], [ -122.423540999983274, 37.779674000002188 ], [ -122.423541, 37.779674 ], [ -122.423541, 37.779674 ], [ -122.423354, 37.778747000000102 ], [ -122.423354, 37.778747000000102 ], [ -122.423541, 37.779674 ], [ -122.423655754211836, 37.780240770139123 ], [ -122.423655691870408, 37.780240986442308 ], [ -122.423460853794907, 37.780917007042042 ], [ -122.423176251458017, 37.781591712419711 ], [ -122.422810537112113, 37.782239526105649 ], [ -122.422746327026829, 37.782391743520769 ], [ -122.422379757478822, 37.783041056986249 ], [ -122.421934756279981, 37.783658725694814 ], [ -122.421415607758192, 37.784238800309701 ], [ -122.421194689607646, 37.784440415216565 ], [ -122.421069, 37.783816 ], [ -122.421069, 37.783816 ], [ -122.421069, 37.783816000000101 ], [ -122.421194689607631, 37.784440415216572 ], [ -122.42082731076836, 37.78477569346456 ], [ -122.420175530582654, 37.785264233608729 ], [ -122.419466544344118, 37.785699714849535 ], [ -122.418707180609118, 37.786077942310442 ], [ -122.418127069269559, 37.786307355273848 ], [ -122.418126551676295, 37.786307559963184 ], [ -122.41800176994326, 37.786356906606152 ], [ -122.417357102560317, 37.786677992089444 ], [ -122.416585762426308, 37.786983015097846 ], [ -122.416554663260186, 37.786995313124088 ], [ -122.416378837895124, 37.787048487794408 ], [ -122.416298958957071, 37.78715933945135 ], [ -122.416276651122729, 37.787212207052583 ], [ -122.416228676700982, 37.787297163971715 ], [ -122.416228568014333, 37.787297356442664 ], [ -122.415910001222002, 37.787861499838741 ], [ -122.415565681021846, 37.788339313633017 ], [ -122.415185, 37.788388 ], [ -122.414995, 37.787454 ], [ -122.413354, 37.787664 ], [ -122.412531, 37.787767 ], [ -122.411699, 37.787872 ], [ -122.408402, 37.788293 ], [ -122.408402, 37.788293000000102 ], [ -122.408402, 37.788293000000102 ], [ -122.408786, 37.79016 ], [ -122.407149, 37.790366 ], [ -122.407149, 37.790366 ], [ -122.407149, 37.790366 ], [ -122.40734, 37.791296 ], [ -122.407536, 37.792249 ], [ -122.407903, 37.79406 ], [ -122.408047246098945, 37.794787000338665 ], [ -122.408047246098931, 37.79478700033868 ], [ -122.407865830047186, 37.794989615086109 ], [ -122.407277349937033, 37.795526439584364 ], [ -122.406646703439336, 37.795998932613216 ], [ -122.406601, 37.795774 ], [ -122.406305, 37.794264 ], [ -122.404796, 37.794453 ], [ -122.404613, 37.793565 ], [ -122.404613, 37.793565 ], [ -122.404612999797891, 37.793565000025865 ], [ -122.401315, 37.793987 ], [ -122.400149, 37.794134 ], [ -122.396586, 37.794588 ], [ -122.396315, 37.793337 ], [ -122.399195, 37.791058 ], [ -122.403408041578103, 37.787805730682216 ], [ -122.403456, 37.787776 ], [ -122.404743, 37.786778 ], [ -122.406062, 37.785757 ], [ -122.402708, 37.783259 ], [ -122.400468, 37.78503 ], [ -122.39893, 37.783785 ], [ -122.397386, 37.782554 ], [ -122.401843, 37.779032 ], [ -122.40407, 37.777273 ], [ -122.404226629287891, 37.777149239611262 ], [ -122.404224175114265, 37.777216999885667 ], [ -122.404397095075979, 37.777148633825746 ], [ -122.404504550815545, 37.776958380170129 ], [ -122.404552659434316, 37.776891627397049 ], [ -122.408516, 37.77376 ], [ -122.410063, 37.774992 ], [ -122.411606, 37.776221 ], [ -122.413161, 37.774992 ], [ -122.415561, 37.773101 ], [ -122.415561, 37.773101000000104 ], [ -122.418704, 37.775645 ], [ -122.417615, 37.7766 ], [ -122.416292, 37.777494 ], [ -122.414782, 37.778744 ], [ -122.413365, 37.779862 ], [ -122.412548, 37.780508 ] ] ], [ [ [ -122.420357999999624, 37.78007199999837 ], [ -122.419943, 37.778238 ], [ -122.419765, 37.777291 ], [ -122.420357999999624, 37.78007199999837 ] ] ], [ [ [ -122.40671870706629, 37.622119107272184 ], [ -122.407252, 37.622842 ], [ -122.406718707066275, 37.622119107272191 ], [ -122.40671870706629, 37.622119107272184 ] ] ], [ [ [ -122.411774000000193, 37.630673000000407 ], [ -122.411774, 37.630673000000101 ], [ -122.409458, 37.626656 ], [ -122.411774, 37.630673 ], [ -122.411774000000193, 37.630673000000407 ] ] ], [ [ [ -122.413759, 37.634184 ], [ -122.413759, 37.634184 ], [ -122.413759, 37.634184 ], [ -122.413759, 37.634184 ], [ -122.413759, 37.634184 ] ] ], [ [ [ -122.411315957255496, 37.635643115085671 ], [ -122.411425, 37.641228 ], [ -122.411577, 37.641231 ], [ -122.416763, 37.639353 ], [ -122.418482, 37.642316 ], [ -122.423435, 37.640472 ], [ -122.423575, 37.640678 ], [ -122.42420418315352, 37.641558502444141 ], [ -122.424164572211225, 37.641613592488525 ], [ -122.423646432010656, 37.642193689981305 ], [ -122.423059274052704, 37.642730606368168 ], [ -122.422930049612816, 37.642827659077312 ], [ -122.422828809075995, 37.642920235262814 ], [ -122.422178284493754, 37.643408797481442 ], [ -122.421470661496528, 37.643844300589024 ], [ -122.420712755509371, 37.644222549497066 ], [ -122.419911866671626, 37.644539900573122 ], [ -122.419075709490684, 37.644793296764838 ], [ -122.418212338489084, 37.644980297071491 ], [ -122.417330070562997, 37.645099100077417 ], [ -122.416437404803006, 37.645148561319729 ], [ -122.415542940552186, 37.645128204322766 ], [ -122.414655294494068, 37.645038225192017 ], [ -122.413783017573294, 37.644879490723241 ], [ -122.412934512551729, 37.644653530045474 ], [ -122.41211795299867, 37.644362519877909 ], [ -122.411341204497859, 37.644009263544255 ], [ -122.410611748833475, 37.643597163946801 ], [ -122.409936611887645, 37.643130190761894 ], [ -122.409322295945557, 37.642612842174032 ], [ -122.409308808207854, 37.642598981111156 ], [ -122.409196689609587, 37.64250455882123 ], [ -122.40864911247229, 37.641941817572707 ], [ -122.408173545210275, 37.641339104788095 ], [ -122.4077745667051, 37.640702225809655 ], [ -122.407456017827329, 37.640037314918004 ], [ -122.407220964504674, 37.639350776225221 ], [ -122.407191661370064, 37.639213079654425 ], [ -122.407184087795827, 37.639190958633428 ], [ -122.407034792227066, 37.63848940432085 ], [ -122.406972688997257, 37.637779591153404 ], [ -122.406984645865265, 37.637448493249963 ], [ -122.406494852030391, 37.637171738587746 ], [ -122.406029623912005, 37.636849897807984 ], [ -122.405907006498879, 37.636780611749508 ], [ -122.405231960910925, 37.636313611142945 ], [ -122.404617733939403, 37.635796237518882 ], [ -122.404316600380795, 37.635486705167338 ], [ -122.405412, 37.635401000000101 ], [ -122.405412000000155, 37.635401 ], [ -122.406059, 37.635128000000101 ], [ -122.406886, 37.6352690000001 ], [ -122.41131, 37.635338 ], [ -122.411315957255496, 37.635643115085671 ] ] ], [ [ [ -122.404348, 37.710443 ], [ -122.404821, 37.709747 ], [ -122.40556386977093, 37.708267117512925 ], [ -122.405582, 37.708231 ], [ -122.406480999997598, 37.708322999999851 ], [ -122.406481, 37.7083230000001 ], [ -122.410772737856604, 37.708308449269957 ], [ -122.410802598751076, 37.708649223033476 ], [ -122.41077692570029, 37.709360452407559 ], [ -122.410663626534301, 37.710066257682605 ], [ -122.41046378995415, 37.710759841320332 ], [ -122.410179338233149, 37.71143452330206 ], [ -122.409866163576751, 37.711989593954009 ], [ -122.409866163576737, 37.71198959395403 ], [ -122.407927, 37.711448 ], [ -122.406275836232737, 37.715054339275333 ], [ -122.406143423915921, 37.71512033594707 ], [ -122.406000631595219, 37.715176840658174 ], [ -122.403617, 37.714327 ], [ -122.402188, 37.714731 ], [ -122.402154, 37.712656 ], [ -122.402546, 37.712266 ], [ -122.403109, 37.711998000000101 ], [ -122.404348, 37.710443 ] ] ], [ [ [ -122.281417008257179, 37.80094324399542 ], [ -122.28156175819538, 37.80162751743574 ], [ -122.281622799621502, 37.802337377461491 ], [ -122.281595856909902, 37.803048566572549 ], [ -122.281481187019622, 37.803754235569684 ], [ -122.281279891848158, 37.804447588224654 ], [ -122.280993907713167, 37.805121946741203 ], [ -122.280670733677198, 37.805691900659433 ], [ -122.280640035046616, 37.805797634667783 ], [ -122.280354039900601, 37.806471991462907 ], [ -122.279986106697791, 37.80712085864441 ], [ -122.279903303582515, 37.807235349201122 ], [ -122.279824128930116, 37.807422030338365 ], [ -122.279673487899913, 37.807687685279774 ], [ -122.279655828315967, 37.807718827895648 ], [ -122.279456186388657, 37.808070895751477 ], [ -122.279009846740649, 37.808688021521121 ], [ -122.278644966475312, 37.809094268441861 ], [ -122.278600388241415, 37.809247786113978 ], [ -122.278314361280707, 37.809922137527408 ], [ -122.277946393155432, 37.810570997926284 ], [ -122.277500025928759, 37.811188117692808 ], [ -122.276979557089874, 37.811767552775535 ], [ -122.276723692370027, 37.81200024803956 ], [ -122.27666650432181, 37.812101084558073 ], [ -122.276220117257779, 37.812718199303276 ], [ -122.27569962770383, 37.813297628571313 ], [ -122.275611895496354, 37.813377411994338 ], [ -122.275611895496269, 37.813377411994409 ], [ -122.275110047436499, 37.813833791210151 ], [ -122.274572347654612, 37.814235408042826 ], [ -122.27456696757055, 37.814239426516323 ], [ -122.274457054094029, 37.814321522704191 ], [ -122.273746936510904, 37.814756124948985 ], [ -122.272986534146938, 37.815133411534241 ], [ -122.272183171195152, 37.815449748097919 ], [ -122.271344586003309, 37.815702087361153 ], [ -122.271220794468505, 37.81572867115031 ], [ -122.271130647420492, 37.81574802990631 ], [ -122.270756906976175, 37.815828289329438 ], [ -122.270644527879611, 37.815862104119986 ], [ -122.269778794748291, 37.816048010121079 ], [ -122.268894257523158, 37.816165696970728 ], [ -122.267999437162942, 37.816214030958719 ], [ -122.267102953773204, 37.816192546468763 ], [ -122.26621344349401, 37.816101450467769 ], [ -122.265339475232594, 37.815941620510209 ], [ -122.264489468046349, 37.815714596277353 ], [ -122.264244414144201, 37.815627095191083 ], [ -122.266770999992559, 37.811553000012012 ], [ -122.266771, 37.811553 ], [ -122.266771, 37.811553 ], [ -122.271274, 37.804361 ], [ -122.268798, 37.803427 ], [ -122.268797999977068, 37.803426999990982 ], [ -122.26761, 37.80296 ], [ -122.26645800002224, 37.802497000008941 ], [ -122.266458, 37.802497 ], [ -122.267312, 37.801081000000103 ], [ -122.267312, 37.801081 ], [ -122.267312, 37.801081 ], [ -122.263752, 37.7997 ], [ -122.265066, 37.797622 ], [ -122.266615, 37.795117 ], [ -122.27014, 37.796524 ], [ -122.272515, 37.797457 ], [ -122.274935, 37.798276 ], [ -122.275061, 37.798321 ], [ -122.278536, 37.799654 ], [ -122.279564, 37.800449 ], [ -122.279564, 37.8004490000001 ], [ -122.279687, 37.800256 ], [ -122.281417008257179, 37.80094324399542 ] ] ], [ [ [ -122.303339, 37.804684000000101 ], [ -122.30424684020781, 37.806593615420809 ], [ -122.304170781022194, 37.806855882684658 ], [ -122.303959860919818, 37.807353624538536 ], [ -122.303950466166697, 37.807375794838009 ], [ -122.302388936844622, 37.807123474551112 ], [ -122.302386, 37.807123 ], [ -122.302012000004808, 37.808057999988108 ], [ -122.302012, 37.808058000000102 ], [ -122.300212, 37.810339 ], [ -122.300211999998382, 37.810339000002031 ], [ -122.29917823425572, 37.811577163690551 ], [ -122.298945376663141, 37.811668925551004 ], [ -122.298106925164703, 37.811921455226873 ], [ -122.297241306783079, 37.812107562897303 ], [ -122.296356860071057, 37.812225455746201 ], [ -122.295730038274101, 37.812259462143146 ], [ -122.295697344145594, 37.812261235868178 ], [ -122.293994, 37.811415000000103 ], [ -122.293433426651077, 37.812117498855841 ], [ -122.293433426651021, 37.812117498855827 ], [ -122.292802183683889, 37.812002206669987 ], [ -122.291952137659962, 37.811775380157421 ], [ -122.291440105787188, 37.811592683086126 ], [ -122.291432570620884, 37.811589994478467 ], [ -122.291134214997214, 37.811483538803444 ], [ -122.290356294409534, 37.811129493937067 ], [ -122.289625868969054, 37.810716656054481 ], [ -122.288949973894944, 37.810249001941536 ], [ -122.288335118768714, 37.809731036339222 ], [ -122.287787224830282, 37.809167748523059 ], [ -122.287311567959037, 37.808564564215885 ], [ -122.286912727888819, 37.807927293298498 ], [ -122.286856292195793, 37.807809304485971 ], [ -122.286594544144961, 37.80726207382326 ], [ -122.28636007912597, 37.806575312871189 ], [ -122.286211588683685, 37.805873624823143 ], [ -122.28615050048144, 37.805163767640423 ], [ -122.286177400336754, 37.804452577769851 ], [ -122.286292026675127, 37.803746904299693 ], [ -122.286493273146093, 37.803053543001461 ], [ -122.286668933349475, 37.802639239130933 ], [ -122.286832, 37.802685000000103 ], [ -122.28867, 37.802755 ], [ -122.291101, 37.802526000000107 ], [ -122.291101, 37.8025260000001 ], [ -122.296858, 37.801922 ], [ -122.300389, 37.802657000000103 ], [ -122.303339, 37.804684000000101 ] ] ], [ [ [ -122.272705914479957, 37.825458146634553 ], [ -122.271796, 37.825226 ], [ -122.268563, 37.824462 ], [ -122.268272, 37.824385 ], [ -122.261996000048967, 37.823012000010813 ], [ -122.261996, 37.823012 ], [ -122.261892921416504, 37.822981387214647 ], [ -122.262386758134724, 37.822736454572848 ], [ -122.263190241683404, 37.822420185164333 ], [ -122.264028930480023, 37.822167904191055 ], [ -122.264894749379124, 37.821982040603537 ], [ -122.265779362247272, 37.821864383872935 ], [ -122.266674252160826, 37.821816066776591 ], [ -122.267570803337065, 37.821837554501059 ], [ -122.268460384013167, 37.821928640167279 ], [ -122.269172549521571, 37.822058849396811 ], [ -122.269228929187193, 37.822069157608503 ], [ -122.269334429477979, 37.822088446820658 ], [ -122.2701845244613, 37.822315435866912 ], [ -122.271002484090602, 37.822607421873187 ], [ -122.271780432638536, 37.822961593591891 ], [ -122.272510879306452, 37.823374541006359 ], [ -122.273186790315961, 37.823842288138373 ], [ -122.273801656616428, 37.824360331303311 ], [ -122.274349556557581, 37.824923682445636 ], [ -122.274825212924043, 37.825526917138582 ], [ -122.275149932198318, 37.826045800576409 ], [ -122.275174592423454, 37.82608520625206 ], [ -122.275061, 37.826059 ], [ -122.272705914479957, 37.825458146634553 ] ] ], [ [ [ -122.231579, 37.481773 ], [ -122.232476, 37.482417 ], [ -122.232476, 37.482417 ], [ -122.231402, 37.483366 ], [ -122.22912711737888, 37.481727642992183 ], [ -122.227074, 37.4802490000001 ], [ -122.226134, 37.484162 ], [ -122.225542, 37.483959 ], [ -122.224346, 37.485677000000102 ], [ -122.222378321129369, 37.48849867724158 ], [ -122.222376001909453, 37.488494948975749 ], [ -122.222198324730272, 37.488209323730942 ], [ -122.221882082532559, 37.48754390035598 ], [ -122.221649218768746, 37.48685698053459 ], [ -122.221501973886419, 37.486155180177882 ], [ -122.221441763572912, 37.485445258328504 ], [ -122.221469165211943, 37.484734052055082 ], [ -122.221583912418367, 37.484028410602285 ], [ -122.221784897699351, 37.483335129431204 ], [ -122.222070183212921, 37.482660884785126 ], [ -122.222185579019992, 37.482456818193306 ], [ -122.222185579020021, 37.482456818193263 ], [ -122.22243701951659, 37.482012169410211 ], [ -122.222881872122386, 37.481395230049841 ], [ -122.223400455599432, 37.480816007313486 ], [ -122.223435424368589, 37.480784098612617 ], [ -122.223499080069644, 37.480712998625073 ], [ -122.224086397843578, 37.480177069311743 ], [ -122.224736794869429, 37.47968959417522 ], [ -122.225444007621434, 37.479255266881097 ], [ -122.226201225890421, 37.478878269283008 ], [ -122.227001158345516, 37.478562231185734 ], [ -122.227197730217028, 37.478502894128418 ], [ -122.227197730217128, 37.47850289412839 ], [ -122.227836102711436, 37.478310195422367 ], [ -122.228698019887602, 37.4781245885803 ], [ -122.229578611297228, 37.478007197657178 ], [ -122.23046939872421, 37.477959152870142 ], [ -122.230808701496201, 37.477967427743515 ], [ -122.228672, 37.479663 ], [ -122.231258, 37.481532 ], [ -122.231579, 37.481773 ] ] ], [ [ [ -122.232999999988124, 37.484508999991604 ], [ -122.233, 37.484509 ], [ -122.233, 37.484509 ], [ -122.233, 37.484509000000102 ], [ -122.232999999988124, 37.484508999991604 ] ] ], [ [ [ -122.223771763402823, 37.767400892337903 ], [ -122.224667645385722, 37.767422706310228 ], [ -122.225556521784284, 37.767514116381641 ], [ -122.226429834665765, 37.767674242474364 ], [ -122.227279175810864, 37.767901542918807 ], [ -122.228096367602561, 37.768193829284186 ], [ -122.228873541704033, 37.768548287431244 ], [ -122.229172916120959, 37.768717825622197 ], [ -122.229283522638511, 37.768768270511515 ], [ -122.230013200146686, 37.769181485112583 ], [ -122.230079559827558, 37.769227484214582 ], [ -122.230263192437803, 37.769331473254688 ], [ -122.230938345658913, 37.769799467031511 ], [ -122.231552469973749, 37.770317735482955 ], [ -122.232099650875767, 37.770881288384238 ], [ -122.232574618073002, 37.771484699365914 ], [ -122.232972796268655, 37.772122158136142 ], [ -122.233290349265886, 37.772787526402922 ], [ -122.233524216971077, 37.773474396959067 ], [ -122.233672144936619, 37.774176155362042 ], [ -122.233732706155934, 37.774886043615581 ], [ -122.233731646276937, 37.774913562375659 ], [ -122.233732711073714, 37.774926043616333 ], [ -122.233705319800848, 37.77563722523616 ], [ -122.233590237284133, 37.776342851099251 ], [ -122.23338856939732, 37.777036125391703 ], [ -122.233102256050287, 37.777710371070903 ], [ -122.232734052593685, 37.778359094185646 ], [ -122.232287503360268, 37.778976046439418 ], [ -122.231766907595386, 37.779555285393187 ], [ -122.23117727810137, 37.78009123172717 ], [ -122.230807853276943, 37.780367028799375 ], [ -122.230807853276886, 37.780367028799411 ], [ -122.230524292993252, 37.780578723008489 ], [ -122.229814241028393, 37.781013063445791 ], [ -122.229053961036428, 37.781390069150092 ], [ -122.228250776032937, 37.781706108464455 ], [ -122.227412422652492, 37.781958136973039 ], [ -122.226546976581943, 37.782143726850556 ], [ -122.226398065201693, 37.782163492904978 ], [ -122.226396962800692, 37.782163729302248 ], [ -122.225512760458386, 37.782281091594996 ], [ -122.224618320184405, 37.782329096820924 ], [ -122.223722258421887, 37.78230728253078 ], [ -122.223463776431728, 37.782280702092137 ], [ -122.223463776431672, 37.78228070209213 ], [ -122.222833207248058, 37.782215858868483 ], [ -122.222655694165823, 37.782183312327454 ], [ -122.222583184100728, 37.782175855491154 ], [ -122.221709709008024, 37.782015701314549 ], [ -122.22086022351472, 37.781788361313971 ], [ -122.220042910633737, 37.78149602549481 ], [ -122.219265643202206, 37.78114150994918 ], [ -122.218554014610532, 37.780738484256119 ], [ -122.218554014610277, 37.780738484255984 ], [ -122.218535907997691, 37.780728229707229 ], [ -122.21829585155912, 37.780561811977563 ], [ -122.218165897964937, 37.780488212175989 ], [ -122.217490728068313, 37.780020146145645 ], [ -122.216876621656326, 37.779501805343067 ], [ -122.216522871546388, 37.779137391058889 ], [ -122.216522871546331, 37.779137391058832 ], [ -122.21632949275471, 37.778938182657342 ], [ -122.21585460987194, 37.778334707036215 ], [ -122.215793686584831, 37.77823713602956 ], [ -122.215793686584774, 37.778237136029482 ], [ -122.215456545285335, 37.777697191165537 ], [ -122.215139131050037, 37.777031775456059 ], [ -122.214905422152853, 37.776344868877707 ], [ -122.214757667163468, 37.775643087212579 ], [ -122.214697286663196, 37.774933189322326 ], [ -122.214724859655419, 37.774222012044277 ], [ -122.214840118085334, 37.773516404343937 ], [ -122.215041949517982, 37.77282316135792 ], [ -122.215158286706952, 37.772549352651183 ], [ -122.215158286706995, 37.772549352651104 ], [ -122.21532840794508, 37.772148958962717 ], [ -122.21550976410937, 37.771829566274626 ], [ -122.215509764109441, 37.771829566274505 ], [ -122.215696732613068, 37.771500289499194 ], [ -122.216143374687604, 37.770883399270488 ], [ -122.216150634106754, 37.770875324079363 ], [ -122.216253384408503, 37.770733406338628 ], [ -122.216774039306685, 37.770154234982193 ], [ -122.2173636938345, 37.769618359735908 ], [ -122.218016668958285, 37.769130940394682 ], [ -122.218726676325318, 37.768696670089525 ], [ -122.219486878818074, 37.768319730127907 ], [ -122.220289956374856, 37.768003749761959 ], [ -122.220686212414293, 37.767884630687405 ], [ -122.220723765679608, 37.767873341748526 ], [ -122.221128176443415, 37.76775177127103 ], [ -122.221993468391233, 37.767566220692892 ], [ -122.222877501157598, 37.7674488844848 ], [ -122.223771763402823, 37.767400892337903 ] ] ], [ [ [ -122.259554, 37.798301 ], [ -122.257805, 37.799704 ], [ -122.256345802443789, 37.80008294918354 ], [ -122.256124526455196, 37.799619829760857 ], [ -122.25589036737135, 37.79893300730194 ], [ -122.255742180130824, 37.798231279936758 ], [ -122.255681389477033, 37.797521406004741 ], [ -122.255685152631244, 37.79742297259552 ], [ -122.255708578362146, 37.796810222113365 ], [ -122.255823482428795, 37.796104577292645 ], [ -122.256024992652755, 37.795411267037558 ], [ -122.256311166116802, 37.794736967873412 ], [ -122.256679244809149, 37.794088173073732 ], [ -122.257125682261716, 37.793471130149449 ], [ -122.257646177768436, 37.792891780710306 ], [ -122.257878545754792, 37.792680486378885 ], [ -122.257976188395872, 37.792571800847945 ], [ -122.258565723557567, 37.792035721733214 ], [ -122.259218625304882, 37.791548076191908 ], [ -122.259928605989558, 37.791113559533635 ], [ -122.260688828749352, 37.790736355438312 ], [ -122.261491973326017, 37.790420095701705 ], [ -122.262330306521022, 37.790167825293267 ], [ -122.263195756612049, 37.789981973061572 ], [ -122.264079991015578, 37.78986432836831 ], [ -122.26497449645079, 37.789816023874799 ], [ -122.265289237210723, 37.789823575133539 ], [ -122.265290116460591, 37.789823596228501 ], [ -122.262963000435221, 37.791174999747263 ], [ -122.262963, 37.791175 ], [ -122.261327, 37.793807 ], [ -122.260806, 37.79528 ], [ -122.259577, 37.79632 ], [ -122.259551, 37.798132 ], [ -122.259554, 37.798301 ] ] ], [ [ [ -122.082194406442326, 37.676019842988687 ], [ -122.081466464906185, 37.675605707782886 ], [ -122.081166445484129, 37.6753968064315 ], [ -122.080920269822144, 37.675256750550062 ], [ -122.080246919454865, 37.674787891105119 ], [ -122.079634638862743, 37.674268827169946 ], [ -122.079089324480933, 37.673704558598615 ], [ -122.07861622733779, 37.673100520559281 ], [ -122.078219902509488, 37.672462531153812 ], [ -122.077904165294854, 37.671796735352387 ], [ -122.077672054530453, 37.671109545783885 ], [ -122.077652827364986, 37.671017260728185 ], [ -122.077989, 37.670841000000102 ], [ -122.077989000008728, 37.670840999995448 ], [ -122.079916780609366, 37.669813492935305 ], [ -122.079989, 37.669775000000101 ], [ -122.080631540675554, 37.668913291340608 ], [ -122.080679447480932, 37.66884904372079 ], [ -122.080719, 37.668796 ], [ -122.080635, 37.66864 ], [ -122.078558603477987, 37.666145302225466 ], [ -122.078918329433648, 37.665649430481849 ], [ -122.079439317520922, 37.665070856527599 ], [ -122.080029127773315, 37.664535659756794 ], [ -122.080675839002481, 37.664053644798656 ], [ -122.08067583900251, 37.664053644798628 ], [ -122.080682079665706, 37.664048993428942 ], [ -122.081391885076016, 37.663615543422246 ], [ -122.082151708837031, 37.663239483144075 ], [ -122.082954234537908, 37.662924433375146 ], [ -122.083791734942622, 37.662673427433603 ], [ -122.084309298611529, 37.66256293141879 ], [ -122.084310125575556, 37.662562754868091 ], [ -122.083358, 37.664295 ], [ -122.083302, 37.664395 ], [ -122.082336, 37.666154 ], [ -122.082336, 37.666154 ], [ -122.083076, 37.6669160000001 ], [ -122.088112, 37.670501000000101 ], [ -122.09398, 37.674467 ], [ -122.094131705453847, 37.674571766521005 ], [ -122.093839942448881, 37.674836560796322 ], [ -122.093789721655199, 37.674873997407524 ], [ -122.093691704837894, 37.674962952990803 ], [ -122.093038742264383, 37.675449690698841 ], [ -122.092328891800676, 37.675883210179997 ], [ -122.091568990341145, 37.676259335451306 ], [ -122.090766357259454, 37.676574443335319 ], [ -122.089928723876341, 37.676825498387338 ], [ -122.089064158944325, 37.677010082158517 ], [ -122.08853894009097, 37.677079266040181 ], [ -122.088515286758636, 37.677082381749628 ], [ -122.088180990868551, 37.677126416511811 ], [ -122.087287727416339, 37.677173380765566 ], [ -122.086392973691346, 37.67715052249833 ], [ -122.085505349166056, 37.677058061911104 ], [ -122.084633404575214, 37.676896889704146 ], [ -122.083785539474505, 37.67666855848924 ], [ -122.082969921261423, 37.676375267820589 ], [ -122.082194406442326, 37.676019842988687 ] ] ], [ [ [ -122.133315372673138, 37.691649691708292 ], [ -122.133928170941203, 37.692168475057571 ], [ -122.134474036718501, 37.692732487988529 ], [ -122.134947712374796, 37.693336299701564 ], [ -122.135344635049066, 37.693974096045331 ], [ -122.135660980634924, 37.69463973547613 ], [ -122.135893700667268, 37.695326808174279 ], [ -122.136040551753112, 37.696028697749107 ], [ -122.136100117260114, 37.696738644939337 ], [ -122.136071821050848, 37.697449812696242 ], [ -122.135991410726163, 37.697939360221305 ], [ -122.130061, 37.692755 ], [ -122.129883, 37.692596 ], [ -122.12973, 37.692463 ], [ -122.128145, 37.69106 ], [ -122.130130999958297, 37.69111999999884 ], [ -122.130131, 37.69112 ], [ -122.130131, 37.69112 ], [ -122.130124509285835, 37.690066340733345 ], [ -122.130134357932846, 37.690068988251795 ], [ -122.130321318611436, 37.690119247119412 ], [ -122.131137274192014, 37.690412209143268 ], [ -122.13191317289612, 37.690767310801327 ], [ -122.132641543655268, 37.691181133123649 ], [ -122.133315372673138, 37.691649691708292 ] ] ], [ [ [ -122.117540262686475, 37.694950834213223 ], [ -122.117827304962347, 37.694276860436339 ], [ -122.118196094221673, 37.693628487620025 ], [ -122.118643077163227, 37.693011959208711 ], [ -122.118998147203939, 37.692617435468605 ], [ -122.119006588521231, 37.692608056192157 ], [ -122.118868, 37.698542 ], [ -122.120913, 37.699979 ], [ -122.119265495393861, 37.701579995247009 ], [ -122.11890979175206, 37.70121238948375 ], [ -122.118436196163216, 37.700608514005658 ], [ -122.118349199197851, 37.700468672771059 ], [ -122.1183448445165, 37.700463120097758 ], [ -122.117948033022003, 37.699825267106583 ], [ -122.117631823940201, 37.699159580639957 ], [ -122.117399260652007, 37.698472472274247 ], [ -122.117252580696274, 37.69777055973352 ], [ -122.117220085387046, 37.697382082535569 ], [ -122.117220085387046, 37.697382082535469 ], [ -122.11719319430442, 37.697060603138077 ], [ -122.117221670910496, 37.696349439888728 ], [ -122.117337733763037, 37.695643918813722 ], [ -122.117540262686475, 37.694950834213223 ] ] ], [ [ [ -122.169812868088485, 37.721201640616854 ], [ -122.169829766835235, 37.721401897750518 ], [ -122.169801783924655, 37.722113070803921 ], [ -122.169686177695979, 37.722818640530711 ], [ -122.169484059070967, 37.723511811656216 ], [ -122.169197372305206, 37.724185908129947 ], [ -122.168828876350474, 37.724834437436229 ], [ -122.168382118361464, 37.725451153143752 ], [ -122.167973484994278, 37.725905492773258 ], [ -122.167973484994235, 37.725905492773293 ], [ -122.16786139959865, 37.726030115090495 ], [ -122.167527488809512, 37.726333427958792 ], [ -122.167507, 37.726322 ], [ -122.161079, 37.726244000000101 ], [ -122.158875, 37.725502 ], [ -122.157524, 37.726871 ], [ -122.157524, 37.726871000000102 ], [ -122.156474721987223, 37.728120863527806 ], [ -122.156474721987209, 37.728120863527806 ], [ -122.156337611385084, 37.728071696979647 ], [ -122.155561206626885, 37.727716758334161 ], [ -122.154832350280273, 37.727303080154989 ], [ -122.154158062444409, 37.726834647322121 ], [ -122.153544837214326, 37.726315972077231 ], [ -122.152998580126265, 37.725752050530673 ], [ -122.152524551290284, 37.725148314508502 ], [ -122.152127314757337, 37.724510579204285 ], [ -122.152115546196583, 37.72448583981901 ], [ -122.152066909515327, 37.724407756149837 ], [ -122.151750290344225, 37.72374216391372 ], [ -122.15151733479756, 37.723055125629287 ], [ -122.151370284191302, 37.722353258346196 ], [ -122.151315657010954, 37.721703992933982 ], [ -122.151310552325455, 37.721643321749461 ], [ -122.151338711959824, 37.720932153048004 ], [ -122.151454489393714, 37.720226601123308 ], [ -122.151656767198247, 37.719533460573409 ], [ -122.151943595071074, 37.718859406286931 ], [ -122.152312208705595, 37.718210929176948 ], [ -122.152759056489501, 37.717594273692896 ], [ -122.153279833772515, 37.717015377711526 ], [ -122.153869524370961, 37.716479815384702 ], [ -122.15452244890767, 37.715992743493111 ], [ -122.155232319520294, 37.715558851821221 ], [ -122.155810898035313, 37.715272194137334 ], [ -122.155810898035384, 37.715272194137299 ], [ -122.15892, 37.717986 ], [ -122.159808, 37.718776 ], [ -122.164245, 37.722651 ], [ -122.16724, 37.721836 ], [ -122.168104, 37.721626 ], [ -122.169812868088485, 37.721201640616826 ], [ -122.169812868088485, 37.721201640616854 ] ] ], [ [ [ -122.190857153942247, 37.748474597724829 ], [ -122.191567122637295, 37.748040489460216 ], [ -122.19191654067771, 37.747867297699244 ], [ -122.191946933033748, 37.747848713985995 ], [ -122.192666348575131, 37.747492123704795 ], [ -122.192666348575159, 37.747492123704781 ], [ -122.192707058060947, 37.747471945370911 ], [ -122.193510024156225, 37.74715614630945 ], [ -122.194348099841122, 37.74690435733509 ], [ -122.195213215873466, 37.746719002660754 ], [ -122.196097042886237, 37.746601866857368 ], [ -122.196991071520443, 37.746554077686632 ], [ -122.197886694283397, 37.746576095252252 ], [ -122.198775288348088, 37.746667707574055 ], [ -122.199648298499085, 37.746828032626972 ], [ -122.200497319430625, 37.74705552682596 ], [ -122.201314176607482, 37.747347999874819 ], [ -122.202091004913399, 37.747702635836994 ], [ -122.20282032433245, 37.74811602022622 ], [ -122.203495111937031, 37.748584172857143 ], [ -122.204108869491151, 37.749102586140879 ], [ -122.204655686018924, 37.749666268457979 ], [ -122.204730012677928, 37.749760784783327 ], [ -122.204775867136362, 37.749808052913345 ], [ -122.205250477735632, 37.750411576149581 ], [ -122.205648308588096, 37.75104912950308 ], [ -122.205672076138327, 37.751098988302573 ], [ -122.205728321137002, 37.751189123955875 ], [ -122.206045540704821, 37.751854567992375 ], [ -122.206279090669597, 37.752541495059958 ], [ -122.206426719644185, 37.753243290171405 ], [ -122.206452177818335, 37.753543086513389 ], [ -122.206460557702655, 37.753641768322005 ], [ -122.206487003502332, 37.753953194976461 ], [ -122.20645935918516, 37.754664372835983 ], [ -122.206344050412042, 37.755369974657491 ], [ -122.206142185237539, 37.756063204858073 ], [ -122.205855705473397, 37.756737386819111 ], [ -122.205487368074927, 37.757386027202472 ], [ -122.205040718666979, 37.758002878507796 ], [ -122.204520057461494, 37.758581999267889 ], [ -122.203930397892961, 37.759117811300797 ], [ -122.203741043323092, 37.75925913344436 ], [ -122.203725783920191, 37.759270522087 ], [ -122.203277418367662, 37.759605153466794 ], [ -122.202567407590536, 37.760039331410432 ], [ -122.201807203995642, 37.760416162807523 ], [ -122.201004129863506, 37.76073201767997 ], [ -122.200165920761265, 37.760983853388367 ], [ -122.199883968281753, 37.761044264633753 ], [ -122.199485864252765, 37.761163869110185 ], [ -122.198620590684342, 37.761349254688689 ], [ -122.197736592217467, 37.761466409120416 ], [ -122.196842384620041, 37.761514203823907 ], [ -122.195946582093242, 37.761492178377878 ], [ -122.195057814216128, 37.761400544960466 ], [ -122.194184642741646, 37.761240186303326 ], [ -122.193335479048642, 37.761012647180983 ], [ -122.19251850304893, 37.760720119516989 ], [ -122.191741584333258, 37.760365421251592 ], [ -122.19101220631886, 37.759951969175049 ], [ -122.190337394131447, 37.759483745989399 ], [ -122.18972364691804, 37.758965261916813 ], [ -122.189176875243689, 37.758401511226332 ], [ -122.1889183327757, 37.758072654137386 ], [ -122.188918332775671, 37.758072654137358 ], [ -122.188702344175525, 37.757797924098448 ], [ -122.188304622601976, 37.757160314292875 ], [ -122.187987539274502, 37.756494823124761 ], [ -122.187754145993111, 37.755807860290432 ], [ -122.187606688288483, 37.755106042113404 ], [ -122.187546583879694, 37.754396127806451 ], [ -122.187574409112415, 37.753684954364481 ], [ -122.1876898935041, 37.752979370715458 ], [ -122.187891922445374, 37.752286171763757 ], [ -122.187959773708243, 37.752126587849688 ], [ -122.187991951095768, 37.752016179397771 ], [ -122.188073926565067, 37.751823373010765 ], [ -122.188278574729196, 37.751342040320999 ], [ -122.18864703237945, 37.750693453052996 ], [ -122.189093773933465, 37.750076663104814 ], [ -122.189614495761262, 37.749497609648778 ], [ -122.19020418221065, 37.748961868353916 ], [ -122.190857153942247, 37.748474597724829 ] ] ], [ [ [ -121.875654277420566, 37.312079794561747 ], [ -121.875772023312933, 37.311374488176824 ], [ -121.87597575026976, 37.310681796091089 ], [ -121.876263494063664, 37.310008388867367 ], [ -121.876632481597952, 37.309360751180186 ], [ -121.87707915768857, 37.308745119388192 ], [ -121.877599219365166, 37.308167421503221 ], [ -121.878187657358552, 37.307633220133376 ], [ -121.878838804372975, 37.307147658948033 ], [ -121.879546389677444, 37.306715413179298 ], [ -121.879606635211672, 37.306685595959848 ], [ -121.879632521213367, 37.306669782659988 ], [ -121.880227668001922, 37.306375223758359 ], [ -121.883232, 37.310156 ], [ -121.883232, 37.310156 ], [ -121.887901, 37.315414 ], [ -121.888481017492495, 37.315910501103218 ], [ -121.888787955136237, 37.316339831327639 ], [ -121.88984, 37.318589 ], [ -121.889857785702844, 37.318650845145832 ], [ -121.889855320996432, 37.318652350891306 ], [ -121.889098034352784, 37.319027180997942 ], [ -121.888298385759384, 37.31934091838815 ], [ -121.887464077788707, 37.319590540815781 ], [ -121.886603147156819, 37.319773643629951 ], [ -121.885723887253221, 37.319888462958147 ], [ -121.884834768188185, 37.319933892712164 ], [ -121.883944355130325, 37.319909495252482 ], [ -121.883061225724546, 37.319815505607814 ], [ -121.882193887389235, 37.319652829209076 ], [ -121.881351712586294, 37.319423310403621 ], [ -121.881350695292966, 37.319423033159573 ], [ -121.880539771804138, 37.319128331126031 ], [ -121.879768928192448, 37.318771561996535 ], [ -121.879045589339299, 37.318356162511733 ], [ -121.878376722184655, 37.317886134134248 ], [ -121.877768768601214, 37.317366004476177 ], [ -121.877227583343497, 37.316800783658145 ], [ -121.876758377669958, 37.316195916021016 ], [ -121.876365669180743, 37.315557227657308 ], [ -121.876072375333706, 37.314931685921501 ], [ -121.876072325425923, 37.314931579477403 ], [ -121.876053238353379, 37.314890870268492 ], [ -121.875824092193042, 37.314203261890846 ], [ -121.875680435345615, 37.313501025061164 ], [ -121.87562364894859, 37.312790923019158 ], [ -121.875654277420566, 37.312079794561747 ] ] ], [ [ [ -121.933150478480187, 37.360611907180569 ], [ -121.932338903633834, 37.360317564214498 ], [ -121.931567387721771, 37.359961136555235 ], [ -121.930843362103701, 37.359546057653979 ], [ -121.930173800337087, 37.359076325885319 ], [ -121.929565150987173, 37.358556466004281 ], [ -121.929023275511639, 37.357991485533098 ], [ -121.928553391818028, 37.357386826497901 ], [ -121.928160024037481, 37.356748312982312 ], [ -121.927846958997335, 37.356082095004382 ], [ -121.927617209810364, 37.355394589258324 ], [ -121.92747298692889, 37.3546924172933 ], [ -121.927415676939901, 37.353982341725271 ], [ -121.927445829302101, 37.353271201097215 ], [ -121.927454423112962, 37.353219534234547 ], [ -121.927464986078604, 37.352970403623324 ], [ -121.927582307272431, 37.352265046511903 ], [ -121.927785665332436, 37.351572265648961 ], [ -121.92807309958026, 37.35089873245343 ], [ -121.928113923687391, 37.350827013643794 ], [ -121.92818172388759, 37.350668137885776 ], [ -121.928550462123852, 37.350020337897575 ], [ -121.928875834749078, 37.349571563730407 ], [ -121.932135, 37.3512190000001 ], [ -121.937367, 37.3538980000001 ], [ -121.937439854134396, 37.353926257600889 ], [ -121.937553, 37.353984 ], [ -121.94383, 37.356683 ], [ -121.945051983725719, 37.356283540926071 ], [ -121.944941459386385, 37.356542666507877 ], [ -121.944572831096124, 37.35719051783645 ], [ -121.944126421663611, 37.357806405502025 ], [ -121.943606529015312, 37.358384397311745 ], [ -121.94301815920592, 37.358918925950817 ], [ -121.942366978238027, 37.359404842634852 ], [ -121.941659257507681, 37.359837466733197 ], [ -121.940901813401055, 37.360212630883915 ], [ -121.940101941623993, 37.360526721164433 ], [ -121.939267346897864, 37.360776711929773 ], [ -121.938406068700573, 37.360960194981182 ], [ -121.937526403769922, 37.361075402783435 ], [ -121.936636826118502, 37.361121225506231 ], [ -121.935822266524795, 37.361099279098624 ], [ -121.935745905333761, 37.361097221724506 ], [ -121.935709026567238, 37.361093315545666 ], [ -121.934862223953147, 37.361003622674545 ], [ -121.933994294714282, 37.3608413300244 ], [ -121.933150478480187, 37.360611907180569 ] ] ], [ [ [ -121.865194242989773, 37.367632103732383 ], [ -121.865199327397292, 37.367601696693619 ], [ -121.86522746105021, 37.366951082885393 ], [ -121.865345391892092, 37.366245788718857 ], [ -121.86554936519471, 37.365553116463694 ], [ -121.865837414355212, 37.36487973649173 ], [ -121.866206763333523, 37.364232133215197 ], [ -121.866468971959037, 37.363871102759788 ], [ -121.866494382773183, 37.36383611505569 ], [ -121.866653853462694, 37.363616542661582 ], [ -121.867174377783641, 37.363038892445914 ], [ -121.86776332257098, 37.36250474471759 ], [ -121.868415015648381, 37.362019242629913 ], [ -121.869123181026765, 37.361587060846375 ], [ -121.869880999338989, 37.36121236055903 ], [ -121.870681173488975, 37.36089874945062 ], [ -121.871515998884107, 37.36064924698475 ], [ -121.872377437576091, 37.360466255356748 ], [ -121.873257195598953, 37.360351536384243 ], [ -121.874146802761217, 37.36030619455881 ], [ -121.875037694128011, 37.36033066642117 ], [ -121.875323099319772, 37.360361044865634 ], [ -121.875901, 37.360611 ], [ -121.877449, 37.36108 ], [ -121.877449, 37.361080000000101 ], [ -121.87915210418943, 37.361439499587192 ], [ -121.879215371967959, 37.361468766089814 ], [ -121.879939129235879, 37.361884163716844 ], [ -121.880608400184713, 37.362354182241077 ], [ -121.881216739686309, 37.362874296108473 ], [ -121.881278064752038, 37.362938300080984 ], [ -121.881645594893556, 37.363252522710866 ], [ -121.882187150122363, 37.363817721935611 ], [ -121.882656698887502, 37.364422566530337 ], [ -121.883049718069884, 37.365061232396918 ], [ -121.883362421158552, 37.365727569616844 ], [ -121.883591794775427, 37.366415161648327 ], [ -121.883654374440979, 37.366720691485078 ], [ -121.883668324941212, 37.36675041755003 ], [ -121.883897704515036, 37.367438008945705 ], [ -121.88404154235289, 37.368140233979922 ], [ -121.884098450858176, 37.368850330156739 ], [ -121.884069456979788, 37.369524764835504 ], [ -121.880698, 37.368007 ], [ -121.880202, 37.367788 ], [ -121.880201999988969, 37.36778799999319 ], [ -121.876750900489782, 37.365625191039641 ], [ -121.876749, 37.365624 ], [ -121.876748363513684, 37.365623505762656 ], [ -121.876305346934799, 37.365279499414292 ], [ -121.876136, 37.365148 ], [ -121.874509, 37.363418 ], [ -121.869365, 37.366808 ], [ -121.86532064862358, 37.369544229695535 ], [ -121.865220221339385, 37.36905333298359 ], [ -121.865163492152476, 37.368343227666671 ], [ -121.865194242989773, 37.367632103732383 ] ] ], [ [ [ -121.986572805608262, 37.370447510052507 ], [ -121.987296, 37.370442 ], [ -121.986926, 37.3718170000001 ], [ -121.986917676177185, 37.372442119093691 ], [ -121.98681763887754, 37.372143591408083 ], [ -121.986672827133589, 37.371441493026289 ], [ -121.986670158568543, 37.371408759751297 ], [ -121.98662861818616, 37.371207354735454 ], [ -121.986570733155531, 37.37049730883696 ], [ -121.986572805608262, 37.370447510052507 ] ] ], [ [ [ -122.062082271908977, 37.640438503932351 ], [ -122.062037821463875, 37.640465645554393 ], [ -122.061278128602709, 37.640841577201009 ], [ -122.06047574929903, 37.641156480167467 ], [ -122.059638412429436, 37.641407320982573 ], [ -122.058774183890051, 37.641591683260991 ], [ -122.057891388845221, 37.641707790999206 ], [ -122.056998531468025, 37.64175452569841 ], [ -122.056104212949151, 37.641731437148536 ], [ -122.055217048567414, 37.641638747768965 ], [ -122.054861322330467, 37.641572866379008 ], [ -122.054345584623377, 37.641477350464058 ], [ -122.053498216040936, 37.641248800014147 ], [ -122.05268310543299, 37.64095529808548 ], [ -122.051908104414537, 37.640599672003781 ], [ -122.051180677923853, 37.640185347497173 ], [ -122.050507832282648, 37.639716315671606 ], [ -122.049896047690552, 37.639197094538446 ], [ -122.04935121580445, 37.638632685465957 ], [ -122.04887858300512, 37.638028524975539 ], [ -122.048482699896496, 37.637390432348369 ], [ -122.048167377523512, 37.636724553548554 ], [ -122.047935650728348, 37.636037302004056 ], [ -122.04778974899574, 37.635335296816841 ], [ -122.047731075065158, 37.634625298998252 ], [ -122.047760191512992, 37.633914146344708 ], [ -122.047876815430172, 37.633208687580925 ], [ -122.048079821242737, 37.632515716405436 ], [ -122.048367251645018, 37.631841906073376 ], [ -122.048736336535796, 37.631193745146184 ], [ -122.049183519772271, 37.630577475026207 ], [ -122.049704493481343, 37.629999029877155 ], [ -122.050294239594834, 37.629463979507648 ], [ -122.050947078207187, 37.628977475766874 ], [ -122.051656722288755, 37.628544202966971 ], [ -122.052416338226905, 37.628168332808535 ], [ -122.052851825677138, 37.627997427725305 ], [ -122.053594, 37.629424 ], [ -122.058387999994579, 37.63573499999297 ], [ -122.058388, 37.635735 ], [ -122.058388, 37.635735000000103 ], [ -122.062082271908977, 37.640438503932351 ] ] ], [ [ [ -122.065652941406739, 37.636361904219662 ], [ -122.065652901002863, 37.636362042252692 ], [ -122.063341, 37.634340000000101 ], [ -122.063341, 37.63434 ], [ -122.063605, 37.634227000000102 ], [ -122.065046, 37.633582 ], [ -122.065813808954715, 37.63324178578975 ], [ -122.065903761178404, 37.633674088269558 ], [ -122.065962607720294, 37.634384077104741 ], [ -122.065933665019188, 37.635095234203661 ], [ -122.065817209307184, 37.635800710670722 ], [ -122.065652941406739, 37.636361904219662 ] ] ] ] } }
]
}
