{
"type": "FeatureCollection",
"name": "high_risk_displacement_tier2",
"crs": { "type": "name", "properties": { "name": "urn:ogc:def:crs:OGC:1.3:CRS84" } },
"features": [
{ "type": "Feature", "properties": { "OBJECTID": 13, "county_fip": "001", "tract": "401300", "tot_pop": 3855, "tot_pop_po": 3563, "tot_pop_ci": 3563, "tot_hh": 1804, "tot_fam": 457, "tot_pop_ov": 3768, "pop_over75": 286, "pop_poc": 2379, "pop_spfam": 78, "pop_lep": 343, "pop_below2": 1666, "pop_disabi": 605, "pop_hus_re": 330, "pop_zvhhs": 601, "pct_over75": 0.074189364461738003, "pct_poc_1": 0.61712062256809297, "pct_spfam": 0.17067833698030599, "pct_lep": 0.091029723991507397, "pct_below2": 0.46758349705304503, "pct_disab": 0.16980072972214399, "pct_hus_re": 0.18292682926829301, "pct_zvhhs": 0.33314855875831501, "over75_1_2": 0, "poc_1_2": 0, "spfam_1_2": 0, "lep_1_2": 0, "below2_1_2": 1, "disab_1_2": 1, "hus_re_1_2": 1, "zvhh_1_2": 1, "epc_2035": 1, "epc_2040": 1, "epc_2050": 1, "c2040_2050": 0, "epc_class": "Higher", "geoid": "06001401300", "state_fip": "06", "fips": "06001401300", "fips_bg": null, "county_name": "Alameda", "region": "Bay Area Region", "pct_above_200_pov": 0.72988363456301064, "pct_bachelors_plus": 0.54068105016896284, "pct_employed": 0.8465059505645407, "home_value": 846800.0, "math_prof": 0.42152350661859894, "read_prof": 0.43668727496593363, "grad_rate": 0.89014582470156611, "pct_not_frpm": 0.39628637962945218, "pct_above_200_pov_median": 0.84730388039643878, "pct_bachelors_plus_median": 0.5261797026502909, "pct_employed_median": 0.78294937050582336, "home_value_median": 1111500.0, "math_prof_median": 0.45779087822494302, "read_prof_median": 0.48794991395350246, "grad_rate_median": 0.91924847573665891, "pct_not_frpm_median": 0.5504194029081021, "env_burden_flag": 0.0, "oppscore": 3.0, "oppcat": "Low Resource", "pct_below_pov": 0.11587026491705868, "pct_asian": 0.16826923076923078, "pct_black": 0.28548534798534797, "pct_hispanic": 0.080128205128205135, "pct_poc_2": 0.66597985347985356, "pct_asian_cty": 0.3198506733561387, "pct_black_cty": 0.096275369275928016, "pct_hispanic_cty": 0.23320635201207784, "pct_poc_cty": 0.71763958814709172, "pov_seg_flag": 0.0, "stop_name": "Alder Station", "stop_id": "64803", "stop_desc": "Eastbound", "route_info": { "route_id": [ "SC:Event-Orange", "SC:Orange Line" ], "route_type": [ "0" ] }, "stop_name_clean": "San Leandro BART", "access_id": " ", "station_id": "52541", "acces_poin": "Pedestrian Access Point", "location_t": "2", "stop_lat": 37.72157, "stop_lon": -122.16017, "stop_name_": "Broad St & Plymouth Ave", "stop_id_12": "13718", "stop_code": "15571", "zone_id": null, "stop_url": "https://www.sfmta.com/15571", "tts_stop_n": null, "platform_c": null, "parent_sta": "13718", "stop_timez": "America/Los_Angeles", "wheelchair": "0", "level_id": null }, "geometry": { "type": "MultiPolygon", "coordinates": [ [ [ [ -122.46893899999985, 37.708232000000102 ], [ -122.465994, 37.710154 ], [ -122.460858, 37.710586 ], [ -122.462556, 37.711254000000103 ], [ -122.462569, 37.71315 ], [ -122.462588033768782, 37.713817912250157 ], [ -122.462589, 37.71403 ], [ -122.456061, 37.714077 ], [ -122.452174, 37.714104 ], [ -122.450378, 37.716169 ], [ -122.453378, 37.717768 ], [ -122.454189, 37.718239 ], [ -122.456108, 37.718235 ], [ -122.459187, 37.71823 ], [ -122.459187, 37.71823 ], [ -122.459198, 37.720024 ], [ -122.452506, 37.72003 ], [ -122.451646, 37.719686 ], [ -122.449546, 37.723011 ], [ -122.447878, 37.723005 ], [ -122.448582, 37.718411000000103 ], [ -122.448582, 37.718411 ], [ -122.448727, 37.71745 ], [ -122.449627, 37.715739 ], [ -122.452884, 37.712829 ], [ -122.451993, 37.712086 ], [ -122.449309, 37.709946 ], [ -122.452665, 37.708806 ], [ -122.454356, 37.708232 ], [ -122.458508994987142, 37.708231000001206 ], [ -122.458509, 37.708231 ], [ -122.45905, 37.708231 ], [ -122.46893899999985, 37.708232000000102 ] ] ], [ [ [ -122.441718479014014, 37.713913144444682 ], [ -122.441721439509678, 37.713911323342792 ], [ -122.441916646538914, 37.713447817730135 ], [ -122.442282702311616, 37.71279843589992 ], [ -122.442727110312916, 37.712180683012043 ], [ -122.443245589375735, 37.711600507514873 ], [ -122.443736216728496, 37.711152086312524 ], [ -122.444097, 37.711689 ], [ -122.444571, 37.712783 ], [ -122.443706, 37.713592 ], [ -122.441896, 37.715308 ], [ -122.440999, 37.716488 ], [ -122.440418, 37.717245 ], [ -122.439046651363455, 37.716741928154391 ], [ -122.439075660141242, 37.716701610404108 ], [ -122.439395426739082, 37.716343846103221 ], [ -122.439417030449889, 37.716313819513005 ], [ -122.43951688009804, 37.716136708620738 ], [ -122.439961331037054, 37.715518966494706 ], [ -122.440479854964977, 37.714938803478042 ], [ -122.441067457384662, 37.714401805926876 ], [ -122.441718479014014, 37.713913144444682 ] ] ], [ [ [ -122.474661, 37.719151 ], [ -122.474522679313409, 37.719007830139908 ], [ -122.474383, 37.717507 ], [ -122.474383, 37.717507 ], [ -122.474661, 37.719151 ] ] ], [ [ [ -122.432017840384916, 37.725227287416089 ], [ -122.432254556469331, 37.725195416433309 ], [ -122.432322163334504, 37.725101479743238 ], [ -122.432840813726159, 37.724521351244988 ], [ -122.433428547076758, 37.723984392623777 ], [ -122.433599388834594, 37.723856195270137 ], [ -122.433848098437551, 37.723265899555102 ], [ -122.433882370932793, 37.723205122957744 ], [ -122.433928871153185, 37.723094756311234 ], [ -122.434295044207957, 37.722445400306377 ], [ -122.434739576258622, 37.721827678506308 ], [ -122.435258184943478, 37.721247539059988 ], [ -122.435672370088895, 37.720869099075642 ], [ -122.43715, 37.721575 ], [ -122.435385, 37.723909 ], [ -122.434798, 37.724683 ], [ -122.433982, 37.725762 ], [ -122.432447000003179, 37.727636999996207 ], [ -122.432447, 37.727637 ], [ -122.432447, 37.727637 ], [ -122.429161591670692, 37.726161385707954 ], [ -122.429161591670734, 37.726161385707933 ], [ -122.429514813791286, 37.725985265925743 ], [ -122.430316539139582, 37.725667853379264 ], [ -122.431153567726639, 37.72541438040043 ], [ -122.432017840384916, 37.725227287416089 ] ] ], [ [ [ -122.416413, 37.753968 ], [ -122.412047, 37.75423 ], [ -122.4119, 37.752629 ], [ -122.411746, 37.751034 ], [ -122.411488, 37.748344 ], [ -122.413673, 37.748297 ], [ -122.41587, 37.748267 ], [ -122.41587, 37.748267 ], [ -122.416108, 37.750771 ], [ -122.416413, 37.753968 ] ] ], [ [ [ -122.422044, 37.76654 ], [ -122.422308, 37.769278 ], [ -122.422439, 37.770664 ], [ -122.42262, 37.772503 ], [ -122.422186, 37.772909 ], [ -122.419334, 37.77521 ], [ -122.419334, 37.77521 ], [ -122.419212538162682, 37.775293866506722 ], [ -122.417794, 37.770435 ], [ -122.417794, 37.770435 ], [ -122.417794, 37.770435 ], [ -122.417801361508609, 37.768567017189042 ], [ -122.417802, 37.768405 ], [ -122.417645572049906, 37.766804965539158 ], [ -122.417487, 37.765183 ], [ -122.417332, 37.763572000000103 ], [ -122.417332, 37.763572000000103 ], [ -122.421732, 37.7633000000001 ], [ -122.421732000000844, 37.763300000008741 ], [ -122.421853, 37.764571 ], [ -122.421886, 37.764917 ], [ -122.422043999999119, 37.766539999990911 ], [ -122.422044, 37.76654 ], [ -122.422044, 37.76654 ] ] ], [ [ [ -122.412548, 37.780508 ], [ -122.412547999970485, 37.780508000023275 ], [ -122.411985, 37.780952 ], [ -122.413866, 37.781863 ], [ -122.415505, 37.781654 ], [ -122.417146, 37.781447 ], [ -122.417339, 37.782379 ], [ -122.418993, 37.782169 ], [ -122.420689, 37.781955 ], [ -122.420358, 37.780072 ], [ -122.420358000015554, 37.78007199999815 ], [ -122.423540999983274, 37.779674000002188 ], [ -122.423541, 37.779674 ], [ -122.423541, 37.779674 ], [ -122.423354, 37.778747000000102 ], [ -122.423354, 37.778747000000102 ], [ -122.423541, 37.779674 ], [ -122.423918, 37.781536 ], [ -122.424108, 37.782477 ], [ -122.427396, 37.782057 ], [ -122.430696, 37.781635 ], [ -122.43032, 37.779772 ], [ -122.430115, 37.778842 ], [ -122.430018, 37.778356 ], [ -122.429929, 37.777909000000101 ], [ -122.429929000260998, 37.777908999966861 ], [ -122.431575, 37.7777 ], [ -122.43321899973931, 37.777490000033296 ], [ -122.433219, 37.7774900000001 ], [ -122.433407, 37.778422 ], [ -122.433596, 37.779355 ], [ -122.433973, 37.781219 ], [ -122.43435, 37.783083 ], [ -122.434562, 37.784152 ], [ -122.434562, 37.784152 ], [ -122.431291, 37.784621 ], [ -122.431290999991816, 37.784621000001088 ], [ -122.428009, 37.785058 ], [ -122.424704, 37.785418 ], [ -122.424678, 37.785291 ], [ -122.422838, 37.784547 ], [ -122.421256, 37.784745 ], [ -122.421461, 37.786632 ], [ -122.421461131771565, 37.786632299722349 ], [ -122.421858, 37.787535 ], [ -122.418465, 37.787966 ], [ -122.416827, 37.788178 ], [ -122.415185, 37.788388 ], [ -122.414995, 37.787454 ], [ -122.413354, 37.787664 ], [ -122.412531, 37.787767 ], [ -122.411699, 37.787872 ], [ -122.408402, 37.788293 ], [ -122.408402, 37.788293000000102 ], [ -122.408402, 37.788293000000102 ], [ -122.408786, 37.79016 ], [ -122.407149, 37.790366 ], [ -122.407149, 37.790366 ], [ -122.407149, 37.790366 ], [ -122.40734, 37.791296 ], [ -122.407536, 37.792249 ], [ -122.407903, 37.79406 ], [ -122.408253, 37.795824 ], [ -122.408431, 37.796704 ], [ -122.411719, 37.796291 ], [ -122.411719, 37.796291000000103 ], [ -122.411911, 37.797245 ], [ -122.412095897250467, 37.798165012931804 ], [ -122.407869, 37.798697 ], [ -122.407868999841654, 37.798696999890296 ], [ -122.406668000083599, 37.797865000057925 ], [ -122.406668, 37.797865 ], [ -122.405513, 37.797065 ], [ -122.406828, 37.796902 ], [ -122.406652, 37.796025 ], [ -122.406601, 37.795774 ], [ -122.406305, 37.794264 ], [ -122.404796, 37.794453 ], [ -122.404613, 37.793565 ], [ -122.404613, 37.793565 ], [ -122.404612999797891, 37.793565000025865 ], [ -122.401315, 37.793987 ], [ -122.400149, 37.794134 ], [ -122.396586, 37.794588 ], [ -122.396315, 37.793337 ], [ -122.399195, 37.791058 ], [ -122.403408041578103, 37.787805730682216 ], [ -122.403456, 37.787776 ], [ -122.404743, 37.786778 ], [ -122.406062, 37.785757 ], [ -122.402708, 37.783259 ], [ -122.400468, 37.78503 ], [ -122.39893, 37.783785 ], [ -122.397386, 37.782554 ], [ -122.401843, 37.779032 ], [ -122.40407, 37.777273 ], [ -122.408516, 37.77376 ], [ -122.410063, 37.774992 ], [ -122.411606, 37.776221 ], [ -122.413161, 37.774992 ], [ -122.415561, 37.773101 ], [ -122.415561, 37.773101000000104 ], [ -122.418704, 37.775645 ], [ -122.417615, 37.7766 ], [ -122.416292, 37.777494 ], [ -122.414782, 37.778744 ], [ -122.413365, 37.779862 ], [ -122.412548, 37.780508 ] ] ], [ [ [ -122.419943, 37.778238 ], [ -122.419765, 37.777291 ], [ -122.420357999999624, 37.78007199999837 ], [ -122.419943, 37.778238 ] ] ], [ [ [ -122.428336, 37.786713 ], [ -122.428336, 37.786713 ], [ -122.428336, 37.786713 ], [ -122.425047, 37.78713 ], [ -122.428336, 37.786713 ] ] ], [ [ [ -122.417017, 37.78911 ], [ -122.422077, 37.788474 ], [ -122.422077, 37.7884740000001 ], [ -122.415372, 37.78932 ], [ -122.417017, 37.78911 ] ] ], [ [ [ -122.414200363148282, 37.709481024013812 ], [ -122.414087096297848, 37.710186832567686 ], [ -122.413887291330838, 37.710880421999441 ], [ -122.413722280298359, 37.711271853319069 ], [ -122.412887, 37.711036 ], [ -122.411349, 37.710605 ], [ -122.410641, 37.712206 ], [ -122.407927, 37.711448 ], [ -122.406189, 37.715244 ], [ -122.403617, 37.714327 ], [ -122.402188, 37.714731 ], [ -122.402154, 37.712656 ], [ -122.402546, 37.712266 ], [ -122.403109, 37.711998000000101 ], [ -122.404348, 37.710443 ], [ -122.404821, 37.709747 ], [ -122.40556386977093, 37.708267117512925 ], [ -122.405582, 37.708231 ], [ -122.406480999997598, 37.708322999999851 ], [ -122.406481, 37.7083230000001 ], [ -122.41238, 37.7083030000001 ], [ -122.41238, 37.7083030000001 ], [ -122.414181020781299, 37.708256721093512 ], [ -122.414226003492317, 37.70876979390755 ], [ -122.414200363148282, 37.709481024013812 ] ] ], [ [ [ -122.407272, 37.717820000000103 ], [ -122.40792166025777, 37.717998441779962 ], [ -122.407628121046031, 37.718178861451328 ], [ -122.406973990274381, 37.718504882318477 ], [ -122.407272, 37.717820000000103 ] ] ], [ [ [ -122.406696396166183, 37.719142845713755 ], [ -122.406691537270973, 37.719277230258164 ], [ -122.406665, 37.719215 ], [ -122.406696396166183, 37.719142845713755 ] ] ], [ [ [ -122.403618841790191, 37.726012862839944 ], [ -122.403606503557029, 37.726089661835786 ], [ -122.403406558050662, 37.726783231719722 ], [ -122.403121980956058, 37.727457894924662 ], [ -122.403092783251722, 37.727509623647613 ], [ -122.402855446771355, 37.728072279897269 ], [ -122.402506350253333, 37.728690748642933 ], [ -122.40248934791228, 37.72872087044594 ], [ -122.402488971358054, 37.728721537559494 ], [ -122.402300917268647, 37.728982625612375 ], [ -122.402029465249171, 37.729463524894278 ], [ -122.401987858573733, 37.729521288655029 ], [ -122.401926427977017, 37.729903587212988 ], [ -122.401726456533993, 37.730597153814109 ], [ -122.401616641452634, 37.730857471218286 ], [ -122.401541141370672, 37.731119324468949 ], [ -122.40125653074216, 37.731793982690064 ], [ -122.40100895245601, 37.732232558089429 ], [ -122.400869291038688, 37.732563610304098 ], [ -122.400854847162947, 37.732589196441666 ], [ -122.400790768518846, 37.732987919207702 ], [ -122.400590778180046, 37.733681483530098 ], [ -122.400496373084195, 37.733905253160131 ], [ -122.400388957347133, 37.734277761391226 ], [ -122.400104324165255, 37.734952416478563 ], [ -122.399956476052381, 37.73521430299202 ], [ -122.39992651951458, 37.735400684634506 ], [ -122.399726514618379, 37.736094247213835 ], [ -122.399664590292574, 37.736241018089743 ], [ -122.399536580440056, 37.736684912189354 ], [ -122.399251930301872, 37.737359564949045 ], [ -122.398932316070727, 37.737925672074738 ], [ -122.398832656153829, 37.738545645421667 ], [ -122.398636093679684, 37.739227204809644 ], [ -122.398632632585972, 37.739239205782482 ], [ -122.398609873212692, 37.739293144776596 ], [ -122.395945, 37.737784 ], [ -122.394093, 37.736729 ], [ -122.391268, 37.739853 ], [ -122.389425, 37.738803 ], [ -122.387705, 37.742697 ], [ -122.387143, 37.741297 ], [ -122.385282, 37.74024 ], [ -122.381558, 37.738123 ], [ -122.380887000046769, 37.738827999950956 ], [ -122.380887, 37.738828 ], [ -122.380018864608459, 37.73826715620185 ], [ -122.380018864608488, 37.738267156201772 ], [ -122.380103175630225, 37.738067469695537 ], [ -122.380222413845388, 37.737654394777408 ], [ -122.380507237846757, 37.736979788030943 ], [ -122.380624535932753, 37.73677213364369 ], [ -122.380653127278549, 37.736594543382864 ], [ -122.38085331150522, 37.735901013247869 ], [ -122.380956048839664, 37.735657669720752 ], [ -122.381056135920801, 37.735310914179188 ], [ -122.381340943374141, 37.734636305155924 ], [ -122.381660677431356, 37.734070244062188 ], [ -122.381720403166639, 37.73369921707345 ], [ -122.381760474594572, 37.733450286170104 ], [ -122.381837514738947, 37.733183357782032 ], [ -122.381960640020125, 37.732756753793971 ], [ -122.38202259640174, 37.732609992139636 ], [ -122.382150703831257, 37.732166116774664 ], [ -122.382435489299823, 37.731491504756519 ], [ -122.382583391824141, 37.731229636898668 ], [ -122.382613390083904, 37.731043262711758 ], [ -122.382813541069112, 37.730349728612623 ], [ -122.382907994882359, 37.73012597302256 ], [ -122.38292163214652, 37.730078718094482 ], [ -122.382921632146562, 37.730078718094362 ], [ -122.383015492225496, 37.729753480478863 ], [ -122.383101092801255, 37.729550693288438 ], [ -122.383101092801283, 37.729550693288353 ], [ -122.383300260601544, 37.729078866103983 ], [ -122.383314709192973, 37.729053282770373 ], [ -122.383378878833994, 37.728654568591196 ], [ -122.383579016244852, 37.727961032920909 ], [ -122.383696120546361, 37.727683602876027 ], [ -122.383785850337702, 37.727372655154788 ], [ -122.384070602601199, 37.726698038656131 ], [ -122.384344221229711, 37.726213531860509 ], [ -122.384436586062193, 37.725994700760587 ], [ -122.384803205701715, 37.72534549896988 ], [ -122.384844822905293, 37.725287740898395 ], [ -122.384906338024834, 37.724905451305339 ], [ -122.385067216588354, 37.724347890025093 ], [ -122.385481002310854, 37.724630999854583 ], [ -122.385481002544864, 37.724467806252584 ], [ -122.385481002544878, 37.724467806252569 ], [ -122.385481003008422, 37.724144553373151 ], [ -122.385481003057976, 37.72410999992389 ], [ -122.385481000669742, 37.723631000398733 ], [ -122.385385290829021, 37.723551244457141 ], [ -122.385391179261376, 37.723537292581753 ], [ -122.385455143696902, 37.723424019754709 ], [ -122.385477547913055, 37.723384344755949 ], [ -122.385522937758722, 37.723276798111144 ], [ -122.385522937758765, 37.723276798111073 ], [ -122.385677610806695, 37.722910315980528 ], [ -122.386044204396129, 37.722261110004141 ], [ -122.386173868913801, 37.722081144385854 ], [ -122.386484056759201, 37.721531814985894 ], [ -122.386531923699536, 37.72146537705494 ], [ -122.386570545499239, 37.721225313470455 ], [ -122.386770633132031, 37.720531771544501 ], [ -122.387055332105106, 37.719857147086429 ], [ -122.387421898606718, 37.719207936504283 ], [ -122.387618021799057, 37.718935709716405 ], [ -122.387858362678728, 37.718510041271237 ], [ -122.388303256999706, 37.717892494364278 ], [ -122.388592358960707, 37.717569414050836 ], [ -122.388603664198655, 37.7174991277709 ], [ -122.388803722835476, 37.716805581977887 ], [ -122.388805376194497, 37.716801663686887 ], [ -122.388843826824655, 37.716710539644119 ], [ -122.391141, 37.71804 ], [ -122.393545, 37.718487 ], [ -122.396682, 37.720266 ], [ -122.397025, 37.719515000000101 ], [ -122.397025000000838, 37.719514999999063 ], [ -122.398515, 37.717664 ], [ -122.398558908602837, 37.717792571454957 ], [ -122.398863, 37.718683 ], [ -122.398955090050563, 37.718919358074693 ], [ -122.400785, 37.723616 ], [ -122.402061, 37.72392 ], [ -122.4026, 37.725235 ], [ -122.404339266539054, 37.724782041621488 ], [ -122.404247583707217, 37.724999414740054 ], [ -122.403881135603257, 37.725648677056824 ], [ -122.403618841790191, 37.726012862839944 ] ], [ [ -122.396409, 37.729801000000101 ], [ -122.392699, 37.729284 ], [ -122.391891, 37.731684 ], [ -122.391617, 37.732487 ], [ -122.393904, 37.733788 ], [ -122.393904, 37.733788 ], [ -122.392776, 37.735038 ], [ -122.396515, 37.737156 ], [ -122.398488, 37.733808000000103 ], [ -122.398563532857608, 37.733734288991073 ], [ -122.400022, 37.732311 ], [ -122.399423, 37.731703 ], [ -122.399867, 37.730292 ], [ -122.399867, 37.730292 ], [ -122.396409, 37.729801000000101 ] ] ], [ [ [ -122.281072982072814, 37.801158128354743 ], [ -122.281134018440554, 37.801867988695278 ], [ -122.281107071217917, 37.802579177756691 ], [ -122.280992397407388, 37.803284846340219 ], [ -122.280791098944277, 37.803978198221586 ], [ -122.280666669494835, 37.804271603122473 ], [ -122.280653169485788, 37.804627826854599 ], [ -122.280538488197649, 37.80533349472757 ], [ -122.28033717994208, 37.806026845569434 ], [ -122.280051181162634, 37.806701201601371 ], [ -122.279683244177392, 37.807350067810312 ], [ -122.279613366558209, 37.807446685488664 ], [ -122.279585816023967, 37.807495270888069 ], [ -122.279498093740685, 37.807616560316582 ], [ -122.279480513536541, 37.807640867628628 ], [ -122.279139480913642, 37.808112397214828 ], [ -122.278619046429142, 37.80869183986632 ], [ -122.278122627417474, 37.809143338750147 ], [ -122.277876864843293, 37.809722753456747 ], [ -122.277558825237833, 37.810283567141255 ], [ -122.277493955269435, 37.81050694772707 ], [ -122.277207913408688, 37.811181296297768 ], [ -122.276839929373338, 37.811830153091179 ], [ -122.276762786293801, 37.811936802453893 ], [ -122.276740700741044, 37.811975744799234 ], [ -122.276294315047323, 37.812592859839818 ], [ -122.275773826951124, 37.813172289448964 ], [ -122.275566601874516, 37.8133607399757 ], [ -122.275566601874445, 37.813360739975771 ], [ -122.275184248214956, 37.813708452471353 ], [ -122.274554280982727, 37.814178986937051 ], [ -122.274549116735642, 37.814182844211075 ], [ -122.274531256462325, 37.814196184387725 ], [ -122.273821140512368, 37.81463078708952 ], [ -122.273060739809253, 37.815008074162058 ], [ -122.272257378529872, 37.815324411238578 ], [ -122.271418795005985, 37.815576751035323 ], [ -122.271276009052116, 37.8156074137638 ], [ -122.271171584534358, 37.815629838523016 ], [ -122.270553067140952, 37.815762662728616 ], [ -122.269668534542916, 37.815880355390192 ], [ -122.268773718125928, 37.815928695253902 ], [ -122.267877237957606, 37.815907216646835 ], [ -122.266987730146965, 37.815816126479177 ], [ -122.266113763577437, 37.815656302249273 ], [ -122.265263757290143, 37.815429283583178 ], [ -122.264529646721698, 37.815167160425894 ], [ -122.266770999992559, 37.811553000012012 ], [ -122.266771, 37.811553 ], [ -122.266771, 37.811553 ], [ -122.271274, 37.804361 ], [ -122.268798, 37.803427 ], [ -122.268797999977068, 37.803426999990982 ], [ -122.26761, 37.80296 ], [ -122.26645800002224, 37.802497000008941 ], [ -122.266458, 37.802497 ], [ -122.267312, 37.801081000000103 ], [ -122.267312, 37.801081 ], [ -122.267312, 37.801081 ], [ -122.263752, 37.7997 ], [ -122.265066, 37.797622 ], [ -122.266615, 37.795117 ], [ -122.27014, 37.796524 ], [ -122.272515, 37.797457 ], [ -122.274935, 37.798276 ], [ -122.275061, 37.798321 ], [ -122.278536, 37.799654 ], [ -122.279564, 37.800449 ], [ -122.279564, 37.8004490000001 ], [ -122.279687, 37.800256 ], [ -122.280991797043853, 37.800774329279591 ], [ -122.281072982072814, 37.801158128354743 ] ] ], [ [ [ -122.237616536225104, 37.775777080679738 ], [ -122.237662258009706, 37.775835155355999 ], [ -122.238112835475192, 37.775955679424506 ], [ -122.238930158494725, 37.776247890275862 ], [ -122.239707468553306, 37.776602276496739 ], [ -122.240437280998194, 37.777015426005413 ], [ -122.241112568156254, 37.777483360878001 ], [ -122.241726826982756, 37.778001575622383 ], [ -122.242274141676219, 37.778565080530988 ], [ -122.242469592987447, 37.778813301005918 ], [ -122.243217600598314, 37.779013339665063 ], [ -122.243879000863103, 37.779249761032261 ], [ -122.243879003956508, 37.780527997291067 ], [ -122.24358479536177, 37.780822207148255 ], [ -122.243584795901555, 37.780822208732758 ], [ -122.243179004766873, 37.781227999484408 ], [ -122.243979004735095, 37.782328000925908 ], [ -122.243889446910231, 37.782353588496711 ], [ -122.243889446934617, 37.782353588782051 ], [ -122.243279002603131, 37.782527998571453 ], [ -122.243368599400455, 37.783423949210828 ], [ -122.243368599400455, 37.783423949210835 ], [ -122.243447493969924, 37.783505169059012 ], [ -122.244279000640063, 37.783228000106512 ], [ -122.246225971323227, 37.785044563897308 ], [ -122.246406865810386, 37.785034822984152 ], [ -122.246854916397069, 37.785045644781455 ], [ -122.247299473416419, 37.785091266866218 ], [ -122.247595236324386, 37.785145426573806 ], [ -122.249810138745616, 37.786174157881916 ], [ -122.249968394930136, 37.78630763013998 ], [ -122.250242113106552, 37.786589363369217 ], [ -122.250417641266552, 37.786812216181005 ], [ -122.250451090400531, 37.786815647865104 ], [ -122.250887886668693, 37.786895619235388 ], [ -122.251312703907487, 37.787009181727043 ], [ -122.251721451395682, 37.787155241820251 ], [ -122.252110193088782, 37.787332393060936 ], [ -122.252475185508956, 37.787538929598604 ], [ -122.25262582931029, 37.787643275488676 ], [ -122.25378000289416, 37.788027999951971 ], [ -122.257531604495497, 37.786683120262452 ], [ -122.257759306087365, 37.786972162731281 ], [ -122.258083947998443, 37.787491433473164 ], [ -122.258273599240894, 37.787577845400278 ], [ -122.259003622801359, 37.787990879164845 ], [ -122.259679126715412, 37.788458706768942 ], [ -122.259789376806353, 37.788551668295689 ], [ -122.259820553032895, 37.788573259416061 ], [ -122.26005316906371, 37.78876939710954 ], [ -122.259280000844512, 37.789427999993727 ], [ -122.259880004183003, 37.789928001112301 ], [ -122.260848634598062, 37.789516971563799 ], [ -122.260982572457976, 37.78965479258278 ], [ -122.261457894362223, 37.79025808514622 ], [ -122.261747021046759, 37.790720481989787 ], [ -122.262026403195634, 37.790847761044013 ], [ -122.262756479769024, 37.791260771330165 ], [ -122.262863585058298, 37.791334938952673 ], [ -122.261327, 37.793807 ], [ -122.260806, 37.79528 ], [ -122.259577, 37.79632 ], [ -122.259551, 37.798132 ], [ -122.259554, 37.798301 ], [ -122.257805, 37.799704 ], [ -122.254505, 37.800561 ], [ -122.254505, 37.800561000000101 ], [ -122.251935, 37.799731000000101 ], [ -122.251017, 37.79918 ], [ -122.250539, 37.800137 ], [ -122.248984, 37.800323 ], [ -122.24665, 37.79828 ], [ -122.245002, 37.7967650000001 ], [ -122.243346, 37.795289 ], [ -122.241694, 37.793825 ], [ -122.240048186798433, 37.794984409515003 ], [ -122.240048186798361, 37.794984409514967 ], [ -122.239950062668157, 37.794928875277485 ], [ -122.239274624201116, 37.79446093522197 ], [ -122.238660246346427, 37.793942709243936 ], [ -122.23811284574505, 37.79337918912654 ], [ -122.237644861100947, 37.792784904793493 ], [ -122.23739019568346, 37.79273825365344 ], [ -122.236540539550916, 37.792511027063924 ], [ -122.235723046952273, 37.79221880050347 ], [ -122.235607366611632, 37.792166066301903 ], [ -122.234945592456597, 37.791864389011799 ], [ -122.234215664644026, 37.791451206616621 ], [ -122.233540293938063, 37.790983233422203 ], [ -122.232925984867151, 37.790464977242756 ], [ -122.232378653409484, 37.789901430152383 ], [ -122.232183208701812, 37.789653193206561 ], [ -122.231435121599219, 37.789453085171615 ], [ -122.231016908087994, 37.789303559656965 ], [ -122.231016908087923, 37.789303559656943 ], [ -122.230617682749781, 37.789160823058182 ], [ -122.229976037704589, 37.788868272698487 ], [ -122.229972548438113, 37.788866681809303 ], [ -122.229840284629248, 37.788806377712589 ], [ -122.229110415274562, 37.788393163488692 ], [ -122.228565858323705, 37.788015775557774 ], [ -122.228435104545895, 37.7879251607973 ], [ -122.227820856393748, 37.787406877736764 ], [ -122.227273586209421, 37.786843306640108 ], [ -122.227227864925823, 37.786785225950823 ], [ -122.226777240273975, 37.786664662618961 ], [ -122.225959850444241, 37.786372368070616 ], [ -122.225322305937411, 37.786081642745685 ], [ -122.225182503739717, 37.786017891840586 ], [ -122.22445268770187, 37.78560464858019 ], [ -122.223777431677078, 37.785136618979998 ], [ -122.223425007849599, 37.784839213987681 ], [ -122.222967059871578, 37.78467543628792 ], [ -122.222450162371715, 37.784439704041837 ], [ -122.222450162371686, 37.784439704041823 ], [ -122.222189745210898, 37.784320940220667 ], [ -122.221459962498699, 37.783907678311621 ], [ -122.220787132721824, 37.783441289479065 ], [ -122.220346681518691, 37.783323415901137 ], [ -122.219529353767427, 37.783031076602938 ], [ -122.218752072723333, 37.782676557769669 ], [ -122.218665979537818, 37.782627799973476 ], [ -122.218022325295095, 37.782263274463133 ], [ -122.217347140167931, 37.781795207759572 ], [ -122.216896242163941, 37.78141463219859 ], [ -122.216653892593513, 37.781370185368694 ], [ -122.215804429958638, 37.781142808918524 ], [ -122.214987144080652, 37.780850438021858 ], [ -122.214434030920984, 37.780598126584515 ], [ -122.214434030920899, 37.780598126584479 ], [ -122.214209907536485, 37.7804958891087 ], [ -122.213480206805926, 37.780082577530656 ], [ -122.212805070124233, 37.779614484636234 ], [ -122.212190999764857, 37.779096119392655 ], [ -122.211780357274293, 37.778673051494472 ], [ -122.211454180025939, 37.778639476115728 ], [ -122.210580770520394, 37.778479239398223 ], [ -122.209731359538608, 37.778251819079252 ], [ -122.208914129375387, 37.777959405937857 ], [ -122.208618879171723, 37.777824697279641 ], [ -122.208618879171652, 37.777824697279613 ], [ -122.208136952070618, 37.777604816811014 ], [ -122.207407313533238, 37.77719146743766 ], [ -122.20673224139918, 37.776723339530385 ], [ -122.206467847713796, 37.776500114743939 ], [ -122.206409414204487, 37.776489391995995 ], [ -122.205560038748501, 37.776261941546174 ], [ -122.204742846898739, 37.77596949938966 ], [ -122.203965710325861, 37.775614882642941 ], [ -122.203236114546286, 37.77520150731096 ], [ -122.202705442759012, 37.774833470545268 ], [ -122.202241655947361, 37.774709257982231 ], [ -122.201424494243128, 37.774416792745726 ], [ -122.200647389755872, 37.774062154029423 ], [ -122.199917827692829, 37.773648758049916 ], [ -122.19924283495294, 37.773180586968742 ], [ -122.198628912422663, 37.772662150506171 ], [ -122.198618240833611, 37.772651151749912 ], [ -122.19861164034694, 37.772644348906994 ], [ -122.197931426078625, 37.772519468984271 ], [ -122.197082121976194, 37.77229195730083 ], [ -122.19626500717726, 37.771999456179778 ], [ -122.195487952609923, 37.771644783305639 ], [ -122.194758443000268, 37.771231355224018 ], [ -122.194083504741855, 37.770763154405707 ], [ -122.193651704762715, 37.770398461866399 ], [ -122.193427133321421, 37.770357222743627 ], [ -122.192577867734855, 37.770129678526239 ], [ -122.192475693984704, 37.770093097795751 ], [ -122.192475475295282, 37.770093019499534 ], [ -122.191760794455334, 37.769837146076561 ], [ -122.190983784010854, 37.769482443380888 ], [ -122.190254320702323, 37.769068987272092 ], [ -122.189579430477025, 37.768600760490912 ], [ -122.189356806150244, 37.76841271125577 ], [ -122.189246139117415, 37.768392384262356 ], [ -122.188396908799433, 37.768164809848599 ], [ -122.18757987359453, 37.767872248322064 ], [ -122.186802903663803, 37.767517517949074 ], [ -122.186073482917735, 37.767104035829178 ], [ -122.185716725697816, 37.766856495094601 ], [ -122.185695597141844, 37.766841834765458 ], [ -122.185406198348289, 37.766641031569492 ], [ -122.18492450948871, 37.766511931194238 ], [ -122.184107506136513, 37.766219345518174 ], [ -122.183330570072741, 37.765864592158003 ], [ -122.182601184881534, 37.765451088434659 ], [ -122.181926375757357, 37.764982817547498 ], [ -122.181825085052267, 37.764897239743455 ], [ -122.181159035911776, 37.76471869977766 ], [ -122.180342067109635, 37.764426087914494 ], [ -122.179698109831634, 37.764132018849224 ], [ -122.179693520911783, 37.7641299232764 ], [ -122.179565167779614, 37.764071309627809 ], [ -122.178835821151779, 37.763657782478596 ], [ -122.178161052049035, 37.763189489891943 ], [ -122.17759188885573, 37.762708568622834 ], [ -122.17711599176603, 37.76262109878023 ], [ -122.176266864579262, 37.762393436760185 ], [ -122.175449940614826, 37.762100790875614 ], [ -122.174673088961711, 37.761745980205561 ], [ -122.173943792390574, 37.761332422622992 ], [ -122.173269075241933, 37.760864101846074 ], [ -122.172655435746648, 37.760345529036911 ], [ -122.172108783431455, 37.75978169931907 ], [ -122.171800644777548, 37.759389605785159 ], [ -122.171800644777534, 37.759389605785138 ], [ -122.171634382213071, 37.759178043634044 ], [ -122.171236799728547, 37.758540376401569 ], [ -122.171124818989909, 37.758305227238466 ], [ -122.170853761208136, 37.758151502824354 ], [ -122.17017909242216, 37.757683164103973 ], [ -122.169565500764051, 37.757164574925206 ], [ -122.169018895299644, 37.756600730569275 ], [ -122.16854453949442, 37.755997062118702 ], [ -122.168147000547975, 37.75535938411609 ], [ -122.167830105452182, 37.75469383853325 ], [ -122.167782798539037, 37.754554473982765 ], [ -122.167394930439656, 37.754226631189042 ], [ -122.166848363058605, 37.753662776483942 ], [ -122.166374043642747, 37.753059098994932 ], [ -122.165976539041324, 37.752421413351755 ], [ -122.16565967591545, 37.751755861599705 ], [ -122.165474009213625, 37.751208821443413 ], [ -122.165296478564414, 37.75108555990974 ], [ -122.164923268018072, 37.750770072255904 ], [ -122.164923268017986, 37.75077007225584 ], [ -122.164682975461844, 37.75056694473033 ], [ -122.164136455577847, 37.750003077098306 ], [ -122.163662181553505, 37.749399388320342 ], [ -122.163264719800864, 37.748761693134902 ], [ -122.1630517810502, 37.748314366725488 ], [ -122.162976280778139, 37.748250539413121 ], [ -122.162429790880623, 37.747686663646036 ], [ -122.161955545504824, 37.747082967763852 ], [ -122.161558110786928, 37.746445266573403 ], [ -122.161241312715049, 37.745779702269715 ], [ -122.161199782281884, 37.745657305874047 ], [ -122.160719985537867, 37.745251653458688 ], [ -122.160520324954106, 37.74504562223634 ], [ -122.160520324954021, 37.745045622236262 ], [ -122.160173534813993, 37.744687766944537 ], [ -122.159699326904899, 37.744084061678613 ], [ -122.159301927585886, 37.743446352558109 ], [ -122.158985162504223, 37.742780781854442 ], [ -122.158752080394692, 37.742093760029491 ], [ -122.158650898624401, 37.741611178640369 ], [ -122.158479338725442, 37.741513832974512 ], [ -122.157804898967782, 37.741045422110496 ], [ -122.157191531028388, 37.740526767060487 ], [ -122.156645141818004, 37.739962863740281 ], [ -122.156170992719055, 37.739359143800264 ], [ -122.156114068290108, 37.73926778303364 ], [ -122.155957548883336, 37.739068488426511 ], [ -122.155839878568784, 37.738879630254544 ], [ -122.160074, 37.737691 ], [ -122.160502, 37.737607 ], [ -122.16416, 37.73594 ], [ -122.165472, 37.737689 ], [ -122.171529, 37.73501 ], [ -122.171527992208851, 37.735008397268501 ], [ -122.169769, 37.732211 ], [ -122.170097, 37.7320560000001 ], [ -122.170097, 37.732056 ], [ -122.170497, 37.731869000000103 ], [ -122.17162667541804, 37.731652502791817 ], [ -122.171904838859703, 37.732006589814347 ], [ -122.171961777136431, 37.73209794306176 ], [ -122.1721183247749, 37.732297216639147 ], [ -122.17251577444253, 37.732934883717952 ], [ -122.172832618723561, 37.733600419135364 ], [ -122.173065804349605, 37.734287414073783 ], [ -122.173167070043419, 37.734769982193221 ], [ -122.173338633311133, 37.734867308060075 ], [ -122.174013114895303, 37.735335630499499 ], [ -122.174626557371198, 37.735854198435909 ], [ -122.175173052795813, 37.736418018760546 ], [ -122.175647337476363, 37.737021662528505 ], [ -122.176044842687347, 37.737659317205875 ], [ -122.17636173871206, 37.738324842613487 ], [ -122.176403290090249, 37.738447232091808 ], [ -122.176883128428742, 37.738852822838375 ], [ -122.177429663022465, 37.739416632417004 ], [ -122.177903985168371, 37.740020266801508 ], [ -122.178162251103515, 37.740434519908035 ], [ -122.178162251103529, 37.740434519908057 ], [ -122.178301525780071, 37.740657913548375 ], [ -122.178514535735374, 37.741105212990519 ], [ -122.178590040737319, 37.741169030410248 ], [ -122.179136605314156, 37.741732831854634 ], [ -122.17961095610768, 37.742336459135167 ], [ -122.180008523755674, 37.742974099876697 ], [ -122.180325477940116, 37.743639614034322 ], [ -122.18051123516274, 37.744186629664704 ], [ -122.180688774454708, 37.744309870247704 ], [ -122.181302337592328, 37.744828402654583 ], [ -122.181848949660846, 37.745392191173316 ], [ -122.182323345844338, 37.745995807165279 ], [ -122.182720956343488, 37.746633438364043 ], [ -122.182774902544281, 37.746746694561921 ], [ -122.18277490254431, 37.746746694561985 ], [ -122.183037950427561, 37.747298944816535 ], [ -122.183085251017317, 37.747438212020732 ], [ -122.18347320389411, 37.747766049083701 ], [ -122.184019854041466, 37.748329827254182 ], [ -122.184494286613059, 37.748933434207977 ], [ -122.184891931459063, 37.749571057765678 ], [ -122.185003980710789, 37.749806271264816 ], [ -122.185274978532121, 37.749959932158767 ], [ -122.185949672331361, 37.750428185088637 ], [ -122.18651879393137, 37.750909064943386 ], [ -122.186994628698471, 37.750996499076429 ], [ -122.187843658511227, 37.751224084267101 ], [ -122.188660511701173, 37.751516644807481 ], [ -122.188687180310893, 37.751528822621111 ], [ -122.189437323190077, 37.751871363918532 ], [ -122.190166613123495, 37.752284826313399 ], [ -122.190841358857298, 37.752753051055478 ], [ -122.190942643689596, 37.752838620099375 ], [ -122.191608609546904, 37.753017106345332 ], [ -122.192425497270776, 37.753309640703122 ], [ -122.193202345477005, 37.753664334891454 ], [ -122.193497912819154, 37.753831884988955 ], [ -122.193931673957792, 37.754077773863358 ], [ -122.194046371576079, 37.754157357308706 ], [ -122.194598894744985, 37.75454072793201 ], [ -122.195080526884496, 37.75466979198395 ], [ -122.19589744644621, 37.754962302196382 ], [ -122.196674328504258, 37.755316973401001 ], [ -122.197403692525114, 37.755730390772115 ], [ -122.198078515151508, 37.756198573806699 ], [ -122.198301127419214, 37.756386606629405 ], [ -122.198411776582631, 37.75640692550536 ], [ -122.199260903182775, 37.756634428240467 ], [ -122.200077860801329, 37.756926909381043 ], [ -122.200854783355027, 37.757281552912552 ], [ -122.201584189920581, 37.757694944275762 ], [ -122.202259056731251, 37.75816310321806 ], [ -122.202690829086521, 37.75852776386639 ], [ -122.202904950817953, 37.758567073979016 ], [ -122.202915368677182, 37.758568986569657 ], [ -122.20293350090671, 37.758573843742916 ], [ -122.203764533774915, 37.758796456776942 ], [ -122.204581532893542, 37.759088906594279 ], [ -122.205358499550456, 37.759443520308778 ], [ -122.206087952397894, 37.759856883648268 ], [ -122.206762867223674, 37.760325016630013 ], [ -122.207376744566872, 37.760843411854189 ], [ -122.207394014944981, 37.760861210778543 ], [ -122.208074139433862, 37.760986037788449 ], [ -122.208923347949522, 37.761213470737104 ], [ -122.209740393951492, 37.76150588467609 ], [ -122.210517410505943, 37.76186046423787 ], [ -122.211246915784869, 37.762273795479189 ], [ -122.211777539664084, 37.762641792610026 ], [ -122.212241267592773, 37.762765969924459 ], [ -122.213058343726118, 37.763058360787404 ], [ -122.213835392351811, 37.763412918382954 ], [ -122.214564931333186, 37.763826228979276 ], [ -122.215239935629072, 37.764294313101445 ], [ -122.215504315443752, 37.764517518837557 ], [ -122.21556273763818, 37.764528236958796 ], [ -122.216412009564351, 37.764755615818672 ], [ -122.217229123993306, 37.765047977671514 ], [ -122.218006213332743, 37.765402507651366 ], [ -122.21873579505413, 37.765815792292273 ], [ -122.219410843704992, 37.76628385236927 ], [ -122.220024858536277, 37.766802181184573 ], [ -122.220435482874038, 37.767225219699036 ], [ -122.220761613550593, 37.767258771856412 ], [ -122.221370757953295, 37.767370487881891 ], [ -122.221384913399902, 37.767373083966213 ], [ -122.221634913094562, 37.767418933476009 ], [ -122.222484236649308, 37.767646268475275 ], [ -122.223301406766964, 37.767938588090715 ], [ -122.224078555319352, 37.768293077862936 ], [ -122.224808199208042, 37.768706324713207 ], [ -122.225483312382224, 37.769174349780407 ], [ -122.225934181003353, 37.769554892062466 ], [ -122.226176496659264, 37.769599321178852 ], [ -122.227025859038676, 37.769826623371607 ], [ -122.227843071010156, 37.770118911394022 ], [ -122.228620264042618, 37.770473371090965 ], [ -122.229349954609646, 37.770886589673211 ], [ -122.230022720102426, 37.771352927651435 ], [ -122.230463120012658, 37.771470768373241 ], [ -122.231280363594649, 37.771763032484557 ], [ -122.232057590228735, 37.772117469418916 ], [ -122.232787316065028, 37.772530666606329 ], [ -122.233462514264076, 37.772998645663868 ], [ -122.233814923327984, 37.773296019756877 ], [ -122.234272823841067, 37.773459757187062 ], [ -122.235050082505296, 37.773814174287402 ], [ -122.235779841654079, 37.774227352828611 ], [ -122.23606502068256, 37.774424992738872 ], [ -122.236067211955032, 37.77442651137401 ], [ -122.236455074127292, 37.774695314607293 ], [ -122.237069277406547, 37.775213553872248 ], [ -122.237616536225104, 37.775777080679738 ] ] ], [ [ [ -121.928011, 37.301428 ], [ -121.921973000013679, 37.306912999987567 ], [ -121.931674, 37.29803 ], [ -121.928011, 37.301428 ] ] ], [ [ [ -121.921973, 37.306913000000101 ], [ -121.921973, 37.306913 ], [ -121.922253, 37.308644 ], [ -121.92328, 37.310697 ], [ -121.927459800176123, 37.310692215430201 ], [ -121.927362087431661, 37.311280006768591 ], [ -121.927158835061604, 37.311972788086166 ], [ -121.926871542258311, 37.312646320157214 ], [ -121.926502973839817, 37.313294115895232 ], [ -121.926056677686617, 37.313909935927256 ], [ -121.92584298260293, 37.314147556479767 ], [ -121.925573811174317, 37.314518962767181 ], [ -121.925054076156201, 37.315096873396165 ], [ -121.92446591442615, 37.315631309941821 ], [ -121.92381498998418, 37.316117124506185 ], [ -121.923107571756603, 37.316549637441746 ], [ -121.922718763829948, 37.316742241795083 ], [ -121.92269023316851, 37.31675637507071 ], [ -121.922350473216596, 37.316924682456808 ], [ -121.921550986741508, 37.317238646775991 ], [ -121.920716813341144, 37.317488505967283 ], [ -121.91987381934581, 37.317668055292465 ], [ -121.919873347455777, 37.317679163720115 ], [ -121.919756007800331, 37.318384514179911 ], [ -121.919552665611505, 37.319077282115586 ], [ -121.919265276958726, 37.319750795353187 ], [ -121.918896607582951, 37.320398566987478 ], [ -121.918450206336985, 37.321014357877587 ], [ -121.918018202997303, 37.321494598513532 ], [ -121.917933649981933, 37.321611232350861 ], [ -121.917413806570366, 37.32218910893021 ], [ -121.916825534396679, 37.322723506975514 ], [ -121.916174498524882, 37.323209278959695 ], [ -121.915745394938298, 37.323471561998794 ], [ -121.913747, 37.323489 ], [ -121.913747, 37.323488999997195 ], [ -121.913738, 37.321532 ], [ -121.913768, 37.317896 ], [ -121.913768000004907, 37.317895999989517 ], [ -121.914425, 37.316492 ], [ -121.915000999996181, 37.315221000008428 ], [ -121.915001, 37.315221000000101 ], [ -121.915001, 37.315221 ], [ -121.915134, 37.314351 ], [ -121.914908, 37.313338 ], [ -121.917817, 37.310706 ], [ -121.921972999969327, 37.30691300002799 ], [ -121.921973, 37.306913000000101 ] ] ], [ [ [ -121.882228275321012, 37.32350658131201 ], [ -121.881835481675822, 37.322867911463433 ], [ -121.881522971521179, 37.322201568849131 ], [ -121.88129375262605, 37.321513971363053 ], [ -121.881270625379983, 37.321400972089208 ], [ -121.881250450652985, 37.321340452338603 ], [ -121.881106729103962, 37.32063822235483 ], [ -121.881049885730761, 37.319928123136705 ], [ -121.881064429502473, 37.3195899090843 ], [ -121.881080465500261, 37.319216993454006 ], [ -121.881168399263629, 37.318690081119321 ], [ -121.8807957854428, 37.318554667482118 ], [ -121.880024946525353, 37.318197900028885 ], [ -121.879301611800997, 37.317782502115335 ], [ -121.879301557869226, 37.317782464216563 ], [ -121.87930136990326, 37.317782356269944 ], [ -121.878632506274954, 37.317312329342151 ], [ -121.878024555578733, 37.316792200999821 ], [ -121.87748337254132, 37.316226981350844 ], [ -121.877014168399782, 37.315622114724874 ], [ -121.876886324805113, 37.315414195224498 ], [ -121.876693521242814, 37.315212820773418 ], [ -121.876655107679312, 37.315163299405974 ], [ -121.876642848040561, 37.315150494710402 ], [ -121.876331458177248, 37.314749057855742 ], [ -121.876331378181447, 37.314748954726944 ], [ -121.87617365745804, 37.314545624694162 ], [ -121.875780962635261, 37.313906934331193 ], [ -121.875468543918174, 37.313240575342249 ], [ -121.875239408195398, 37.312552965779041 ], [ -121.875095760012343, 37.311850728189697 ], [ -121.875038980423199, 37.311140625821331 ], [ -121.875069613781093, 37.310429497473955 ], [ -121.875187362590438, 37.309724191634345 ], [ -121.87539109046736, 37.309031500524029 ], [ -121.875678833175698, 37.308358094696338 ], [ -121.876047817629356, 37.30771045881238 ], [ -121.876494488674041, 37.307094829213405 ], [ -121.877014543388071, 37.306517133890083 ], [ -121.877602972569335, 37.305982935425845 ], [ -121.878254109007045, 37.305497377462089 ], [ -121.878961682072074, 37.305065135199875 ], [ -121.879123130750344, 37.304985228178126 ], [ -121.883232, 37.310156 ], [ -121.883232, 37.310156 ], [ -121.887901, 37.315414 ], [ -121.888481017492495, 37.315910501103218 ], [ -121.888787955136237, 37.316339831327639 ], [ -121.88984, 37.318589 ], [ -121.890521, 37.320957 ], [ -121.89217, 37.323753 ], [ -121.89217, 37.323753000000103 ], [ -121.890432, 37.324074 ], [ -121.890432, 37.324074000000103 ], [ -121.890836, 37.32712 ], [ -121.890997664374211, 37.327264163255528 ], [ -121.892664999998246, 37.328750999998547 ], [ -121.892665, 37.328751 ], [ -121.892665, 37.328751000000103 ], [ -121.888326, 37.330797000000103 ], [ -121.885984, 37.330023 ], [ -121.890566, 37.336168 ], [ -121.893827999984168, 37.340547999978845 ], [ -121.893828, 37.340548 ], [ -121.894953, 37.342046 ], [ -121.895345, 37.342573 ], [ -121.896748, 37.34447 ], [ -121.896834357504986, 37.344572499094703 ], [ -121.897006, 37.344803 ], [ -121.893845, 37.346307 ], [ -121.897038, 37.350591 ], [ -121.897038, 37.350591000000101 ], [ -121.892974558975595, 37.352521233018244 ], [ -121.892974558975581, 37.352521233018152 ], [ -121.892892351098084, 37.352120048724998 ], [ -121.89288334143788, 37.352007767821313 ], [ -121.892215567703417, 37.351624563354335 ], [ -121.891546319854399, 37.35115461083798 ], [ -121.890938003873345, 37.35063455026377 ], [ -121.890396478005457, 37.350069391086656 ], [ -121.889926956789509, 37.349464577053659 ], [ -121.889634671946638, 37.34898959680752 ], [ -121.889438397250032, 37.34878474711779 ], [ -121.888968891862945, 37.348179929210296 ], [ -121.888575910884214, 37.34754128264656 ], [ -121.88826323741479, 37.346874958725458 ], [ -121.888033880795447, 37.34618737516098 ], [ -121.888027083805213, 37.346154190944453 ], [ -121.888027083805198, 37.346154190944361 ], [ -121.888023802356301, 37.346138170278344 ], [ -121.887490636642013, 37.34594451758165 ], [ -121.886719483180713, 37.345587794587246 ], [ -121.885995846076185, 37.345172438484177 ], [ -121.885326695141671, 37.344702450316909 ], [ -121.884718474983359, 37.344182357310089 ], [ -121.884177042923341, 37.343617169231081 ], [ -121.883707612596737, 37.343012330105338 ], [ -121.883433515681077, 37.342566793103721 ], [ -121.883268846146706, 37.342394891034807 ], [ -121.882799430850767, 37.341790048237947 ], [ -121.882406536210652, 37.341151380803218 ], [ -121.882364349481676, 37.341061452862668 ], [ -121.88196738340433, 37.340647032588784 ], [ -121.88174338984922, 37.340358400586965 ], [ -121.881742235067435, 37.34035691256657 ], [ -121.881497989623625, 37.340042184531882 ], [ -121.881438202817719, 37.339944993555754 ], [ -121.881256536999743, 37.33971090014775 ], [ -121.881222515661136, 37.339655593608995 ], [ -121.880885864866471, 37.339221782251144 ], [ -121.880515948847304, 37.338620415758818 ], [ -121.880236190838161, 37.338328336782908 ], [ -121.879766825635883, 37.337723481730364 ], [ -121.879651769370653, 37.337536428473214 ], [ -121.879642813749271, 37.337527078119201 ], [ -121.879173458382979, 37.336922220668939 ], [ -121.878780620328044, 37.336283540941267 ], [ -121.878468081309052, 37.335617190554416 ], [ -121.878438686963705, 37.335529019409542 ], [ -121.878438686963676, 37.335529019409456 ], [ -121.878238849372167, 37.334929587477113 ], [ -121.878095129988225, 37.334227354195043 ], [ -121.878038304895682, 37.333517253913783 ], [ -121.87806891888448, 37.332806125413285 ], [ -121.878186674644098, 37.33210081718191 ], [ -121.878300164159498, 37.33171500404206 ], [ -121.878300164159498, 37.331715004042053 ], [ -121.878390435722167, 37.331408121464278 ], [ -121.878678237561445, 37.330734708858323 ], [ -121.878891587131605, 37.330360323050861 ], [ -121.878913925661308, 37.330284378431251 ], [ -121.879201718455775, 37.329610964507829 ], [ -121.879570777313219, 37.328963318060943 ], [ -121.880017546361728, 37.328347675533806 ], [ -121.880537721734996, 37.327769965041846 ], [ -121.881126293068192, 37.327235749314724 ], [ -121.881714453599145, 37.326797244967537 ], [ -121.881877149784117, 37.326573033678457 ], [ -121.882108577378062, 37.326254103771305 ], [ -121.882628722015866, 37.325676383948363 ], [ -121.882699821578342, 37.325611845835596 ], [ -121.882701040190113, 37.325610739683867 ], [ -121.883217261914993, 37.325142157673866 ], [ -121.883519580732397, 37.324916746800639 ], [ -121.883238850721895, 37.324676622262309 ], [ -121.882697571159198, 37.324111426871589 ], [ -121.882228275321012, 37.32350658131201 ] ] ], [ [ [ -121.907646244877427, 37.367538111604574 ], [ -121.906092, 37.366190000000103 ], [ -121.904766000001075, 37.365267000000848 ], [ -121.904766, 37.365267 ], [ -121.904164, 37.364941 ], [ -121.902359, 37.364215 ], [ -121.90178, 37.364029 ], [ -121.902777, 37.362562 ], [ -121.904626, 37.360777 ], [ -121.907021, 37.358395 ], [ -121.911009415302814, 37.354414133152915 ], [ -121.91120600800987, 37.354434999887317 ], [ -121.912073813291883, 37.354597461282914 ], [ -121.912917496846291, 37.354827035883226 ], [ -121.913728935509511, 37.355121513363684 ], [ -121.914500316319575, 37.355478058490675 ], [ -121.915224211696412, 37.355893238397861 ], [ -121.915893650925923, 37.356363055613492 ], [ -121.916502187261173, 37.356882986522209 ], [ -121.917043959995837, 37.357448024892292 ], [ -121.917513750912491, 37.358052730050375 ], [ -121.917907034561807, 37.358691279241519 ], [ -121.91822002188772, 37.359357523671434 ], [ -121.91832514712398, 37.359672214144844 ], [ -121.918336011501538, 37.359695340333921 ], [ -121.918565688496173, 37.360382864115863 ], [ -121.918709838636531, 37.361085046833743 ], [ -121.918767071319365, 37.361795126399798 ], [ -121.91873683289441, 37.362506264486271 ], [ -121.918724456473598, 37.362580609764684 ], [ -121.919526257822895, 37.362871511649764 ], [ -121.920297746333645, 37.363228018489743 ], [ -121.921021749036143, 37.363643162434016 ], [ -121.921691294183077, 37.364112946357032 ], [ -121.922299934007825, 37.364632846964049 ], [ -121.922841806807725, 37.365197858315035 ], [ -121.923311693401828, 37.365802539996842 ], [ -121.923705067419462, 37.366441069480615 ], [ -121.924018138934088, 37.367107298161834 ], [ -121.924100060910547, 37.367352443788739 ], [ -121.924165750600267, 37.367492231620574 ], [ -121.924395505229711, 37.368179743699983 ], [ -121.924539725222758, 37.368881918960852 ], [ -121.924554894733291, 37.369069922883234 ], [ -121.924710786931229, 37.369141947512617 ], [ -121.925434871485407, 37.369557064075224 ], [ -121.92610449740134, 37.370026822648413 ], [ -121.9267132161349, 37.370546700181464 ], [ -121.92725516522367, 37.371111690956567 ], [ -121.927725124752101, 37.371716354758682 ], [ -121.928118567647161, 37.372354869231117 ], [ -121.928431703318992, 37.373021085913955 ], [ -121.928527070522975, 37.373306388536847 ], [ -121.928579000416221, 37.373416870792937 ], [ -121.928726734548619, 37.373858827854967 ], [ -121.927392, 37.373543 ], [ -121.924299, 37.372818000000102 ], [ -121.920722833120635, 37.37227168218616 ], [ -121.919455, 37.37203 ], [ -121.919408286755925, 37.372070863790228 ], [ -121.91712694777901, 37.371722352055521 ], [ -121.916876, 37.37166 ], [ -121.911177, 37.369861 ], [ -121.909589, 37.36907 ], [ -121.907646244877427, 37.367538111604574 ] ] ], [ [ [ -121.901032193193799, 37.364113404894624 ], [ -121.900934341186428, 37.363820286627764 ], [ -121.90178, 37.364029 ], [ -121.901410937663869, 37.364886704310322 ], [ -121.901345052722178, 37.36477969417659 ], [ -121.901032193193799, 37.364113404894624 ] ] ], [ [ [ -122.161079, 37.726244000000101 ], [ -122.158875, 37.725502 ], [ -122.157524, 37.726871 ], [ -122.157524, 37.726871000000102 ], [ -122.156211, 37.728435 ], [ -122.154613, 37.728028000000101 ], [ -122.150172, 37.728262 ], [ -122.149185704658521, 37.72886160712612 ], [ -122.149184352317235, 37.728855152089814 ], [ -122.149128465160913, 37.728190736920155 ], [ -122.148854780344465, 37.727615377163573 ], [ -122.148621839422049, 37.726928333586187 ], [ -122.148474808493575, 37.726226463130068 ], [ -122.148415101169221, 37.725516525510706 ], [ -122.148443289972192, 37.724805357946813 ], [ -122.148559100920636, 37.724099809308846 ], [ -122.148761416262673, 37.723406674163144 ], [ -122.149048285334317, 37.722732627346261 ], [ -122.149416943432044, 37.722084159699307 ], [ -122.149863838515301, 37.721467515580521 ], [ -122.150321001544043, 37.720959393222074 ], [ -122.150384665478271, 37.720888632757259 ], [ -122.150974407658936, 37.720353085254665 ], [ -122.151555583303491, 37.719919586689919 ], [ -122.151577714732383, 37.719843750059553 ], [ -122.151864544519213, 37.719169695999085 ], [ -122.152233160381869, 37.718521219168679 ], [ -122.152680010686552, 37.717904564015072 ], [ -122.153200790758731, 37.717325668411831 ], [ -122.153790484387855, 37.71679010650719 ], [ -122.154443412167595, 37.716303035077772 ], [ -122.155153286204353, 37.715869143903568 ], [ -122.155913270667071, 37.71549261064068 ], [ -122.155944523006298, 37.715480326339566 ], [ -122.155953988616204, 37.71547563655669 ], [ -122.156016033493955, 37.715451248351904 ], [ -122.156016033494026, 37.715451248351876 ], [ -122.15892, 37.717986 ], [ -122.159808, 37.718776 ], [ -122.164245, 37.722651 ], [ -122.16724, 37.721836 ], [ -122.168104, 37.721626 ], [ -122.169491242955502, 37.721281509065399 ], [ -122.169491242955502, 37.721281509065442 ], [ -122.169524815620136, 37.721679376943207 ], [ -122.169496829687617, 37.722390549892353 ], [ -122.169381220132891, 37.723096119288307 ], [ -122.169179097909705, 37.723789289859546 ], [ -122.168892407308277, 37.724463385560959 ], [ -122.168523907317308, 37.725111913884263 ], [ -122.168077145130383, 37.725728628407623 ], [ -122.167942442251388, 37.725878396410387 ], [ -122.167942442251359, 37.725878396410423 ], [ -122.167569126722952, 37.726293463419445 ], [ -122.167589751696028, 37.726336798059947 ], [ -122.167602875983903, 37.72637547635216 ], [ -122.167507, 37.726322 ], [ -122.161079, 37.726244000000101 ] ] ], [ [ [ -121.87936403379554, 37.299348856462622 ], [ -121.879363854222305, 37.299349019508355 ], [ -121.87871277854093, 37.299834583740868 ], [ -121.878005253540792, 37.30026682457634 ], [ -121.877248093725328, 37.300641578343637 ], [ -121.876448592063738, 37.300955235072514 ], [ -121.876110015113056, 37.301056522208903 ], [ -121.876110015112999, 37.301056522208924 ], [ -121.875614449713296, 37.301204773293726 ], [ -121.874753701794504, 37.301387789167372 ], [ -121.873874639936489, 37.301502519658392 ], [ -121.872985732341292, 37.301547859534303 ], [ -121.872095542139789, 37.301523372021343 ], [ -121.871212644829427, 37.301429293015822 ], [ -121.870345545592016, 37.301266528809499 ], [ -121.869502597292154, 37.301036647351602 ], [ -121.868691919948972, 37.300741863131741 ], [ -121.867921322460361, 37.300385015829711 ], [ -121.867198227336246, 37.299969542939351 ], [ -121.866925748801989, 37.29977796986573 ], [ -121.866892522699601, 37.299754609395968 ], [ -121.870268, 37.297486 ], [ -121.871144, 37.296703 ], [ -121.872074, 37.295707 ], [ -121.872863999998941, 37.294715000001339 ], [ -121.872864, 37.294715000000103 ], [ -121.872864, 37.294715 ], [ -121.874027, 37.293416 ], [ -121.875457, 37.2927520000001 ], [ -121.880689, 37.292242 ], [ -121.881242, 37.296039 ], [ -121.88085, 37.297481 ], [ -121.880840781970107, 37.297729542850604 ], [ -121.880473164819364, 37.298236335107028 ], [ -121.879953194431963, 37.298814045944233 ], [ -121.879364838467552, 37.299348256341986 ], [ -121.87936403379554, 37.299348856462622 ] ] ], [ [ [ -121.860697645959846, 37.346659430617287 ], [ -121.861421156802265, 37.347074942852203 ], [ -121.862090178586712, 37.347545067419233 ], [ -121.8626982685836, 37.348065277743331 ], [ -121.863239570382291, 37.348630564901818 ], [ -121.863515151466146, 37.348985785003279 ], [ -121.863515151466203, 37.34898578500335 ], [ -121.863708870298083, 37.349235485825176 ], [ -121.864101647608067, 37.349874215680082 ], [ -121.864414118130426, 37.350540603931705 ], [ -121.864643270726916, 37.351228233546571 ], [ -121.864786896373687, 37.35193048276723 ], [ -121.864843609518289, 37.352640588864453 ], [ -121.864835644742655, 37.352824794193126 ], [ -121.864812861514125, 37.353351713253893 ], [ -121.864694945998906, 37.354057007350555 ], [ -121.864490996162218, 37.354749678527185 ], [ -121.864202973924549, 37.355423055540712 ], [ -121.863833651128587, 37.356070652797122 ], [ -121.863386582920569, 37.356686232834392 ], [ -121.86286607357502, 37.357263866421455 ], [ -121.862277135089883, 37.357797989692799 ], [ -121.861625438948693, 37.358283457767776 ], [ -121.86122822253499, 37.358525842979894 ], [ -121.861223771634343, 37.358528558961552 ], [ -121.860917261513165, 37.358715594336161 ], [ -121.860159423571915, 37.359090236731646 ], [ -121.859359224627454, 37.359403776057192 ], [ -121.85852437255528, 37.359653191974814 ], [ -121.85850061249657, 37.35965823636537 ], [ -121.858254413383534, 37.359731787779047 ], [ -121.860698, 37.357988 ], [ -121.859056, 37.356314 ], [ -121.855465, 37.352735000000102 ], [ -121.851332, 37.3547960000001 ], [ -121.849189, 37.3558120000001 ], [ -121.846819, 37.356937 ], [ -121.846819, 37.356937000000102 ], [ -121.848277, 37.3589 ], [ -121.849212, 37.359729000000101 ], [ -121.851540860353509, 37.3621145361586 ], [ -121.85133116056727, 37.36240316946347 ], [ -121.850810518167322, 37.362980749352936 ], [ -121.850221448411858, 37.363514811902512 ], [ -121.849569624049153, 37.364000212816279 ], [ -121.848861322676456, 37.364432276430911 ], [ -121.848103366276732, 37.364806840782791 ], [ -121.847303055493967, 37.365120297726669 ], [ -121.846468099281552, 37.365369627718124 ], [ -121.846098442141468, 37.365448060603896 ], [ -121.846053644706117, 37.365461437375167 ], [ -121.845192083953521, 37.365644235534283 ], [ -121.844505942994843, 37.365733532192728 ], [ -121.8445059429948, 37.365733532192735 ], [ -121.844312220532089, 37.365758743876086 ], [ -121.843422530367917, 37.365803859308294 ], [ -121.842531584132871, 37.365779147219421 ], [ -121.841647964609564, 37.36568484566908 ], [ -121.840780183938861, 37.365521863092717 ], [ -121.839936601551003, 37.3652917695429 ], [ -121.839125343574239, 37.364996781551874 ], [ -121.838354224499824, 37.36463974076193 ], [ -121.837630671861646, 37.364224086530029 ], [ -121.836961654657458, 37.363753822771955 ], [ -121.836353616203212, 37.3632334793664 ], [ -121.83581241206835, 37.362668068492027 ], [ -121.835457889405873, 37.362210871889054 ], [ -121.83545706830914, 37.362209812993029 ], [ -121.840908, 37.359656 ], [ -121.838531, 37.355648 ], [ -121.837878, 37.354077000000103 ], [ -121.837813080773614, 37.352781861433684 ], [ -121.837813080773614, 37.352781861433677 ], [ -121.83813823263948, 37.3525835386883 ], [ -121.838896114986525, 37.352209038526205 ], [ -121.839696322730347, 37.351895638761974 ], [ -121.840531150955684, 37.351646356824162 ], [ -121.840900745650643, 37.351567941435867 ], [ -121.840945535677804, 37.351554566623903 ], [ -121.841806944337748, 37.351371799538704 ], [ -121.842686642164111, 37.351257309913912 ], [ -121.843576159545123, 37.351212200032933 ], [ -121.844466932410114, 37.351236904203382 ], [ -121.845350384611493, 37.351331184579244 ], [ -121.846218010422263, 37.351494133448874 ], [ -121.846416947526464, 37.351548393222963 ], [ -121.846618808974171, 37.350863379436845 ], [ -121.846906972115221, 37.350190045485661 ], [ -121.84727641255445, 37.349542501376824 ], [ -121.847723570745458, 37.348926982567626 ], [ -121.848244139075106, 37.348349415981872 ], [ -121.848833103395421, 37.347815362963274 ], [ -121.849484791343045, 37.347329965752827 ], [ -121.849999469731799, 37.347015935613065 ], [ -121.84999946973187, 37.347015935613022 ], [ -121.850192926979332, 37.346897898003931 ], [ -121.850950691224213, 37.346523319810366 ], [ -121.851750787502795, 37.34620983767914 ], [ -121.852585511972563, 37.345960469831837 ], [ -121.852609268074616, 37.345955426636685 ], [ -121.853000002282329, 37.345838694928361 ], [ -121.853861315548755, 37.345655839217422 ], [ -121.854740927597192, 37.345541259104827 ], [ -121.855630369641389, 37.345496057745166 ], [ -121.856521078335774, 37.345520670326799 ], [ -121.857404478150414, 37.345614859885494 ], [ -121.858185998909917, 37.345761563817405 ], [ -121.858187315286088, 37.345761810922241 ], [ -121.858272063862572, 37.345777719583964 ], [ -121.859115482374619, 37.346007681435275 ], [ -121.859926613073256, 37.346302531386343 ], [ -121.860072139906137, 37.346369893512708 ], [ -121.860072139906251, 37.346369893512758 ], [ -121.860697645959846, 37.346659430617287 ] ] ] ] } }
]
}
