{
"type": "FeatureCollection",
"name": "tier2_low_resource",
"crs": { "type": "name", "properties": { "name": "urn:ogc:def:crs:OGC:1.3:CRS84" } },
"features": [
{ "type": "Feature", "properties": { "fips": "06001401300", "fips_bg": null, "county_name": "Alameda", "region": "Bay Area Region", "pct_above_200_pov": 0.72988363456301064, "pct_bachelors_plus": 0.54068105016896284, "pct_employed": 0.8465059505645407, "home_value": 846800.0, "math_prof": 0.42152350661859894, "read_prof": 0.43668727496593363, "grad_rate": 0.89014582470156611, "pct_not_frpm": 0.39628637962945218, "pct_above_200_pov_median": 0.84730388039643878, "pct_bachelors_plus_median": 0.5261797026502909, "pct_employed_median": 0.78294937050582336, "home_value_median": 1111500.0, "math_prof_median": 0.45779087822494302, "read_prof_median": 0.48794991395350246, "grad_rate_median": 0.91924847573665891, "pct_not_frpm_median": 0.5504194029081021, "env_burden_flag": 0.0, "oppscore": 3.0, "oppcat": "Low Resource", "pct_below_pov": 0.11587026491705868, "pct_asian": 0.16826923076923078, "pct_black": 0.28548534798534797, "pct_hispanic": 0.080128205128205135, "pct_poc": 0.66597985347985356, "pct_asian_cty": 0.3198506733561387, "pct_black_cty": 0.096275369275928016, "pct_hispanic_cty": 0.23320635201207784, "pct_poc_cty": 0.71763958814709172, "pov_seg_flag": 0.0, "index_right": 33, "stop_name": "Uptown Oakland NB", "stop_id": "64771", "stop_desc": "Pedestrian access point", "route_info": { "route_id": [ "SC:Blue Line", "SC:Green Line" ], "route_type": [ "0" ] }, "stop_name_clean": "Uptown Oakland", "access_id": " ", "station_id": "52574", "acces_poin": "Pedestrian Access Point", "location_t": "2", "stop_lat": 37.80737, "stop_lon": -122.26919, "stop_name_": "Sacramento St & Montgomery St", "stop_id_12": "16307", "stop_code": "16307", "zone_id": null, "stop_url": "https://www.sfmta.com/16307", "tts_stop_n": null, "platform_c": null, "parent_sta": "16307", "stop_timez": "America/Los_Angeles", "wheelchair": "0", "level_id": null }, "geometry": { "type": "MultiPolygon", "coordinates": [ [ [ [ -122.453623, 37.702318 ], [ -122.454778, 37.702225 ], [ -122.45634, 37.702909 ], [ -122.458116, 37.705411 ], [ -122.456373, 37.70678 ], [ -122.454392, 37.707463 ], [ -122.45247, 37.708148 ], [ -122.4523, 37.708138 ], [ -122.449751, 37.708213 ], [ -122.448078, 37.705053 ], [ -122.449959, 37.70441 ], [ -122.449133, 37.703231 ], [ -122.450546, 37.70245 ], [ -122.453001, 37.702222 ], [ -122.453623, 37.702318 ] ] ], [ [ [ -122.464896, 37.708186 ], [ -122.468939, 37.708232 ], [ -122.465994, 37.710154 ], [ -122.460858, 37.710586 ], [ -122.462556, 37.711254 ], [ -122.462581, 37.712274 ], [ -122.462589, 37.71403 ], [ -122.456061, 37.714077 ], [ -122.452174, 37.714104 ], [ -122.450378, 37.716169 ], [ -122.453378, 37.717768 ], [ -122.454189, 37.718239 ], [ -122.456108, 37.718235 ], [ -122.459187, 37.71823 ], [ -122.459198, 37.720024 ], [ -122.452506, 37.72003 ], [ -122.451646, 37.719686 ], [ -122.449546, 37.723011 ], [ -122.447878, 37.723005 ], [ -122.448582, 37.718411 ], [ -122.448727, 37.71745 ], [ -122.449627, 37.715739 ], [ -122.452884, 37.712829 ], [ -122.451993, 37.712086 ], [ -122.449309, 37.709946 ], [ -122.452665, 37.708806 ], [ -122.454356, 37.708232 ], [ -122.458509, 37.708231 ], [ -122.45905, 37.708231 ], [ -122.464896, 37.708186 ] ] ], [ [ [ -122.443335, 37.710555 ], [ -122.444097, 37.711689 ], [ -122.444571, 37.712783 ], [ -122.443706, 37.713592 ], [ -122.441896, 37.715308 ], [ -122.440999, 37.716488 ], [ -122.440418, 37.717245 ], [ -122.440141, 37.717692 ], [ -122.43715, 37.721575 ], [ -122.435977, 37.72313 ], [ -122.435385, 37.723909 ], [ -122.434798, 37.724683 ], [ -122.433982, 37.725762 ], [ -122.433624, 37.726236 ], [ -122.432447, 37.727637 ], [ -122.431801, 37.728249 ], [ -122.431294, 37.72873 ], [ -122.430199, 37.729872 ], [ -122.429304, 37.730742 ], [ -122.428038, 37.732016 ], [ -122.426158, 37.733971 ], [ -122.428573, 37.735082 ], [ -122.426722, 37.736372 ], [ -122.426545, 37.736269 ], [ -122.426209, 37.736074 ], [ -122.424595, 37.735944 ], [ -122.423264, 37.735965 ], [ -122.422688, 37.735205 ], [ -122.422399, 37.735166 ], [ -122.421676, 37.73513 ], [ -122.420163, 37.735777 ], [ -122.41676, 37.735605 ], [ -122.415955, 37.737211 ], [ -122.415899, 37.739002 ], [ -122.418584, 37.739297 ], [ -122.41777, 37.740564 ], [ -122.418752, 37.74118 ], [ -122.416103, 37.745253 ], [ -122.417819, 37.745965 ], [ -122.419121, 37.746775 ], [ -122.418206, 37.748203 ], [ -122.41587, 37.748267 ], [ -122.416108, 37.750771 ], [ -122.416413, 37.753968 ], [ -122.412047, 37.75423 ], [ -122.4119, 37.752629 ], [ -122.411746, 37.751034 ], [ -122.411488, 37.748344 ], [ -122.410551, 37.748367 ], [ -122.410619, 37.746941 ], [ -122.410441, 37.744918 ], [ -122.409378, 37.742923 ], [ -122.410662, 37.742424 ], [ -122.410365, 37.741362 ], [ -122.410507, 37.739779 ], [ -122.410377, 37.736894 ], [ -122.408217, 37.737612 ], [ -122.408779, 37.735817 ], [ -122.410418, 37.734457 ], [ -122.413493, 37.732864 ], [ -122.415939, 37.732072 ], [ -122.419244, 37.73206 ], [ -122.41927, 37.73133 ], [ -122.419486, 37.729046 ], [ -122.416637, 37.728809 ], [ -122.415193, 37.729223 ], [ -122.41446, 37.727457 ], [ -122.410519, 37.728488 ], [ -122.40756, 37.729261 ], [ -122.408509, 37.731552 ], [ -122.405608, 37.732439 ], [ -122.406295, 37.735307 ], [ -122.406551, 37.735721 ], [ -122.407009, 37.738002 ], [ -122.407114, 37.73906 ], [ -122.407062, 37.73957 ], [ -122.40459, 37.744126 ], [ -122.403561, 37.747762 ], [ -122.403784, 37.749433 ], [ -122.402861, 37.749543 ], [ -122.402605, 37.750558 ], [ -122.400217, 37.750753 ], [ -122.396408, 37.751179 ], [ -122.394587, 37.752427 ], [ -122.391231, 37.75263 ], [ -122.38789, 37.752819 ], [ -122.382266933582997, 37.753153656024097 ], [ -122.376561, 37.752073 ], [ -122.376241, 37.748523 ], [ -122.372992392797002, 37.745313639265902 ], [ -122.367798, 37.740182 ], [ -122.368075982459999, 37.739985043817498 ], [ -122.368244, 37.739866 ], [ -122.368276941711002, 37.739864281097297 ], [ -122.37384, 37.739574 ], [ -122.375784470392006, 37.735823949958302 ], [ -122.37587, 37.735659 ], [ -122.375178, 37.734699 ], [ -122.374982, 37.733862 ], [ -122.374609, 37.73288 ], [ -122.373327, 37.733186 ], [ -122.372024, 37.734213 ], [ -122.370077, 37.732788 ], [ -122.369771405991997, 37.732698967780699 ], [ -122.37364, 37.728106 ], [ -122.377681, 37.72863 ], [ -122.378278, 37.728964 ], [ -122.379697, 37.727618 ], [ -122.377833, 37.72656 ], [ -122.379932902700006, 37.723719941983703 ], [ -122.381656297486003, 37.722162073458499 ], [ -122.381900548816006, 37.7219412816453 ], [ -122.383235, 37.720735 ], [ -122.383042056708007, 37.720609029858501 ], [ -122.377476879317001, 37.716975598622703 ], [ -122.376128860246993, 37.716095494674398 ], [ -122.375978, 37.715997 ], [ -122.380064, 37.710869 ], [ -122.379594971355004, 37.710382640042397 ], [ -122.378765, 37.709522 ], [ -122.37939, 37.708663 ], [ -122.381875580843996, 37.708886230058503 ], [ -122.387358890797998, 37.709378686220198 ], [ -122.390947634626997, 37.709700991365501 ], [ -122.391549, 37.709755 ], [ -122.393378981140003, 37.708267569990298 ], [ -122.395107, 37.708339 ], [ -122.404682, 37.708331 ], [ -122.405292, 37.708262 ], [ -122.406958, 37.704639 ], [ -122.410718, 37.705691 ], [ -122.411338, 37.701364 ], [ -122.413417, 37.697831 ], [ -122.419223, 37.699143 ], [ -122.418096, 37.701871 ], [ -122.423341, 37.703565 ], [ -122.424668, 37.705679 ], [ -122.42459, 37.706598 ], [ -122.42389, 37.708236 ], [ -122.420082, 37.708231 ], [ -122.420083, 37.708311 ], [ -122.419348, 37.709947 ], [ -122.416648, 37.710473 ], [ -122.416, 37.711915 ], [ -122.415635, 37.712733 ], [ -122.415291, 37.713504 ], [ -122.415396, 37.715474 ], [ -122.411316, 37.714367 ], [ -122.410433, 37.716414 ], [ -122.408561, 37.716412 ], [ -122.408255, 37.71809 ], [ -122.407997, 37.718719 ], [ -122.41099, 37.719074 ], [ -122.412468, 37.722658 ], [ -122.412969, 37.723858 ], [ -122.415923, 37.723085 ], [ -122.416549, 37.721961 ], [ -122.419875, 37.72471 ], [ -122.421847, 37.724199 ], [ -122.422426, 37.724048 ], [ -122.423807, 37.723691 ], [ -122.424771, 37.722172 ], [ -122.428074, 37.723591 ], [ -122.428837, 37.723955 ], [ -122.430026, 37.722398 ], [ -122.431205, 37.720856 ], [ -122.432385, 37.719298 ], [ -122.433555, 37.717744 ], [ -122.431154, 37.716594 ], [ -122.432777, 37.714437 ], [ -122.433682, 37.713181 ], [ -122.436144, 37.714254 ], [ -122.436203, 37.714171 ], [ -122.436642, 37.71355 ], [ -122.437811, 37.71192 ], [ -122.443335, 37.710555 ] ] ], [ [ [ -122.472921, 37.71735 ], [ -122.472672, 37.717248 ], [ -122.471472, 37.713427 ], [ -122.471355, 37.712802 ], [ -122.472269, 37.712838 ], [ -122.477016, 37.714593 ], [ -122.485275, 37.714823 ], [ -122.485124, 37.718575 ], [ -122.484832, 37.718571 ], [ -122.483143, 37.718517 ], [ -122.483205, 37.717585 ], [ -122.479981, 37.716942 ], [ -122.478674, 37.717903 ], [ -122.47724, 37.717709 ], [ -122.475818, 37.716891 ], [ -122.474383, 37.717507 ], [ -122.474661, 37.719151 ], [ -122.472921, 37.71735 ] ] ], [ [ [ -122.42899, 37.773248 ], [ -122.430825, 37.773973 ], [ -122.429178, 37.774181 ], [ -122.425888, 37.774599 ], [ -122.426263, 37.776464 ], [ -122.426641, 37.778329 ], [ -122.424998, 37.778538 ], [ -122.423354, 37.778747 ], [ -122.423541, 37.779674 ], [ -122.423918, 37.781536 ], [ -122.424108, 37.782477 ], [ -122.427396, 37.782057 ], [ -122.430696, 37.781635 ], [ -122.43032, 37.779772 ], [ -122.430115, 37.778842 ], [ -122.430018, 37.778356 ], [ -122.429929, 37.777909 ], [ -122.431575, 37.7777 ], [ -122.433219, 37.77749 ], [ -122.436507, 37.777068 ], [ -122.438244, 37.776848 ], [ -122.441488, 37.776435 ], [ -122.441641, 37.777191 ], [ -122.441866, 37.7783 ], [ -122.440958, 37.779364 ], [ -122.437072, 37.779867 ], [ -122.436697, 37.778006 ], [ -122.433407, 37.778422 ], [ -122.433596, 37.779355 ], [ -122.433973, 37.781219 ], [ -122.43435, 37.783083 ], [ -122.434562, 37.784152 ], [ -122.431291, 37.784621 ], [ -122.428009, 37.785058 ], [ -122.424704, 37.785418 ], [ -122.424678, 37.785291 ], [ -122.422838, 37.784547 ], [ -122.421256, 37.784745 ], [ -122.421675, 37.786605 ], [ -122.421858, 37.787535 ], [ -122.418465, 37.787966 ], [ -122.416827, 37.788178 ], [ -122.415185, 37.788388 ], [ -122.414995, 37.787454 ], [ -122.413354, 37.787664 ], [ -122.412531, 37.787767 ], [ -122.411699, 37.787872 ], [ -122.408402, 37.788293 ], [ -122.408595, 37.789226 ], [ -122.408786, 37.79016 ], [ -122.407149, 37.790366 ], [ -122.40734, 37.791296 ], [ -122.407536, 37.792249 ], [ -122.407903, 37.79406 ], [ -122.408253, 37.795824 ], [ -122.408431, 37.796704 ], [ -122.411719, 37.796291 ], [ -122.411911, 37.797245 ], [ -122.412096, 37.798165 ], [ -122.407869, 37.798697 ], [ -122.406668, 37.797865 ], [ -122.405513, 37.797065 ], [ -122.406828, 37.796902 ], [ -122.406652, 37.796025 ], [ -122.406601, 37.795774 ], [ -122.406305, 37.794264 ], [ -122.404796, 37.794453 ], [ -122.404613, 37.793565 ], [ -122.401315, 37.793987 ], [ -122.400149, 37.794134 ], [ -122.396586, 37.794588 ], [ -122.396315, 37.793337 ], [ -122.397428, 37.792442 ], [ -122.399195, 37.791058 ], [ -122.401402, 37.789297 ], [ -122.402914, 37.788112 ], [ -122.403456, 37.787776 ], [ -122.404743, 37.786778 ], [ -122.406062, 37.785757 ], [ -122.402708, 37.783259 ], [ -122.400468, 37.78503 ], [ -122.39893, 37.783785 ], [ -122.397386, 37.782554 ], [ -122.395843, 37.781321 ], [ -122.39275, 37.778852 ], [ -122.390527, 37.780607 ], [ -122.389168, 37.781649 ], [ -122.388423, 37.781798 ], [ -122.387669, 37.782791029411797 ], [ -122.387669, 37.776799 ], [ -122.386594091484, 37.773281993988 ], [ -122.385894316499005, 37.770992391856304 ], [ -122.385216, 37.768773 ], [ -122.385706799990004, 37.767253171038703 ], [ -122.386756030236995, 37.764004086793904 ], [ -122.387917, 37.764379 ], [ -122.388164, 37.766958 ], [ -122.389099, 37.766903 ], [ -122.393001, 37.766671 ], [ -122.394473, 37.766582 ], [ -122.39351, 37.765585 ], [ -122.398703, 37.765014 ], [ -122.400633, 37.764898 ], [ -122.404497, 37.764664 ], [ -122.40509, 37.764628 ], [ -122.405105, 37.763852 ], [ -122.40648, 37.760731 ], [ -122.406262, 37.759452 ], [ -122.403689, 37.757015 ], [ -122.403396, 37.756471 ], [ -122.403127, 37.754478 ], [ -122.406453, 37.754277 ], [ -122.407449, 37.754506 ], [ -122.407602, 37.756109 ], [ -122.407754, 37.757705 ], [ -122.408064, 37.760601 ], [ -122.408424, 37.764427 ], [ -122.410364, 37.76431 ], [ -122.413003, 37.764091 ], [ -122.413588, 37.763823 ], [ -122.417332, 37.763572 ], [ -122.417179, 37.761968 ], [ -122.417026, 37.760367 ], [ -122.416872, 37.758764 ], [ -122.41672, 37.757167 ], [ -122.416567, 37.755568 ], [ -122.418748, 37.755437 ], [ -122.420964, 37.755295 ], [ -122.421118, 37.756902 ], [ -122.421272, 37.758499 ], [ -122.421425, 37.760101 ], [ -122.421578, 37.761701 ], [ -122.421732, 37.7633 ], [ -122.421853, 37.764571 ], [ -122.421886, 37.764917 ], [ -122.422044, 37.76654 ], [ -122.422199, 37.76814 ], [ -122.422308, 37.769278 ], [ -122.422439, 37.770664 ], [ -122.42262, 37.772503 ], [ -122.423665, 37.771781 ], [ -122.424929, 37.770778 ], [ -122.425512, 37.772734 ], [ -122.428802, 37.772316 ], [ -122.42899, 37.773248 ] ], [ [ -122.415505, 37.781654 ], [ -122.417146, 37.781447 ], [ -122.417339, 37.782379 ], [ -122.418993, 37.782169 ], [ -122.420689, 37.781955 ], [ -122.420358, 37.780072 ], [ -122.419943, 37.778238 ], [ -122.419765, 37.777291 ], [ -122.419359, 37.775432 ], [ -122.419334, 37.77521 ], [ -122.418704, 37.775645 ], [ -122.417615, 37.7766 ], [ -122.416292, 37.777494 ], [ -122.414782, 37.778744 ], [ -122.413365, 37.779862 ], [ -122.412548, 37.780508 ], [ -122.411985, 37.780952 ], [ -122.413866, 37.781863 ], [ -122.415505, 37.781654 ] ], [ [ -122.413161, 37.774992 ], [ -122.415561, 37.773101 ], [ -122.414027, 37.771864 ], [ -122.41248, 37.77063 ], [ -122.408516, 37.77376 ], [ -122.410063, 37.774992 ], [ -122.411606, 37.776221 ], [ -122.413161, 37.774992 ] ] ], [ [ [ -122.425423, 37.788995 ], [ -122.425237, 37.78807 ], [ -122.425047, 37.78713 ], [ -122.428336, 37.786713 ], [ -122.428525, 37.787651 ], [ -122.428553, 37.787791 ], [ -122.428712, 37.788577 ], [ -122.428905, 37.789534 ], [ -122.425616, 37.789952 ], [ -122.425423, 37.788995 ] ] ], [ [ [ -122.419036, 37.790788 ], [ -122.41575, 37.791206 ], [ -122.415559, 37.790254 ], [ -122.415372, 37.78932 ], [ -122.417017, 37.78911 ], [ -122.422077, 37.788474 ], [ -122.422145, 37.788943 ], [ -122.422237, 37.789399 ], [ -122.42242, 37.790358 ], [ -122.419036, 37.790788 ] ] ], [ [ [ -122.244817, 37.779123 ], [ -122.245219, 37.783033 ], [ -122.246591, 37.784679 ], [ -122.251332, 37.786881 ], [ -122.253958, 37.786779 ], [ -122.256889, 37.785677 ], [ -122.260056, 37.784489 ], [ -122.268544, 37.787934 ], [ -122.262963, 37.791175 ], [ -122.261327, 37.793807 ], [ -122.260806, 37.79528 ], [ -122.259577, 37.79632 ], [ -122.259551, 37.798132 ], [ -122.259554, 37.798301 ], [ -122.257805, 37.799704 ], [ -122.254505, 37.800561 ], [ -122.254468, 37.801838 ], [ -122.254073, 37.802521 ], [ -122.253447, 37.803608 ], [ -122.250597, 37.805237 ], [ -122.249578, 37.807558 ], [ -122.249148, 37.808391 ], [ -122.246702, 37.809703 ], [ -122.246504, 37.809841 ], [ -122.241982, 37.808552 ], [ -122.235416, 37.805624 ], [ -122.233397, 37.804375 ], [ -122.234866, 37.803376 ], [ -122.237222, 37.803121 ], [ -122.239791, 37.802621 ], [ -122.241671, 37.802399 ], [ -122.242198, 37.801722 ], [ -122.242961, 37.800873 ], [ -122.241291, 37.799393 ], [ -122.240474, 37.798669 ], [ -122.239635, 37.797933 ], [ -122.237973, 37.79646 ], [ -122.239833, 37.795136 ], [ -122.237951, 37.794948 ], [ -122.237547, 37.793494 ], [ -122.235512, 37.792267 ], [ -122.23544, 37.792224 ], [ -122.233339, 37.790957 ], [ -122.231583, 37.789907 ], [ -122.230914, 37.789441 ], [ -122.230762, 37.789595 ], [ -122.230201, 37.790173 ], [ -122.229001, 37.790821 ], [ -122.227756, 37.792051 ], [ -122.226685, 37.793545 ], [ -122.226378, 37.793498 ], [ -122.225428, 37.793037 ], [ -122.222667, 37.791538 ], [ -122.221573, 37.790949 ], [ -122.219995, 37.790516 ], [ -122.219751, 37.791152 ], [ -122.219088, 37.792923 ], [ -122.218948, 37.79328 ], [ -122.218469, 37.794476 ], [ -122.216297, 37.793686 ], [ -122.216996, 37.792796 ], [ -122.214825, 37.791757 ], [ -122.211685, 37.790305 ], [ -122.211104, 37.789688 ], [ -122.210131, 37.788651 ], [ -122.209819, 37.788303 ], [ -122.210377, 37.787975 ], [ -122.207444, 37.785373 ], [ -122.207372, 37.785311 ], [ -122.20414, 37.782517 ], [ -122.200715, 37.784273 ], [ -122.200124, 37.784571 ], [ -122.195924, 37.780924 ], [ -122.199497, 37.778386 ], [ -122.201116, 37.777237 ], [ -122.199324, 37.775641 ], [ -122.19592, 37.772639 ], [ -122.190345, 37.771576 ], [ -122.185365, 37.775425 ], [ -122.184009, 37.776485 ], [ -122.180165, 37.774257 ], [ -122.179729, 37.773893 ], [ -122.177957, 37.772563 ], [ -122.176807, 37.77141 ], [ -122.172, 37.769173 ], [ -122.172133, 37.769131 ], [ -122.176639, 37.766336 ], [ -122.177197, 37.765816 ], [ -122.175698, 37.76494 ], [ -122.174561, 37.763909 ], [ -122.172761, 37.762137 ], [ -122.172283, 37.761695 ], [ -122.171136, 37.760692 ], [ -122.170547, 37.759996 ], [ -122.168729, 37.760898 ], [ -122.164942, 37.762685 ], [ -122.163427, 37.760987 ], [ -122.161979, 37.757225 ], [ -122.161409, 37.755639 ], [ -122.1604, 37.752903 ], [ -122.164044, 37.75119 ], [ -122.160307, 37.746125 ], [ -122.159506, 37.745049 ], [ -122.156962, 37.741506 ], [ -122.155119, 37.739082 ], [ -122.152439, 37.735476 ], [ -122.151063, 37.733566 ], [ -122.150195, 37.73237 ], [ -122.148736, 37.729135 ], [ -122.147888, 37.727156 ], [ -122.146731, 37.724493 ], [ -122.145496, 37.72167 ], [ -122.14508, 37.720682 ], [ -122.148636, 37.719698 ], [ -122.147968, 37.719211 ], [ -122.151638, 37.717692 ], [ -122.151151, 37.716942 ], [ -122.153984, 37.715744 ], [ -122.155593, 37.715082 ], [ -122.15892, 37.717986 ], [ -122.159808, 37.718776 ], [ -122.164245, 37.722651 ], [ -122.16724, 37.721836 ], [ -122.168104, 37.721626 ], [ -122.170496, 37.721032 ], [ -122.17306, 37.720345 ], [ -122.173941, 37.720025 ], [ -122.175295, 37.719472 ], [ -122.176864, 37.719098 ], [ -122.183312, 37.725566 ], [ -122.181916, 37.725372 ], [ -122.180226, 37.725738 ], [ -122.175802, 37.725231 ], [ -122.174341, 37.72665 ], [ -122.170401, 37.727756 ], [ -122.17043, 37.727836 ], [ -122.17404, 37.73119 ], [ -122.177295, 37.73403 ], [ -122.179782, 37.736267 ], [ -122.181561, 37.737835 ], [ -122.185813, 37.741504 ], [ -122.190731, 37.745815 ], [ -122.193624, 37.748322 ], [ -122.196548, 37.750857 ], [ -122.198076, 37.752214 ], [ -122.201102, 37.754884 ], [ -122.203141, 37.754749 ], [ -122.207537, 37.753148 ], [ -122.214852, 37.761468 ], [ -122.218112, 37.759656 ], [ -122.223481, 37.754702 ], [ -122.223647, 37.756926 ], [ -122.224213, 37.762813 ], [ -122.224904, 37.764563 ], [ -122.226583, 37.766934 ], [ -122.230205, 37.768977 ], [ -122.236488, 37.771696 ], [ -122.236566, 37.771731 ], [ -122.240498, 37.773732 ], [ -122.243536, 37.776278 ], [ -122.244817, 37.779123 ] ] ], [ [ [ -122.279687, 37.800256 ], [ -122.283322, 37.8017 ], [ -122.28274, 37.803675 ], [ -122.280965, 37.808301 ], [ -122.279921, 37.811183 ], [ -122.278681, 37.814574 ], [ -122.280237, 37.814777 ], [ -122.284024, 37.815622 ], [ -122.28967, 37.817002 ], [ -122.288425, 37.81831 ], [ -122.286226, 37.821163 ], [ -122.276053, 37.81887 ], [ -122.276246, 37.819478 ], [ -122.276697, 37.820883 ], [ -122.277372, 37.822934 ], [ -122.277915, 37.824623 ], [ -122.278611, 37.826878 ], [ -122.275061, 37.826059 ], [ -122.271796, 37.825226 ], [ -122.268563, 37.824462 ], [ -122.261996, 37.823012 ], [ -122.260006, 37.822421 ], [ -122.261062, 37.820701 ], [ -122.262366, 37.818614 ], [ -122.263084, 37.817449 ], [ -122.263756, 37.816381 ], [ -122.264193, 37.81571 ], [ -122.266771, 37.811553 ], [ -122.271274, 37.804361 ], [ -122.268798, 37.803427 ], [ -122.26761, 37.80296 ], [ -122.266458, 37.802497 ], [ -122.267312, 37.801081 ], [ -122.263752, 37.7997 ], [ -122.265066, 37.797622 ], [ -122.266615, 37.795117 ], [ -122.27014, 37.796524 ], [ -122.272515, 37.797457 ], [ -122.274935, 37.798276 ], [ -122.275061, 37.798321 ], [ -122.278536, 37.799654 ], [ -122.279564, 37.800449 ], [ -122.279687, 37.800256 ] ] ], [ [ [ -121.803945, 37.245843 ], [ -121.804056, 37.243137 ], [ -121.804056, 37.24302 ], [ -121.80544, 37.243206 ], [ -121.817689, 37.243414 ], [ -121.820398, 37.243575 ], [ -121.823479, 37.244396 ], [ -121.829988, 37.247493 ], [ -121.829969, 37.248048 ], [ -121.830838, 37.251288 ], [ -121.825074, 37.251398 ], [ -121.821818, 37.251426 ], [ -121.817494, 37.251459 ], [ -121.812841, 37.251494 ], [ -121.809802, 37.25125 ], [ -121.808862, 37.251543 ], [ -121.80723, 37.251705 ], [ -121.804024, 37.251476 ], [ -121.803944, 37.245964 ], [ -121.803945, 37.245843 ] ] ], [ [ [ -121.846752, 37.250573 ], [ -121.849651, 37.250502 ], [ -121.854426, 37.250315 ], [ -121.858876, 37.250358 ], [ -121.86655, 37.25041 ], [ -121.870167, 37.250475 ], [ -121.874507, 37.250839 ], [ -121.875315, 37.250817 ], [ -121.875991, 37.255746 ], [ -121.876386, 37.259006 ], [ -121.876295, 37.259831 ], [ -121.876679, 37.262985 ], [ -121.876587, 37.262998 ], [ -121.875611, 37.263275 ], [ -121.872902, 37.26402 ], [ -121.868893, 37.265024 ], [ -121.866277, 37.265623 ], [ -121.865998, 37.265644 ], [ -121.858919, 37.266054 ], [ -121.858709, 37.26463 ], [ -121.858712, 37.259656 ], [ -121.858642, 37.258716 ], [ -121.858985, 37.255605 ], [ -121.858807, 37.255605 ], [ -121.849037, 37.255378 ], [ -121.848434, 37.255388 ], [ -121.848301, 37.25539 ], [ -121.844467, 37.254555 ], [ -121.83651, 37.250723 ], [ -121.839743, 37.250541 ], [ -121.84181, 37.250617 ], [ -121.846752, 37.250573 ] ] ], [ [ [ -121.874975, 37.277947 ], [ -121.874473, 37.277977 ], [ -121.872572, 37.278151 ], [ -121.871379, 37.278153 ], [ -121.872319, 37.280313 ], [ -121.872561, 37.281334 ], [ -121.873095, 37.281479 ], [ -121.873703, 37.284221 ], [ -121.87352, 37.284655 ], [ -121.876566, 37.287587 ], [ -121.881894, 37.28865 ], [ -121.881425, 37.290644 ], [ -121.880689, 37.292242 ], [ -121.881242, 37.296039 ], [ -121.88085, 37.297481 ], [ -121.880716, 37.301094 ], [ -121.881748, 37.301725 ], [ -121.881649, 37.303998 ], [ -121.878612, 37.304342 ], [ -121.883232, 37.310156 ], [ -121.887901, 37.315414 ], [ -121.888061, 37.315323 ], [ -121.889345, 37.317119 ], [ -121.88984, 37.318589 ], [ -121.890521, 37.320957 ], [ -121.89217, 37.323753 ], [ -121.892324, 37.32374 ], [ -121.895186, 37.323148 ], [ -121.89778, 37.32246 ], [ -121.900177, 37.320835 ], [ -121.900468, 37.320585 ], [ -121.902233, 37.318704 ], [ -121.903259, 37.319778 ], [ -121.902625, 37.32136 ], [ -121.90248, 37.323481 ], [ -121.902069, 37.324069 ], [ -121.900883, 37.325601 ], [ -121.900194, 37.326611 ], [ -121.901331, 37.326434 ], [ -121.902733, 37.326291 ], [ -121.902876, 37.326281 ], [ -121.904864, 37.326176 ], [ -121.906205, 37.326222 ], [ -121.91158, 37.326009 ], [ -121.911829, 37.331553 ], [ -121.90473, 37.331862 ], [ -121.90381, 37.331903 ], [ -121.909255, 37.336841 ], [ -121.913401, 37.340642 ], [ -121.916314, 37.343185 ], [ -121.921909, 37.346027 ], [ -121.923773, 37.346992 ], [ -121.932135, 37.351219 ], [ -121.932111, 37.356424 ], [ -121.93471, 37.35678 ], [ -121.933153, 37.358649 ], [ -121.939674, 37.364885 ], [ -121.94154, 37.36654 ], [ -121.941259, 37.368357 ], [ -121.941264, 37.36987 ], [ -121.9433, 37.37207 ], [ -121.94356, 37.37322 ], [ -121.94575, 37.37352 ], [ -121.945774, 37.373635 ], [ -121.946188, 37.37512 ], [ -121.94752, 37.37775 ], [ -121.941725, 37.376648 ], [ -121.933017, 37.374874 ], [ -121.927392, 37.373543 ], [ -121.919455, 37.37203 ], [ -121.918321, 37.373022 ], [ -121.917202, 37.371741 ], [ -121.916876, 37.37166 ], [ -121.911177, 37.369861 ], [ -121.909589, 37.36907 ], [ -121.904766, 37.365267 ], [ -121.904164, 37.364941 ], [ -121.902359, 37.364215 ], [ -121.90178, 37.364029 ], [ -121.901351, 37.365026 ], [ -121.901014, 37.367246 ], [ -121.90103, 37.367954 ], [ -121.904309, 37.382367 ], [ -121.906507, 37.391399 ], [ -121.908851, 37.401491 ], [ -121.908901, 37.401725 ], [ -121.905633, 37.404322 ], [ -121.902863, 37.404407 ], [ -121.898682, 37.404091 ], [ -121.897746, 37.404132 ], [ -121.895821, 37.403741 ], [ -121.89226, 37.403411 ], [ -121.89058, 37.403313 ], [ -121.887006, 37.403023 ], [ -121.886293, 37.401704 ], [ -121.885363, 37.400003 ], [ -121.884713, 37.398664 ], [ -121.884349, 37.397497 ], [ -121.883925, 37.396317 ], [ -121.881464, 37.388614 ], [ -121.882751, 37.387909 ], [ -121.886054, 37.387353 ], [ -121.890276, 37.3848 ], [ -121.892198, 37.383633 ], [ -121.893676, 37.382886 ], [ -121.89586, 37.382745 ], [ -121.895446, 37.381868 ], [ -121.895593, 37.377681 ], [ -121.895367, 37.377706 ], [ -121.892496, 37.377829 ], [ -121.891003, 37.376922 ], [ -121.889422, 37.374891 ], [ -121.889051, 37.373484 ], [ -121.888289, 37.372555 ], [ -121.887964, 37.372258 ], [ -121.887121, 37.371493 ], [ -121.884572, 37.369751 ], [ -121.880698, 37.368007 ], [ -121.880202, 37.367788 ], [ -121.877419, 37.366069 ], [ -121.876439, 37.365418 ], [ -121.874509, 37.363418 ], [ -121.869365, 37.366808 ], [ -121.865196, 37.369633 ], [ -121.863251, 37.37094 ], [ -121.858789, 37.366822 ], [ -121.857626, 37.364946 ], [ -121.854807, 37.36209 ], [ -121.852828, 37.363433 ], [ -121.85012, 37.365259 ], [ -121.846104, 37.368075 ], [ -121.843013, 37.370077 ], [ -121.839774, 37.366795 ], [ -121.838688, 37.365776 ], [ -121.83596, 37.362975 ], [ -121.835192, 37.362334 ], [ -121.833063, 37.359587 ], [ -121.831667, 37.357576 ], [ -121.831108, 37.356769 ], [ -121.830816, 37.355345 ], [ -121.83008, 37.354993 ], [ -121.829067, 37.354188 ], [ -121.827118, 37.351127 ], [ -121.827006, 37.350833 ], [ -121.830599, 37.348379 ], [ -121.832647, 37.346986 ], [ -121.832996, 37.347358 ], [ -121.834369, 37.348827 ], [ -121.836786, 37.351401 ], [ -121.837798, 37.352481 ], [ -121.838539, 37.349971 ], [ -121.841367, 37.347113 ], [ -121.846326, 37.343204 ], [ -121.843109, 37.339904 ], [ -121.845914, 37.338042 ], [ -121.848591, 37.335812 ], [ -121.851632, 37.33904 ], [ -121.851958, 37.339492 ], [ -121.857157, 37.336268 ], [ -121.857371, 37.336483 ], [ -121.859961, 37.33905 ], [ -121.861224, 37.340402 ], [ -121.862263, 37.341386 ], [ -121.864846, 37.344042 ], [ -121.870572, 37.340458 ], [ -121.871133, 37.342131 ], [ -121.873875, 37.344095 ], [ -121.87426, 37.345294 ], [ -121.873512, 37.350182 ], [ -121.874176, 37.352225 ], [ -121.874177, 37.352766 ], [ -121.873623, 37.358425 ], [ -121.873804, 37.359704 ], [ -121.875901, 37.360611 ], [ -121.877449, 37.36108 ], [ -121.879492, 37.358929 ], [ -121.884013, 37.356774 ], [ -121.887746, 37.355005 ], [ -121.890661, 37.353617 ], [ -121.885876, 37.347191 ], [ -121.883222, 37.343628 ], [ -121.881038, 37.340693 ], [ -121.878607, 37.337431 ], [ -121.877529, 37.335985 ], [ -121.875381, 37.333102 ], [ -121.871505, 37.334938 ], [ -121.868758, 37.336264 ], [ -121.868321, 37.337039 ], [ -121.866901, 37.3321 ], [ -121.866956, 37.331523 ], [ -121.868213, 37.329795 ], [ -121.868261, 37.329513 ], [ -121.867889, 37.328572 ], [ -121.874099, 37.325643 ], [ -121.87994, 37.322875 ], [ -121.880289, 37.322706 ], [ -121.878607, 37.321015 ], [ -121.877622, 37.320026 ], [ -121.874022, 37.316377 ], [ -121.870667, 37.312961 ], [ -121.870205, 37.312496 ], [ -121.868563, 37.310812 ], [ -121.866038, 37.308323 ], [ -121.861287, 37.303522 ], [ -121.858388, 37.300657 ], [ -121.856608, 37.298844 ], [ -121.854348, 37.296535 ], [ -121.852545, 37.294625 ], [ -121.848266, 37.290365 ], [ -121.845266, 37.287454 ], [ -121.843599, 37.285925 ], [ -121.848347, 37.28788 ], [ -121.848503, 37.287934 ], [ -121.859869, 37.291689 ], [ -121.865897, 37.293729 ], [ -121.869272, 37.295387 ], [ -121.871144, 37.296703 ], [ -121.872074, 37.295707 ], [ -121.872864, 37.294715 ], [ -121.872791, 37.294534 ], [ -121.87163, 37.291643 ], [ -121.871361, 37.290967 ], [ -121.870895, 37.289856 ], [ -121.870136, 37.288355 ], [ -121.86585, 37.282227 ], [ -121.864749, 37.279805 ], [ -121.861476, 37.280518 ], [ -121.858294, 37.280226 ], [ -121.854273, 37.280213 ], [ -121.84986, 37.280575 ], [ -121.845731, 37.280138 ], [ -121.844228, 37.279338 ], [ -121.841897, 37.276928 ], [ -121.840099, 37.275037 ], [ -121.839542, 37.274495 ], [ -121.837542, 37.273173 ], [ -121.839513, 37.273011 ], [ -121.841049, 37.26914 ], [ -121.841029, 37.265995 ], [ -121.844786, 37.265966 ], [ -121.846574, 37.265864 ], [ -121.850605, 37.265506 ], [ -121.851434, 37.265527 ], [ -121.852474, 37.265664 ], [ -121.85157, 37.267102 ], [ -121.852166, 37.274555 ], [ -121.857225, 37.274471 ], [ -121.860301, 37.274321 ], [ -121.862939, 37.27445 ], [ -121.863677, 37.274487 ], [ -121.870401, 37.275277 ], [ -121.875302, 37.275738 ], [ -121.876789, 37.2757 ], [ -121.877388, 37.276806 ], [ -121.877846, 37.278496 ], [ -121.874975, 37.277947 ] ], [ [ -121.902978, 37.345685 ], [ -121.902368, 37.344917 ], [ -121.901106, 37.342599 ], [ -121.899211, 37.339888 ], [ -121.89824, 37.338462 ], [ -121.893828, 37.340548 ], [ -121.894953, 37.342046 ], [ -121.895345, 37.342573 ], [ -121.896748, 37.34447 ], [ -121.896855, 37.344597 ], [ -121.897006, 37.344803 ], [ -121.893845, 37.346307 ], [ -121.897038, 37.350591 ], [ -121.900228, 37.354875 ], [ -121.904626, 37.360777 ], [ -121.907021, 37.358395 ], [ -121.911248, 37.354176 ], [ -121.909196, 37.350484 ], [ -121.908475, 37.349528 ], [ -121.906608, 37.348114 ], [ -121.904481, 37.346965 ], [ -121.902978, 37.345685 ] ] ], [ [ [ -121.931674, 37.29803 ], [ -121.928011, 37.301428 ], [ -121.921973, 37.306913 ], [ -121.921489, 37.305902 ], [ -121.922527, 37.30385 ], [ -121.922838, 37.303331 ], [ -121.922858, 37.301429 ], [ -121.922689, 37.299831 ], [ -121.925487, 37.299419 ], [ -121.929222, 37.297795 ], [ -121.931669, 37.297222 ], [ -121.931674, 37.29803 ] ] ], [ [ [ -121.93179, 37.310734 ], [ -121.931837, 37.316177 ], [ -121.931838, 37.316523 ], [ -121.931841, 37.316949 ], [ -121.931853, 37.317829 ], [ -121.931868, 37.319857 ], [ -121.925982, 37.319864 ], [ -121.925425, 37.319646 ], [ -121.922727, 37.319661 ], [ -121.922757, 37.322917 ], [ -121.922757, 37.323032 ], [ -121.922762, 37.323435 ], [ -121.922226, 37.323438 ], [ -121.92108, 37.323442 ], [ -121.919977, 37.323449 ], [ -121.919933, 37.323449 ], [ -121.918976, 37.323453 ], [ -121.917185, 37.323459 ], [ -121.913747, 37.323489 ], [ -121.913738, 37.321599 ], [ -121.913733, 37.320753 ], [ -121.913768, 37.317896 ], [ -121.914425, 37.316492 ], [ -121.915001, 37.315221 ], [ -121.915134, 37.314351 ], [ -121.914908, 37.313338 ], [ -121.917817, 37.310706 ], [ -121.921973, 37.306913 ], [ -121.922253, 37.308644 ], [ -121.92328, 37.310697 ], [ -121.927648, 37.310692 ], [ -121.93179, 37.310734 ] ] ], [ [ [ -122.00945, 37.40574 ], [ -122.00964, 37.40689 ], [ -122.006109, 37.407689 ], [ -122.00479, 37.407976 ], [ -122.004686, 37.407999 ], [ -121.995782, 37.409928 ], [ -121.99576, 37.40933 ], [ -121.99571, 37.40333 ], [ -121.99566, 37.399719 ], [ -121.99566, 37.39936 ], [ -121.99561, 37.39607 ], [ -121.99593, 37.391065 ], [ -122.002573, 37.392967 ], [ -122.008674, 37.394657 ], [ -122.010286, 37.395 ], [ -122.012805, 37.395558 ], [ -122.00976, 37.40436 ], [ -122.00974, 37.40445 ], [ -122.00945, 37.40574 ] ] ] ] } }
]
}
