{
"type": "FeatureCollection",
"name": "Tier2_AC_transit_parcels",
"crs": { "type": "name", "properties": { "name": "urn:ogc:def:crs:EPSG::2227" } },
"features": [
{ "type": "Feature", "properties": { "access_id": " ", "station_id": "52584", "acces_poin": "Pedestrian Access Point", "location_t": "2", "stop_lat": 37.80282, "stop_lon": -122.27151, "stop_name": "City Center NB" }, "geometry": { "type": "Polygon", "coordinates": [ [ [ 6052333.930732388049364, 2115374.84165123058483 ], [ 6052141.967100247740746, 2115548.827345775905997 ], [ 6051967.981405702419579, 2115740.790977916214615 ], [ 6051964.880612927488983, 2115744.971912981476635 ], [ 6051942.047100136987865, 2115770.164812094531953 ], [ 6051822.270734350197017, 2115752.397666592150927 ], [ 6051563.505483879707754, 2115739.685345006641001 ], [ 6051304.74023340921849, 2115752.397666592150927 ], [ 6051048.467033756896853, 2115790.412204741965979 ], [ 6050797.153935927897692, 2115853.362858673557639 ], [ 6050553.221222436055541, 2115940.643379176966846 ], [ 6050319.018098658882082, 2116051.413207126781344 ], [ 6050096.800068708136678, 2116184.605568527709693 ], [ 6049996.791944273747504, 2116258.776648646220565 ], [ 6049878.449136878363788, 2116301.120382208842784 ], [ 6049644.246013101190329, 2116411.890210158657283 ], [ 6049624.78132551163435, 2116423.556894921232015 ], [ 6049591.383618674241006, 2116439.352833850774914 ], [ 6049369.165588723495603, 2116572.545195251703262 ], [ 6049161.072733703069389, 2116726.877374853007495 ], [ 6049126.242259548977017, 2116758.445876498240978 ], [ 6049026.508109021931887, 2116783.427980691194534 ], [ 6048782.575395530089736, 2116870.708501194603741 ], [ 6048548.372271752916276, 2116981.47832914441824 ], [ 6048537.805892750620842, 2116987.811572990845889 ], [ 6048493.559921085834503, 2117008.738359063398093 ], [ 6048271.341891135089099, 2117141.930720464326441 ], [ 6048063.249036114662886, 2117296.262900065630674 ], [ 6047871.285403974354267, 2117470.248594610951841 ], [ 6047697.299709429033101, 2117662.212226751260459 ], [ 6047542.967529827728868, 2117870.305081771686673 ], [ 6047409.775168427266181, 2118092.523111722432077 ], [ 6047299.00534047652036, 2118326.726235499605536 ], [ 6047211.724819974042475, 2118570.658948991447687 ], [ 6047148.774166041985154, 2118821.972046820446849 ], [ 6047110.75962789170444, 2119078.245246473234147 ], [ 6047098.047306306660175, 2119337.010496943257749 ], [ 6047110.75962789170444, 2119595.775747413281351 ], [ 6047148.774166041985154, 2119852.048947066068649 ], [ 6047211.724819974042475, 2120103.362044895067811 ], [ 6047249.69973243586719, 2120209.494815279729664 ], [ 6047256.06711520627141, 2120339.105869113001972 ], [ 6047294.081653356552124, 2120595.37906876578927 ], [ 6047357.032307288609445, 2120846.692166594788432 ], [ 6047444.312827791087329, 2121090.624880086630583 ], [ 6047555.08265574183315, 2121324.828003863804042 ], [ 6047575.935295888222754, 2121359.618532117456198 ], [ 6047584.22946135699749, 2121377.155071606393903 ], [ 6047717.421822757460177, 2121599.373101557139307 ], [ 6047871.75400235876441, 2121807.465956577565521 ], [ 6048018.262201291508973, 2121969.112844150513411 ], [ 6048093.255208832211792, 2122178.704259474296123 ], [ 6048188.994378328323364, 2122381.127726032398641 ], [ 6048209.275693815201521, 2122462.095276085659862 ], [ 6048296.556214317679405, 2122706.027989577502012 ], [ 6048407.326042268425226, 2122940.231113354675472 ], [ 6048430.344205377623439, 2122978.634598400443792 ], [ 6048436.992271561175585, 2122992.690753366332501 ], [ 6048570.184632961638272, 2123214.908783317077905 ], [ 6048724.516812562942505, 2123423.001638337504119 ], [ 6048898.502507108263671, 2123614.965270477812737 ], [ 6049090.46613924857229, 2123788.950965023133904 ], [ 6049298.558994268998504, 2123943.283144624438137 ], [ 6049520.777024219743907, 2124076.475506025366485 ], [ 6049754.980147996917367, 2124187.245333975180984 ], [ 6049998.912861488759518, 2124274.52585447859019 ], [ 6050250.225959317758679, 2124337.47650841018185 ], [ 6050506.499158970080316, 2124375.491046559996903 ], [ 6050765.26440944056958, 2124388.203368145506829 ], [ 6051024.029659911058843, 2124375.491046559996903 ], [ 6051280.30285956338048, 2124337.47650841018185 ], [ 6051531.615957392379642, 2124274.52585447859019 ], [ 6051775.548670884221792, 2124187.245333975180984 ], [ 6052009.751794661395252, 2124076.475506025366485 ], [ 6052231.969824612140656, 2123943.283144624438137 ], [ 6052440.062679632566869, 2123788.950965023133904 ], [ 6052632.026311772875488, 2123614.965270477812737 ], [ 6052806.012006318196654, 2123423.001638337504119 ], [ 6052960.344185919500887, 2123214.908783317077905 ], [ 6053093.536547319963574, 2122992.690753366332501 ], [ 6053204.306375270709395, 2122758.487629589159042 ], [ 6053291.58689577318728, 2122514.554916097316891 ], [ 6053354.537549705244601, 2122263.241818268317729 ], [ 6053392.552087855525315, 2122006.968618615530431 ], [ 6053405.26440944056958, 2121748.203368145506829 ], [ 6053392.552087855525315, 2121489.438117675483227 ], [ 6053354.537549705244601, 2121233.164918022695929 ], [ 6053291.58689577318728, 2120981.851820193696767 ], [ 6053242.8974518943578, 2120845.773940554820001 ], [ 6053357.054219705052674, 2120777.351007105316967 ], [ 6053565.147074725478888, 2120623.018827504012734 ], [ 6053757.110706865787506, 2120449.033132958691567 ], [ 6053855.899170173332095, 2120340.036860135383904 ], [ 6054034.034482444636524, 2120366.460737596265972 ], [ 6054292.799732915125787, 2120379.173059181775898 ], [ 6054551.564983385615051, 2120366.460737596265972 ], [ 6054807.838183037936687, 2120328.446199446450919 ], [ 6055059.151280866935849, 2120265.495545514859259 ], [ 6055303.083994358778, 2120178.215025011450052 ], [ 6055537.287118135951459, 2120067.445197061635554 ], [ 6055759.505148086696863, 2119934.252835660707206 ], [ 6055967.598003107123077, 2119779.920656059402972 ], [ 6056159.561635247431695, 2119605.934961514081806 ], [ 6056333.547329792752862, 2119413.971329373773187 ], [ 6056344.74989749211818, 2119398.866415400523692 ], [ 6056372.469352999702096, 2119368.282709228340536 ], [ 6056526.801532601006329, 2119160.189854207914323 ], [ 6056569.99865366332233, 2119088.119811743497849 ], [ 6056746.097179654985666, 2118928.513411242514849 ], [ 6056920.082874200306833, 2118736.54977910220623 ], [ 6056923.376938275061548, 2118732.108247856609523 ], [ 6056959.904339798726141, 2118691.806470819748938 ], [ 6057114.236519400030375, 2118483.713615799322724 ], [ 6057247.428880800493062, 2118261.495585848577321 ], [ 6057358.198708751238883, 2118027.292462071403861 ], [ 6057403.373688514344394, 2117901.036851631477475 ], [ 6057412.828726273030043, 2117896.5649518170394 ], [ 6057635.046756223775446, 2117763.372590416111052 ], [ 6057843.13961124420166, 2117609.040410814806819 ], [ 6058035.103243384510279, 2117435.054716269485652 ], [ 6058209.088937929831445, 2117243.091084129177034 ], [ 6058223.098370341584086, 2117224.201551205012947 ], [ 6058247.889712768606842, 2117196.848519966937602 ], [ 6058402.221892369911075, 2116988.755664946511388 ], [ 6058448.14256957359612, 2116912.141643579583615 ], [ 6058465.167459498159587, 2116904.089470332022756 ], [ 6058504.18736238963902, 2116880.701840584166348 ], [ 6058517.397035478614271, 2116874.454130512196571 ], [ 6058739.615065429359674, 2116741.261769111268222 ], [ 6058947.707920449785888, 2116586.929589509963989 ], [ 6059139.671552590094507, 2116412.943894964642823 ], [ 6059313.657247135415673, 2116220.980262824334204 ], [ 6059467.989426736719906, 2116012.88740780390799 ], [ 6059599.172423139214516, 2115794.021800819784403 ], [ 6059672.430709404870868, 2115775.671555384062231 ], [ 6059916.363422896713018, 2115688.391034880653024 ], [ 6060150.566546673886478, 2115577.621206930838525 ], [ 6060372.784576624631882, 2115444.428845529910177 ], [ 6060580.877431645058095, 2115290.096665928605944 ], [ 6060772.841063785366714, 2115116.110971383284777 ], [ 6060946.826758330687881, 2114924.147339242976159 ], [ 6061101.158937931992114, 2114716.054484222549945 ], [ 6061155.953013, 2114624.636092908214778 ], [ 6061370.738259599544108, 2114547.784702820703387 ], [ 6061604.941383376717567, 2114437.014874870888889 ], [ 6061827.159413327462971, 2114303.822513469960541 ], [ 6062035.252268347889185, 2114149.490333868656307 ], [ 6062227.215900488197803, 2113975.504639323335141 ], [ 6062401.20159503351897, 2113783.541007183026522 ], [ 6062555.533774634823203, 2113575.448152162600309 ], [ 6062568.353434008546174, 2113554.059842647984624 ], [ 6062697.740923915989697, 2113507.764258492272347 ], [ 6062931.944047693163157, 2113396.994430542457849 ], [ 6063154.16207764390856, 2113263.8020691415295 ], [ 6063362.254932664334774, 2113109.469889540225267 ], [ 6063554.218564804643393, 2112935.484194994904101 ], [ 6063654.051467328332365, 2112825.335561076644808 ], [ 6063785.270233443006873, 2112763.273706768639386 ], [ 6064007.488263393752277, 2112630.081345367711037 ], [ 6064215.581118414178491, 2112475.749165766406804 ], [ 6064406.864102714695036, 2112302.380374464206398 ], [ 6064533.339625714346766, 2112257.126708728261292 ], [ 6064767.542749491520226, 2112146.356880778446794 ], [ 6064989.76077944226563, 2112013.164519377518445 ], [ 6065197.853634462691844, 2111858.832339776214212 ], [ 6065389.817266603000462, 2111684.846645230893046 ], [ 6065517.56058400310576, 2111543.903613943606615 ], [ 6065587.289979240857065, 2111526.437309694476426 ], [ 6065831.222692732699215, 2111439.156789191067219 ], [ 6066065.425816509872675, 2111328.38696124125272 ], [ 6066287.643846460618079, 2111195.194599840324372 ], [ 6066495.736701481044292, 2111040.862420239020139 ], [ 6066687.700333621352911, 2110866.876725693698972 ], [ 6066861.686028166674078, 2110674.913093553390354 ], [ 6066977.526618985459208, 2110518.720137987751514 ], [ 6067071.554759527556598, 2110504.77238090429455 ], [ 6067322.86785735655576, 2110441.821726972702891 ], [ 6067566.800570848397911, 2110354.541206469293684 ], [ 6067801.00369462557137, 2110243.771378519479185 ], [ 6068023.221724576316774, 2110110.579017118550837 ], [ 6068231.314579596742988, 2109956.246837517246604 ], [ 6068423.278211737051606, 2109782.261142971925437 ], [ 6068498.197609123773873, 2109699.600326071493328 ], [ 6068515.011345179751515, 2109695.388704437296838 ], [ 6068758.944058671593666, 2109608.108183933887631 ], [ 6068993.147182448767126, 2109497.338355984073132 ], [ 6069215.365212399512529, 2109364.145994583144784 ], [ 6069423.458067419938743, 2109209.813814981840551 ], [ 6069574.369634982198477, 2109073.035542949102819 ], [ 6069707.569519735872746, 2109025.375862105749547 ], [ 6069941.772643513046205, 2108914.606034155935049 ], [ 6070163.990673463791609, 2108781.413672755006701 ], [ 6070372.083528484217823, 2108627.081493153702468 ], [ 6070564.047160624526441, 2108453.095798608381301 ], [ 6070738.032855169847608, 2108261.132166468072683 ], [ 6070742.906398556195199, 2108254.560953905805945 ], [ 6070938.65195270255208, 2108205.529245076701045 ], [ 6071182.584666194394231, 2108118.248724573291838 ], [ 6071416.78778997156769, 2108007.47889662347734 ], [ 6071639.005819922313094, 2107874.286535222548991 ], [ 6071847.098674942739308, 2107719.954355621244758 ], [ 6072039.062307083047926, 2107545.968661075923592 ], [ 6072161.445538273081183, 2107410.939573577605188 ], [ 6072226.073004295118153, 2107394.751236068550497 ], [ 6072470.005717786960304, 2107307.47071556514129 ], [ 6072704.208841564133763, 2107196.700887615326792 ], [ 6072926.426871514879167, 2107063.508526214398444 ], [ 6073134.519726535305381, 2106909.176346613094211 ], [ 6073326.483358675613999, 2106735.190652067773044 ], [ 6073389.586001518182456, 2106665.567614671308547 ], [ 6073421.434819928370416, 2106657.589900962077081 ], [ 6073665.367533420212567, 2106570.309380458667874 ], [ 6073899.570657197386026, 2106459.539552508853376 ], [ 6074121.78868714813143, 2106326.347191107925028 ], [ 6074329.881542168557644, 2106172.015011506620795 ], [ 6074519.693683513440192, 2105999.979314553085715 ], [ 6074658.059457396157086, 2105950.471249023452401 ], [ 6074892.262581173330545, 2105839.701421073637903 ], [ 6075114.480611124075949, 2105706.509059672709554 ], [ 6075322.573466144502163, 2105552.176880071405321 ], [ 6075514.537098284810781, 2105378.191185526084155 ], [ 6075543.251588040962815, 2105346.509628240950406 ], [ 6075734.581337901763618, 2105278.050749082583934 ], [ 6075968.784461678937078, 2105167.280921132769436 ], [ 6076191.002491629682481, 2105034.088559731841087 ], [ 6076399.095346650108695, 2104879.756380130536854 ], [ 6076591.058978790417314, 2104705.770685585215688 ], [ 6076752.41993154771626, 2104527.73630949575454 ], [ 6076889.394536953419447, 2104493.425956964027137 ], [ 6077133.327250445261598, 2104406.14543646061793 ], [ 6077367.530374222435057, 2104295.375608510803431 ], [ 6077589.748404173180461, 2104162.183247109875083 ], [ 6077797.841259193606675, 2104007.85106750857085 ], [ 6077989.804891333915293, 2103833.865372963249683 ], [ 6078163.79058587923646, 2103641.901740822941065 ], [ 6078318.122765480540693, 2103433.808885802514851 ], [ 6078451.31512688100338, 2103211.590855851769447 ], [ 6078562.084954831749201, 2102977.387732074595988 ], [ 6078592.92301950417459, 2102891.201115048024803 ], [ 6078670.270258154720068, 2102833.836493250448257 ], [ 6078862.233890295028687, 2102659.85079870512709 ], [ 6079036.219584840349853, 2102467.887166564818472 ], [ 6079190.551764441654086, 2102259.794311544392258 ], [ 6079323.744125842116773, 2102037.576281593646854 ], [ 6079434.513953792862594, 2101803.373157816473395 ], [ 6079521.794474295340478, 2101559.440444324631244 ], [ 6079534.564451495185494, 2101508.459837630391121 ], [ 6079644.552942892536521, 2101387.106238086242229 ], [ 6079798.885122493840754, 2101179.013383065816015 ], [ 6079932.077483894303441, 2100956.795353115070611 ], [ 6080042.847311845049262, 2100722.592229337897152 ], [ 6080130.127832347527146, 2100478.659515846055001 ], [ 6080180.253161145374179, 2100278.547986052464694 ], [ 6080230.772997957654297, 2100232.759474978316575 ], [ 6080404.758692502975464, 2100040.795842838007957 ], [ 6080559.090872104279697, 2099832.702987817581743 ], [ 6080692.283233504742384, 2099610.484957866836339 ], [ 6080803.053061455488205, 2099376.28183408966288 ], [ 6080861.71482496894896, 2099212.333188164979219 ], [ 6080883.127258412539959, 2099188.708208492957056 ], [ 6081037.459438013844192, 2098980.615353472530842 ], [ 6081170.651799414306879, 2098758.397323521785438 ], [ 6081281.4216273650527, 2098524.194199744611979 ], [ 6081368.702147867530584, 2098280.261486252769828 ], [ 6081379.917126840911806, 2098235.48878046264872 ], [ 6081516.000587872229517, 2098085.343818705063313 ], [ 6081670.33276747353375, 2097877.2509636846371 ], [ 6081803.525128873996437, 2097655.032933733891696 ], [ 6081914.294956824742258, 2097420.829809956718236 ], [ 6082001.575477327220142, 2097176.897096464876086 ], [ 6082064.526131259277463, 2096925.583998635644093 ], [ 6082090.664085816591978, 2096749.376222016755491 ], [ 6082139.634902764111757, 2096713.05698887584731 ], [ 6082331.598534904420376, 2096539.071294330758974 ], [ 6082505.584229449741542, 2096347.107662190217525 ], [ 6082659.916409051045775, 2096139.014807170024142 ], [ 6082793.108770451508462, 2095916.796777218813077 ], [ 6082808.977806751616299, 2095883.244518977822736 ], [ 6082852.945960760116577, 2095809.888085758080706 ], [ 6082963.715788710862398, 2095575.684961981372908 ], [ 6083050.996309213340282, 2095331.752248489297926 ], [ 6083098.71216107904911, 2095141.259889808250591 ], [ 6083220.542355523444712, 2095006.840984328882769 ], [ 6083251.006488070823252, 2094965.764856628607959 ], [ 6083252.967408264987171, 2094963.987582162255421 ], [ 6083426.953102810308337, 2094772.023950021713972 ], [ 6083581.28528241161257, 2094563.931095001520589 ], [ 6083611.681528546847403, 2094513.218022095737979 ], [ 6083613.597603079862893, 2094510.63449466205202 ], [ 6083746.78996448032558, 2094288.416464710840955 ], [ 6083857.559792431071401, 2094054.213340934133157 ], [ 6083944.840312933549285, 2093810.280627442058176 ], [ 6083971.323298470117152, 2093704.554622717900202 ], [ 6084131.832172212190926, 2093527.460370947374031 ], [ 6084286.164351813495159, 2093319.367515927180648 ], [ 6084419.356713213957846, 2093097.149485975969583 ], [ 6084439.300201597623527, 2093054.98252259939909 ], [ 6084446.639269785024226, 2093042.738027065526694 ], [ 6084557.409097735770047, 2092808.534903288818896 ], [ 6084644.689618238247931, 2092564.602189796743914 ], [ 6084707.640272170305252, 2092313.289091967511922 ], [ 6084745.654810320585966, 2092057.015892314957455 ], [ 6084757.551991857588291, 2091814.843198712449521 ], [ 6084832.999402822926641, 2091603.981810892000794 ], [ 6084895.950056754983962, 2091352.668713062768802 ], [ 6084933.964594905264676, 2091096.395513410214335 ], [ 6084946.67691649030894, 2090837.630262940190732 ], [ 6084933.964594905264676, 2090578.86501247016713 ], [ 6084895.950056754983962, 2090322.591812817612663 ], [ 6084832.999402822926641, 2090071.278714988380671 ], [ 6084745.718882320448756, 2089827.346001496305689 ], [ 6084634.949054369702935, 2089593.142877719597891 ], [ 6084501.756692969240248, 2089370.924847768386826 ], [ 6084347.424513367936015, 2089162.831992748193443 ], [ 6084173.438818822614849, 2088970.868360607651994 ], [ 6084002.583751893602312, 2088816.014354383572936 ], [ 6083995.696269282139838, 2088788.517982493620366 ], [ 6083908.415748779661953, 2088544.585269001545385 ], [ 6083797.645920828916132, 2088310.382145224837586 ], [ 6083664.453559428453445, 2088088.164115273626521 ], [ 6083510.121379827149212, 2087880.071260253433138 ], [ 6083336.135685281828046, 2087688.107628112891689 ], [ 6083144.172053141519427, 2087514.121933567803353 ], [ 6082936.079198121093214, 2087359.789753966731951 ], [ 6082713.86116817034781, 2087226.597392565803602 ], [ 6082704.743609665893018, 2087222.285108550917357 ], [ 6082701.9758678721264, 2087220.626187961548567 ], [ 6082467.772744094952941, 2087109.856360011268407 ], [ 6082223.84003060311079, 2087022.575839508092031 ], [ 6081972.526932774111629, 2086959.625185576733202 ], [ 6081716.253733121789992, 2086921.610647426685318 ], [ 6081457.488482651300728, 2086908.898325841175392 ], [ 6081198.723232180811465, 2086921.610647426685318 ], [ 6080942.450032528489828, 2086959.625185576733202 ], [ 6080691.136934699490666, 2087022.575839508092031 ], [ 6080447.204221207648516, 2087109.856360011268407 ], [ 6080213.001097430475056, 2087220.626187961548567 ], [ 6079990.783067479729652, 2087353.818549362476915 ], [ 6079782.690212459303439, 2087508.150728963548318 ], [ 6079590.72658031899482, 2087682.136423508636653 ], [ 6079416.740885773673654, 2087874.100055649178103 ], [ 6079262.408706172369421, 2088082.192910669371486 ], [ 6079129.216344771906734, 2088304.410940620582551 ], [ 6079018.446516821160913, 2088538.614064397290349 ], [ 6078931.165996318683028, 2088782.54677788936533 ], [ 6078868.215342386625707, 2089033.859875718597323 ], [ 6078830.200804236344993, 2089290.13307537115179 ], [ 6078817.488482651300728, 2089548.898325841175392 ], [ 6078830.200804236344993, 2089807.663576311198995 ], [ 6078868.215342386625707, 2090063.936775963753462 ], [ 6078931.165996318683028, 2090315.249873792985454 ], [ 6079018.446516821160913, 2090559.182587285060436 ], [ 6079129.216344771906734, 2090793.385711061768234 ], [ 6079262.408706172369421, 2091015.603741012979299 ], [ 6079412.975519866682589, 2091218.619587830267847 ], [ 6079407.29262426123023, 2091234.502217052970082 ], [ 6079371.427813486196101, 2091377.682567628333345 ], [ 6079353.747242471203208, 2091401.522057943744585 ], [ 6079341.659103954210877, 2091412.478108067065477 ], [ 6079167.673409408889711, 2091604.441740207606927 ], [ 6079013.341229807585478, 2091812.53459522780031 ], [ 6078880.148868407122791, 2092034.752625179011375 ], [ 6078868.840429065749049, 2092058.662311306456104 ], [ 6078851.522620766423643, 2092087.555328916292638 ], [ 6078740.752792815677822, 2092321.758452693000436 ], [ 6078653.472272313199937, 2092565.691166185075417 ], [ 6078605.756420447491109, 2092756.183524866122752 ], [ 6078483.926226003095508, 2092890.602430345490575 ], [ 6078329.594046401791275, 2093098.695285365683958 ], [ 6078196.401685001328588, 2093320.913315316895023 ], [ 6078180.532648701220751, 2093354.465573557885364 ], [ 6078136.564494692720473, 2093427.822006777627394 ], [ 6078025.794666741974652, 2093662.025130554335192 ], [ 6077938.514146239496768, 2093905.957844046410173 ], [ 6077875.563492307439446, 2094157.270941875642166 ], [ 6077849.425537750124931, 2094333.478718494530767 ], [ 6077800.454720802605152, 2094369.797951635438949 ], [ 6077608.491088662296534, 2094543.783646180527285 ], [ 6077434.505394116975367, 2094735.747278321068734 ], [ 6077280.173214515671134, 2094943.840133341262117 ], [ 6077146.980853115208447, 2095166.058163292473182 ], [ 6077036.211025164462626, 2095400.26128706918098 ], [ 6076948.930504661984742, 2095644.194000561255962 ], [ 6076937.71552568860352, 2095688.966706351144239 ], [ 6076801.63206465728581, 2095839.111668108962476 ], [ 6076647.299885055981576, 2096047.204523129155859 ], [ 6076514.107523655518889, 2096269.422553080366924 ], [ 6076403.337695704773068, 2096503.625676857074723 ], [ 6076344.675932191312313, 2096667.574322781991214 ], [ 6076323.263498747721314, 2096691.199302454013377 ], [ 6076168.931319146417081, 2096899.292157474206761 ], [ 6076035.738957745954394, 2097121.510187425417826 ], [ 6075924.969129795208573, 2097355.713311202358454 ], [ 6075837.688609292730689, 2097599.646024694200605 ], [ 6075787.563280494883657, 2097799.757554487790912 ], [ 6075737.043443682603538, 2097845.546065561939031 ], [ 6075563.057749137282372, 2098037.509697702247649 ], [ 6075408.725569535978138, 2098245.602552722673863 ], [ 6075275.533208135515451, 2098467.820582673419267 ], [ 6075164.76338018476963, 2098702.023706450592726 ], [ 6075077.482859682291746, 2098945.956419942434877 ], [ 6075064.721023208461702, 2098996.904527037404478 ], [ 6074954.718112828209996, 2099118.274035477545112 ], [ 6074800.385933226905763, 2099326.366890497971326 ], [ 6074667.193571826443076, 2099548.58492044871673 ], [ 6074556.423743875697255, 2099782.788044225890189 ], [ 6074525.575330787338316, 2099869.003583136480302 ], [ 6074448.244718809612095, 2099926.3558737533167 ], [ 6074256.281086669303477, 2100100.341568298637867 ], [ 6074094.92013391200453, 2100278.375944388099015 ], [ 6073957.945528506301343, 2100312.686296919826418 ], [ 6073714.012815014459193, 2100399.966817423235625 ], [ 6073479.809691237285733, 2100510.736645373050123 ], [ 6073257.591661286540329, 2100643.929006773978472 ], [ 6073049.498806266114116, 2100798.261186375282705 ], [ 6072857.535174125805497, 2100972.246880920603871 ], [ 6072828.820684369653463, 2101003.928438205737621 ], [ 6072637.490934508852661, 2101072.387317364104092 ], [ 6072403.287810731679201, 2101183.157145313918591 ], [ 6072181.069780780933797, 2101316.349506714846939 ], [ 6071972.976925760507584, 2101470.681686316151172 ], [ 6071783.164784415625036, 2101642.717383269686252 ], [ 6071644.799010532908142, 2101692.225448799319565 ], [ 6071410.595886755734682, 2101802.995276749134064 ], [ 6071188.377856804989278, 2101936.187638150062412 ], [ 6070980.285001784563065, 2102090.519817751366645 ], [ 6070788.321369644254446, 2102264.505512296687812 ], [ 6070725.218726801685989, 2102334.128549693152308 ], [ 6070693.369908391498029, 2102342.106263402383775 ], [ 6070449.437194899655879, 2102429.386783905792981 ], [ 6070215.234071122482419, 2102540.15661185560748 ], [ 6069993.016041171737015, 2102673.348973256535828 ], [ 6069784.923186151310802, 2102827.681152857840061 ], [ 6069592.959554011002183, 2103001.666847403161228 ], [ 6069470.576322820968926, 2103136.695934901479632 ], [ 6069405.948856798931956, 2103152.884272410534322 ], [ 6069162.016143307089806, 2103240.164792913943529 ], [ 6068927.813019529916346, 2103350.934620863758028 ], [ 6068705.594989579170942, 2103484.126982264686376 ], [ 6068497.502134558744729, 2103638.459161865990609 ], [ 6068305.53850241843611, 2103812.444856411311775 ], [ 6068131.552807873114944, 2104004.408488551620394 ], [ 6068126.679264486767352, 2104010.979701113887131 ], [ 6067930.933710340410471, 2104060.011409942992032 ], [ 6067687.00099684856832, 2104147.291930446401238 ], [ 6067452.797873071394861, 2104258.061758396215737 ], [ 6067230.579843120649457, 2104391.254119797144085 ], [ 6067022.486988100223243, 2104545.586299398448318 ], [ 6066871.57542053796351, 2104682.36457143118605 ], [ 6066738.375535784289241, 2104730.024252274539322 ], [ 6066504.172412007115781, 2104840.79408022435382 ], [ 6066281.954382056370378, 2104973.986441625282168 ], [ 6066073.861527035944164, 2105128.318621226586401 ], [ 6065881.897894895635545, 2105302.304315771907568 ], [ 6065806.978497508913279, 2105384.965132672339678 ], [ 6065790.164761452935636, 2105389.176754306536168 ], [ 6065546.232047961093485, 2105476.457274809945375 ], [ 6065312.028924183920026, 2105587.227102759759873 ], [ 6065089.810894233174622, 2105720.419464160688221 ], [ 6064881.718039212748408, 2105874.751643761992455 ], [ 6064689.75440707243979, 2106048.737338307313621 ], [ 6064515.768712527118623, 2106240.70097044762224 ], [ 6064399.928121708333492, 2106396.89392601326108 ], [ 6064305.899981166236103, 2106410.841683096718043 ], [ 6064054.586883337236941, 2106473.792337028309703 ], [ 6063810.65416984539479, 2106561.07285753171891 ], [ 6063576.451046068221331, 2106671.842685481533408 ], [ 6063354.233016117475927, 2106805.035046882461756 ], [ 6063146.140161097049713, 2106959.36722648376599 ], [ 6062954.176528956741095, 2107133.352921029087156 ], [ 6062826.433211556635797, 2107274.295952316373587 ], [ 6062756.703816318884492, 2107291.762256565503776 ], [ 6062512.771102827042341, 2107379.042777068912983 ], [ 6062278.567979049868882, 2107489.812605018727481 ], [ 6062056.349949099123478, 2107623.00496641965583 ], [ 6061848.257094078697264, 2107777.337146020960063 ], [ 6061656.974109778180718, 2107950.70593732316047 ], [ 6061530.498586778528988, 2107995.959603059105575 ], [ 6061296.295463001355529, 2108106.729431008920074 ], [ 6061074.077433050610125, 2108239.921792409848422 ], [ 6060865.984578030183911, 2108394.253972011152655 ], [ 6060674.020945889875293, 2108568.239666556473821 ], [ 6060574.188043366186321, 2108678.388300474733114 ], [ 6060442.969277251511812, 2108740.450154782738537 ], [ 6060220.751247300766408, 2108873.642516183666885 ], [ 6060012.658392280340195, 2109027.974695784971118 ], [ 6059820.694760140031576, 2109201.960390330292284 ], [ 6059646.70906559471041, 2109393.924022470600903 ], [ 6059492.376885993406177, 2109602.016877491027117 ], [ 6059479.557226619683206, 2109623.405187005642802 ], [ 6059350.169736712239683, 2109669.700771161355078 ], [ 6059115.966612935066223, 2109780.470599111169577 ], [ 6058893.748582984320819, 2109913.662960512097925 ], [ 6058685.655727963894606, 2110067.995140113402158 ], [ 6058493.692095823585987, 2110241.980834658723325 ], [ 6058319.706401278264821, 2110433.944466799031943 ], [ 6058165.374221676960588, 2110642.037321819458157 ], [ 6058110.580146608874202, 2110733.455713133793324 ], [ 6057895.794900009408593, 2110810.307103221304715 ], [ 6057661.591776232235134, 2110921.076931171119213 ], [ 6057439.37374628148973, 2111054.269292572047561 ], [ 6057231.280891261063516, 2111208.601472173351794 ], [ 6057039.317259120754898, 2111382.587166718672961 ], [ 6056865.331564575433731, 2111574.55079885898158 ], [ 6056763.369377314113081, 2111712.03089345805347 ], [ 6056756.386903194710612, 2111712.373920415062457 ], [ 6056500.113703542388976, 2111750.38845856487751 ], [ 6056248.800605713389814, 2111813.33911249646917 ], [ 6056004.867892221547663, 2111900.619632999878377 ], [ 6055770.664768444374204, 2112011.389460949692875 ], [ 6055548.4467384936288, 2112144.581822350621223 ], [ 6055340.353883473202586, 2112298.914001951925457 ], [ 6055148.390251332893968, 2112472.899696497246623 ], [ 6055065.153907822445035, 2112564.736849362961948 ], [ 6054871.806237277574837, 2112656.183487030677497 ], [ 6054649.588207326829433, 2112789.375848431605846 ], [ 6054441.49535230640322, 2112943.708028032910079 ], [ 6054249.531720166094601, 2113117.693722578231245 ], [ 6054075.546025620773435, 2113309.657354718539864 ], [ 6054064.892867083661258, 2113324.021476191468537 ], [ 6054035.845361737534404, 2113356.070459560025483 ], [ 6053881.513182136230171, 2113564.163314580451697 ], [ 6053748.320820735767484, 2113786.381344531197101 ], [ 6053658.075867529958487, 2113977.188266748562455 ], [ 6053603.872561938129365, 2114009.676477849949151 ], [ 6053395.779706917703152, 2114164.008657451253384 ], [ 6053203.816074777394533, 2114337.994351996574551 ], [ 6053172.599313605576754, 2114372.436740342993289 ], [ 6053163.739781511947513, 2114380.466552174650133 ], [ 6052989.754086966626346, 2114572.430184314958751 ], [ 6052835.421907365322113, 2114780.523039335384965 ], [ 6052702.229545964859426, 2115002.741069286130369 ], [ 6052621.867148594930768, 2115172.653082751203328 ], [ 6052542.023587408475578, 2115220.509471629280597 ], [ 6052333.930732388049364, 2115374.84165123058483 ] ] ] } }
]
}
