{
"type": "FeatureCollection",
"name": "at_risk_tier2",
"crs": { "type": "name", "properties": { "name": "urn:ogc:def:crs:OGC:1.3:CRS84" } },
"features": [
{ "type": "Feature", "properties": { "STATEFP": "06", "COUNTYFP": "001", "TRACTCE": "406201", "AFFGEOID": "1400000US06001406201", "GEOID": "06001406201", "NAME": "4062.01", "NAMELSAD": "Census Tract 4062.01", "STUSPS": "CA", "NAMELSADCO": "Alameda County", "STATE_NAME": "California", "LSAD": "CT", "ALAND": 408064, "AWATER": 0, "pop_23": 5191, "white_23": 293, "B19001_001E_x": 1508, "hinc_23": 66518.0, "mhval_23": 763300.0, "mhval_23_se": 125437.0, "mrent_23": 1531.0, "mrent_23_se": 162.0, "total_25_23": 3315, "total_25_col_bd_23": 427, "total_25_col_md_23": 126, "total_25_col_pd_23": 31, "state_x": 6, "county_x": 1, "tract_x": 406201, "total_25_col_phd_23": 10, "tot_units_built_23": 1609, "units_40_49_built_23": 77, "units_39_early_built_23": 668, "ohu_23": 244, "rhu_23": 1264, "mmhcosts_23": 1570.0, "iinc_23": 27347.0, "B19001_001E_y": 1508, "I_10000_23": 115, "I_15000_23": 32, "I_20000_23": 98, "I_25000_23": 69, "I_30000_23": 41, "I_35000_23": 98, "I_40000_23": 20, "I_45000_23": 63, "I_50000_23": 82, "I_60000_23": 11, "I_75000_23": 222, "I_100000_23": 310, "I_125000_23": 106, "I_150000_23": 85, "I_200000_23": 96, "I_201000_23": 60, "mov_wc_w_income_23": 431, "mov_wc_9000_23": 96, "mov_wc_15000_23": 15, "mov_wc_25000_23": 100, "mov_wc_35000_23": 107, "mov_wc_50000_23": 19, "mov_wc_65000_23": 50, "mov_wc_75000_23": 17, "mov_wc_76000_more_23": 27, "mov_oc_w_income_23": 38, "mov_oc_9000_23": 7, "mov_oc_15000_23": 0, "mov_oc_25000_23": 0, "mov_oc_35000_23": 15, "mov_oc_50000_23": 0, "mov_oc_65000_23": 0, "mov_oc_75000_23": 0, "mov_oc_76000_more_23": 16, "mov_os_w_income_23": 30, "mov_os_9000_23": 0, "mov_os_15000_23": 0, "mov_os_25000_23": 0, "mov_os_35000_23": 0, "mov_os_50000_23": 0, "mov_os_65000_23": 0, "mov_os_75000_23": 0, "mov_os_76000_more_23": 30, "mov_fa_w_income_23": 53, "mov_fa_9000_23": 32, "mov_fa_15000_23": 0, "mov_fa_25000_23": 0, "mov_fa_35000_23": 0, "mov_fa_50000_23": 10, "mov_fa_65000_23": 0, "mov_fa_75000_23": 11, "mov_fa_76000_more_23": 0, "FIPS": "06001406201", "mhval_19": 531500.0, "mhval_19_se": 151645.0, "mrent_19": 1091.0, "mrent_19_se": 76.0, "mov_wc_w_income_19": 379, "mov_wc_9000_19": 94, "mov_wc_15000_19": 37, "mov_wc_25000_19": 1, "mov_wc_35000_19": 130, "mov_wc_50000_19": 79, "mov_wc_65000_19": 20, "mov_wc_75000_19": 18, "state_y": 6, "county_y": 1, "tract_y": 406201, "mov_wc_76000_more_19": 0, "mov_oc_w_income_19": 135, "mov_oc_9000_19": 62, "mov_oc_15000_19": 0, "mov_oc_25000_19": 23, "mov_oc_35000_19": 29, "mov_oc_50000_19": 21, "mov_oc_65000_19": 0, "mov_oc_75000_19": 0, "mov_oc_76000_more_19": 0, "mov_os_w_income_19": 44, "mov_os_9000_19": 0, "mov_os_15000_19": 0, "mov_os_25000_19": 0, "mov_os_35000_19": 12, "mov_os_50000_19": 0, "mov_os_65000_19": 0, "mov_os_75000_19": 8, "mov_os_76000_more_19": 24, "mov_fa_w_income_19": 18, "mov_fa_9000_19": 0, "mov_fa_15000_19": 0, "mov_fa_25000_19": 0, "mov_fa_35000_19": 0, "mov_fa_50000_19": 9, "mov_fa_65000_19": 0, "mov_fa_75000_19": 0, "mov_fa_76000_more_19": 9, "iinc_19": 24005.0, "pct_renter": 0.8381962864721485, "pct_nonwhite": 0.94355615488345213, "pct_college": 0.17918552036199095, "rent_growth": 0.40329972502291478, "val_growth": 0.43612417685794919, "is_low_income": true, "high_renter": true, "low_education": true, "high_market_pressure": true, "at_risk_displacement": "At Risk", "stop_name": "31st  Avenue", "stop_id": "65857", "stop_desc": "Westbound", "route_info": { "route_id": [ "SC:Rapid 522" ], "route_type": [ "3" ] }, "stop_name_clean": "31st  Avenue", "access_id": " ", "station_id": "52594", "acces_poin": "Pedestrian Access Point", "location_t": "2", "stop_lat": 37.77813, "stop_lon": -122.22693, "stop_name_": "Market St & 9th St", "stop_id_12": "15652", "stop_code": "18089", "zone_id": null, "stop_url": "https://www.sfmta.com/18089", "tts_stop_n": null, "platform_c": null, "parent_sta": "15652", "stop_timez": "America/Los_Angeles", "wheelchair": "0", "level_id": null }, "geometry": { "type": "MultiPolygon", "coordinates": [ [ [ [ -122.451256641018404, 37.709284405613538 ], [ -122.449309, 37.709946 ], [ -122.448377, 37.710373 ], [ -122.447347666850646, 37.710921887624259 ], [ -122.446091, 37.711592 ], [ -122.444571, 37.712783 ], [ -122.443706, 37.713592 ], [ -122.443106411569531, 37.714160449583808 ], [ -122.441896, 37.715308 ], [ -122.441267450851186, 37.716134853952745 ], [ -122.441220014666797, 37.716197256068213 ], [ -122.440999, 37.716488 ], [ -122.440418, 37.717245 ], [ -122.439046651363455, 37.716741928154391 ], [ -122.439075660141242, 37.716701610404108 ], [ -122.439395426739082, 37.716343846103221 ], [ -122.439417030449889, 37.716313819513005 ], [ -122.43951688009804, 37.716136708620738 ], [ -122.439961331037054, 37.715518966494706 ], [ -122.440479854964977, 37.714938803478042 ], [ -122.441067457384662, 37.714401805926876 ], [ -122.441718479014014, 37.713913144444682 ], [ -122.441721439509678, 37.713911323342792 ], [ -122.441916646538914, 37.713447817730135 ], [ -122.442282702311616, 37.71279843589992 ], [ -122.442727110312916, 37.712180683012043 ], [ -122.443245589375735, 37.711600507514873 ], [ -122.44373621672851, 37.711152086312502 ], [ -122.443833145434922, 37.711063495884702 ], [ -122.443942950481627, 37.710981066808664 ], [ -122.444105784312384, 37.710692176719654 ], [ -122.444550164576086, 37.710074416748746 ], [ -122.44506861472469, 37.709494233035031 ], [ -122.445656140971508, 37.70895721213391 ], [ -122.446307084767781, 37.708468524873723 ], [ -122.446696793682278, 37.708228759578525 ], [ -122.449751, 37.708213 ], [ -122.4523, 37.708138 ], [ -122.45247, 37.708148 ], [ -122.454356, 37.708232 ], [ -122.452665, 37.708806 ], [ -122.452174164229234, 37.708972732055628 ], [ -122.451371383092422, 37.709245428866105 ], [ -122.451256641018404, 37.709284405613538 ] ] ], [ [ [ -122.477573415355366, 37.710252740044389 ], [ -122.47804998588191, 37.710855166110264 ], [ -122.478101506240023, 37.710937174674754 ], [ -122.478670396282226, 37.711415119161323 ], [ -122.479219014937513, 37.71197752869616 ], [ -122.479695609854346, 37.712579947940206 ], [ -122.479938315150349, 37.712966249641994 ], [ -122.480231576263947, 37.713336925170687 ], [ -122.480631565145444, 37.713973551489659 ], [ -122.480951085174453, 37.714638256852716 ], [ -122.480973414657186, 37.714703207697198 ], [ -122.4806783195816, 37.714694989769193 ], [ -122.477016, 37.714593 ], [ -122.472649468600366, 37.712978661974645 ], [ -122.472269, 37.712838 ], [ -122.471719482190494, 37.712816355972492 ], [ -122.471355, 37.712802 ], [ -122.471291655165601, 37.711054135033827 ], [ -122.471261818812678, 37.710230864809887 ], [ -122.471242462253485, 37.709696762037204 ], [ -122.471242113122472, 37.709687128515021 ], [ -122.471215, 37.708939 ], [ -122.471329, 37.708233 ], [ -122.472107542662002, 37.708226700152743 ], [ -122.474804163411193, 37.708204879513168 ], [ -122.475002896692715, 37.70829504189215 ], [ -122.475733343829859, 37.708706738369798 ], [ -122.476409489323743, 37.709173329487022 ], [ -122.477024821875276, 37.709690322692758 ], [ -122.477573415355366, 37.710252740044389 ] ] ], [ [ [ -122.456822769665337, 37.720026129614766 ], [ -122.456921909245622, 37.720026040726921 ], [ -122.457522578667351, 37.720025502170948 ], [ -122.457533077142628, 37.72002549275809 ], [ -122.459198, 37.720024 ], [ -122.459197406082438, 37.719927137445232 ], [ -122.459196933296539, 37.719850030363204 ], [ -122.45919048997122, 37.718799182579247 ], [ -122.459187, 37.71823 ], [ -122.45928881300064, 37.718229667060164 ], [ -122.459491033453475, 37.718229005776799 ], [ -122.45973935807767, 37.718228193727668 ], [ -122.462174237989544, 37.718220231399641 ], [ -122.462245, 37.71822 ], [ -122.462257711069952, 37.720462232739102 ], [ -122.462262000664879, 37.721218917284908 ], [ -122.462265, 37.721748 ], [ -122.462268397428531, 37.722468821085627 ], [ -122.462271, 37.723021 ], [ -122.462199, 37.725293 ], [ -122.461202, 37.724974 ], [ -122.459213, 37.724563 ], [ -122.458191, 37.724344 ], [ -122.455444913618763, 37.723764114672939 ], [ -122.455370994813464, 37.723748505393168 ], [ -122.455030998291122, 37.723676709037491 ], [ -122.453105, 37.72327 ], [ -122.452335, 37.72318 ], [ -122.45223413303215, 37.723159935799359 ], [ -122.451596, 37.723033 ], [ -122.450891600248312, 37.723025440588032 ], [ -122.449546, 37.723011 ], [ -122.45021326932671, 37.721954490232704 ], [ -122.451646, 37.719686 ], [ -122.452506, 37.72003 ], [ -122.452676172946639, 37.720029847424136 ], [ -122.452751560880287, 37.720029779831847 ], [ -122.453186209280929, 37.720029390129156 ], [ -122.454412203791534, 37.720028290911124 ], [ -122.455887369219894, 37.720026968288209 ], [ -122.456403807825097, 37.720026505252996 ], [ -122.456746983519665, 37.720026197564088 ], [ -122.456822769665337, 37.720026129614766 ] ] ], [ [ [ -122.483401715469768, 37.724371448184485 ], [ -122.483602349676957, 37.724788739314143 ], [ -122.483838378532084, 37.725475116472239 ], [ -122.48398857362389, 37.726176564012967 ], [ -122.484051486119625, 37.726886326938974 ], [ -122.484026507649048, 37.727597569983303 ], [ -122.483913876258995, 37.72830344343155 ], [ -122.483714674217282, 37.728997149090453 ], [ -122.483430817683427, 37.729672005767654 ], [ -122.483350416740166, 37.7298147722911 ], [ -122.483455551320333, 37.730305765616116 ], [ -122.483518462221241, 37.731015528348273 ], [ -122.483516701332903, 37.731065655248749 ], [ -122.482443898427661, 37.731137557222823 ], [ -122.48193, 37.731172 ], [ -122.480989159890242, 37.73116020879236 ], [ -122.480015, 37.731148 ], [ -122.478510681374885, 37.731125329324705 ], [ -122.476318034922386, 37.731092285277434 ], [ -122.474972, 37.731072 ], [ -122.474857, 37.72901 ], [ -122.474999, 37.726925 ], [ -122.475168754414909, 37.724097198348126 ], [ -122.475245418627267, 37.72282011117229 ], [ -122.475353, 37.721028 ], [ -122.476074, 37.720755 ], [ -122.478988, 37.720844 ], [ -122.479891522988609, 37.720876248111765 ], [ -122.480557, 37.7209 ], [ -122.483932974298895, 37.723307475387578 ], [ -122.483732682638802, 37.723783703468236 ], [ -122.483401715469768, 37.724371448184485 ] ] ], [ [ [ -122.499139, 37.734404 ], [ -122.498567552734087, 37.734238307965875 ], [ -122.497487, 37.733925 ], [ -122.497164343462586, 37.733900879413781 ], [ -122.496728989387336, 37.733868333984539 ], [ -122.496564, 37.733856 ], [ -122.498107, 37.732268 ], [ -122.497700608909099, 37.731162541665583 ], [ -122.497759148605908, 37.731108990144968 ], [ -122.498409943736533, 37.730620016777451 ], [ -122.499117941815129, 37.730184056914538 ], [ -122.499876325059489, 37.729805308133265 ], [ -122.500677790913571, 37.729487417102824 ], [ -122.501514622333076, 37.729233444499393 ], [ -122.502378762047016, 37.729045835560541 ], [ -122.50326189008139, 37.72892639656132 ], [ -122.504155503802252, 37.728876277438268 ], [ -122.505050999709354, 37.728895960727428 ], [ -122.505939756197094, 37.728985256922442 ], [ -122.50681321648878, 37.729143306297694 ], [ -122.50700091348638, 37.729193067841052 ], [ -122.507583000809532, 37.735330999022871 ], [ -122.507597602962647, 37.735486754497664 ], [ -122.506796, 37.735559 ], [ -122.506135, 37.735571 ], [ -122.502031, 37.735515 ], [ -122.501041, 37.7353 ], [ -122.500841890517037, 37.735206202893416 ], [ -122.500131877951645, 37.734871727994047 ], [ -122.500047360646846, 37.734831913322594 ], [ -122.499917741630227, 37.734770851998256 ], [ -122.499781311547281, 37.734706582095882 ], [ -122.499139, 37.734404 ] ] ], [ [ [ -122.485714065224343, 37.749697457738122 ], [ -122.485083320337878, 37.749834262602747 ], [ -122.48419991462066, 37.749953564934252 ], [ -122.483306033992378, 37.750003532535914 ], [ -122.482410289502411, 37.749983684054257 ], [ -122.482146168349715, 37.749957100976687 ], [ -122.482071441105461, 37.749973306794686 ], [ -122.481188028900249, 37.750092586548512 ], [ -122.480294144574941, 37.750142531306444 ], [ -122.480289438321108, 37.750142426919901 ], [ -122.480077286453081, 37.750154279647525 ], [ -122.479410062209396, 37.750139476602278 ], [ -122.479408129557882, 37.750111765352933 ], [ -122.479392862431368, 37.749892858246682 ], [ -122.479355233514809, 37.749353317473869 ], [ -122.479316725374275, 37.748801169981924 ], [ -122.479296, 37.748504 ], [ -122.481950582943782, 37.748386770711235 ], [ -122.485727, 37.74822 ], [ -122.485751951932357, 37.74857796426037 ], [ -122.485786375040163, 37.749071803460858 ], [ -122.485831304940234, 37.749716374719576 ], [ -122.485802560335983, 37.749713482706902 ], [ -122.485714065224343, 37.749697457738122 ] ] ], [ [ [ -122.493027741674283, 37.755382012795764 ], [ -122.492675, 37.755398 ], [ -122.486886988657389, 37.755654664576419 ], [ -122.486248, 37.755683 ], [ -122.484104, 37.755777 ], [ -122.483407480173, 37.755807707312179 ], [ -122.479817, 37.755966 ], [ -122.478279366172131, 37.756033871931479 ], [ -122.4766, 37.756108 ], [ -122.47652332059657, 37.754939969250657 ], [ -122.476490730412266, 37.754443534279915 ], [ -122.476980899871805, 37.754416165821588 ], [ -122.477168633156211, 37.754420334703966 ], [ -122.477794937530547, 37.754385360115663 ], [ -122.478048545458975, 37.754390989324015 ], [ -122.478169368273882, 37.754374680724915 ], [ -122.47906330494034, 37.754324752117398 ], [ -122.479179494200594, 37.754327330248017 ], [ -122.479941726341679, 37.754284751506994 ], [ -122.480837522021829, 37.754304618734807 ], [ -122.480945503694173, 37.75431548678047 ], [ -122.481021528922454, 37.754311239310489 ], [ -122.481483174477475, 37.754321473589243 ], [ -122.481566858614627, 37.754303327485133 ], [ -122.482450320273642, 37.754184044977272 ], [ -122.483344251768898, 37.754134083900865 ], [ -122.484240046541629, 37.754153925270252 ], [ -122.484488601160635, 37.75417893434097 ], [ -122.484593762875036, 37.754164733730725 ], [ -122.484829688364627, 37.75415154440438 ], [ -122.485663413076864, 37.754038953445836 ], [ -122.486131763080337, 37.75401276487738 ], [ -122.486557340665456, 37.753988967999753 ], [ -122.486705424504095, 37.753992244413645 ], [ -122.487402827269747, 37.753953242345922 ], [ -122.488207390918987, 37.753971035314116 ], [ -122.488677585955898, 37.753907525103592 ], [ -122.489571509935075, 37.753857516796629 ], [ -122.490467303034166, 37.753877310840203 ], [ -122.490978206502305, 37.753928689697986 ], [ -122.491207647256928, 37.753878917211878 ], [ -122.492091088388236, 37.75375956243564 ], [ -122.492985008289253, 37.75370952823917 ], [ -122.493880800512798, 37.75372929634085 ], [ -122.49404714603007, 37.753746019968197 ], [ -122.494856285269677, 37.753636683820318 ], [ -122.495320572957368, 37.753610685869653 ], [ -122.495341639058012, 37.753922163214853 ], [ -122.495360230923694, 37.754197057228986 ], [ -122.495433, 37.755273 ], [ -122.495192409891644, 37.75528390419273 ], [ -122.494764416715071, 37.755303301998048 ], [ -122.493216160188808, 37.755373473160404 ], [ -122.493045574990006, 37.755381204541784 ], [ -122.493027741674283, 37.755382012795764 ] ] ], [ [ [ -122.505647303202579, 37.753220733587959 ], [ -122.506234257345881, 37.753233623316341 ], [ -122.506338121338857, 37.75321107761031 ], [ -122.507221530214082, 37.753091609416884 ], [ -122.508115431878807, 37.753041460465198 ], [ -122.509011220061325, 37.753061113578397 ], [ -122.509900270342925, 37.753150379540742 ], [ -122.510582405072952, 37.753273745145911 ], [ -122.511183003278958, 37.759729999820976 ], [ -122.511782972708346, 37.763729798933532 ], [ -122.510872532263704, 37.763952821554028 ], [ -122.510435, 37.76406 ], [ -122.50987, 37.76409 ], [ -122.509411, 37.764088 ], [ -122.507476662638467, 37.764164988551705 ], [ -122.502979, 37.764344 ], [ -122.502844, 37.762427 ], [ -122.502713, 37.760567 ], [ -122.502582, 37.7587 ], [ -122.50245, 37.756835 ], [ -122.50234436570274, 37.755328911004234 ], [ -122.502318, 37.754953 ], [ -122.502299683958412, 37.754686624182618 ], [ -122.502239433407269, 37.753810381915244 ], [ -122.502238236267303, 37.753792971541046 ], [ -122.50220467861439, 37.753304932289559 ], [ -122.502635432890088, 37.75328078666562 ], [ -122.503531222507135, 37.753300481425903 ], [ -122.504106769270308, 37.753358296759494 ], [ -122.504753397715845, 37.753270863819857 ], [ -122.505647303202579, 37.753220733587959 ] ] ], [ [ [ -122.458466752532743, 37.775653108314039 ], [ -122.458505, 37.77619 ], [ -122.458878, 37.781326 ], [ -122.458065355242056, 37.781364832674917 ], [ -122.456304, 37.781449 ], [ -122.455877667951555, 37.781489660563636 ], [ -122.454186, 37.781651 ], [ -122.453385, 37.777827 ], [ -122.453691918248467, 37.777788802750734 ], [ -122.455217, 37.777599 ], [ -122.454683, 37.774755 ], [ -122.45751789101098, 37.774412168820255 ], [ -122.457525323500178, 37.77441126998886 ], [ -122.458371, 37.774309 ], [ -122.45838978594432, 37.7745727041885 ], [ -122.458466752532743, 37.775653108314039 ] ] ], [ [ [ -122.488876, 37.777972 ], [ -122.489019, 37.779977 ], [ -122.483667, 37.780207 ], [ -122.482623836522279, 37.780263598205529 ], [ -122.482598, 37.780265 ], [ -122.479388, 37.780403 ], [ -122.479241, 37.778408 ], [ -122.479106, 37.776546 ], [ -122.479829166851999, 37.776513128779456 ], [ -122.481999890862681, 37.776414459506242 ], [ -122.482318, 37.7764 ], [ -122.488741, 37.776107 ], [ -122.488876, 37.777972 ] ] ], [ [ [ -122.425194680470455, 37.7303464484771 ], [ -122.425479068268899, 37.729671732298385 ], [ -122.425845347541298, 37.72902240325142 ], [ -122.426093138857937, 37.728678175376487 ], [ -122.43039, 37.728547 ], [ -122.430906749727882, 37.728651607522345 ], [ -122.431294, 37.72873 ], [ -122.430888796483359, 37.729152595813702 ], [ -122.430199, 37.729872 ], [ -122.429304, 37.730742 ], [ -122.428038, 37.732016 ], [ -122.425563, 37.731579 ], [ -122.424900272207637, 37.731630241137147 ], [ -122.424994924962718, 37.731040054495466 ], [ -122.425194680470455, 37.7303464484771 ] ] ], [ [ [ -122.427443237648006, 37.772488633028303 ], [ -122.427719827064209, 37.77245349188059 ], [ -122.427938202721407, 37.772425746888281 ], [ -122.428046213710914, 37.7724120239115 ], [ -122.428098557109521, 37.772405373595198 ], [ -122.428180038529931, 37.77239502124452 ], [ -122.428802, 37.772316 ], [ -122.42899, 37.773248 ], [ -122.430825, 37.773973 ], [ -122.431003196870947, 37.773949558755099 ], [ -122.432467, 37.773757 ], [ -122.432690241822314, 37.774865193780172 ], [ -122.432951196022074, 37.776160595412783 ], [ -122.432970335247546, 37.776255604360522 ], [ -122.433039025591384, 37.776596589804072 ], [ -122.432837028220391, 37.776592030442913 ], [ -122.432016001436708, 37.776509075522917 ], [ -122.431814688503309, 37.776552625491654 ], [ -122.430930879626118, 37.776671527988263 ], [ -122.43056701124101, 37.776691695487777 ], [ -122.430371986140585, 37.776717932060812 ], [ -122.430264876840695, 37.776723868107553 ], [ -122.429797248349615, 37.777011199535792 ], [ -122.429552221430001, 37.777133288090887 ], [ -122.429373143466151, 37.777333434751853 ], [ -122.430034402418684, 37.777190402339997 ], [ -122.430918218904537, 37.777071506574266 ], [ -122.431812460363673, 37.777021936527795 ], [ -122.432708517254184, 37.777042169450226 ], [ -122.433137517208991, 37.777085511623902 ], [ -122.433158715078079, 37.777190739875635 ], [ -122.433219, 37.77749 ], [ -122.431575, 37.7777 ], [ -122.430668910839657, 37.77781505020323 ], [ -122.429929, 37.777909 ], [ -122.428631598225053, 37.778074726504101 ], [ -122.427779799825785, 37.778183532868972 ], [ -122.427710106324966, 37.778192435323454 ], [ -122.427616593860066, 37.778204380346345 ], [ -122.427615717034854, 37.778204492349566 ], [ -122.42761209681845, 37.77820495478597 ], [ -122.427256129649237, 37.77825042504481 ], [ -122.427020689503991, 37.778280499515915 ], [ -122.426641, 37.778329 ], [ -122.426601212798388, 37.778132695420624 ], [ -122.426459017855805, 37.777431125135131 ], [ -122.426394052183653, 37.777110593445805 ], [ -122.426263, 37.776464 ], [ -122.426240100550913, 37.776350113406536 ], [ -122.425888, 37.774599 ], [ -122.425666357212322, 37.774627616486598 ], [ -122.425000966521708, 37.774713525637878 ], [ -122.424923810110116, 37.774723487367027 ], [ -122.424246, 37.774811 ], [ -122.423767738396322, 37.774871773573949 ], [ -122.423731997618802, 37.774876315219714 ], [ -122.42323901178095, 37.774938959828937 ], [ -122.422793660408715, 37.77499555143978 ], [ -122.422391402299169, 37.775046667111155 ], [ -122.422360332178982, 37.775050615247977 ], [ -122.421848411906353, 37.775115665890354 ], [ -122.420094346567879, 37.775338558170937 ], [ -122.419359, 37.775432 ], [ -122.419334, 37.77521 ], [ -122.419612410787622, 37.774985377551786 ], [ -122.420802298302419, 37.774025373634686 ], [ -122.42153398961149, 37.773435043444579 ], [ -122.421947155350196, 37.77310170039943 ], [ -122.422186, 37.772909 ], [ -122.422217194261975, 37.772879818271051 ], [ -122.42262, 37.772503 ], [ -122.422645873783637, 37.772485123567662 ], [ -122.422937576914904, 37.772283583222425 ], [ -122.423665, 37.771781 ], [ -122.424929, 37.770778 ], [ -122.425065101017836, 37.771234627085541 ], [ -122.42533651886724, 37.7721452502647 ], [ -122.425512, 37.772734 ], [ -122.426315282061921, 37.772631941671158 ], [ -122.427318728581582, 37.772504452113338 ], [ -122.427429233201579, 37.772490412316635 ], [ -122.427443237648006, 37.772488633028303 ] ] ], [ [ [ -122.434130427588826, 37.785976035849977 ], [ -122.431847065387529, 37.786266063884682 ], [ -122.431635, 37.786293 ], [ -122.430900435800908, 37.786386518327866 ], [ -122.429225247631692, 37.786599788722249 ], [ -122.428642354411025, 37.786673997619694 ], [ -122.428336, 37.786713 ], [ -122.426683826124616, 37.786922472941939 ], [ -122.426115584077536, 37.786994518224283 ], [ -122.425393393236689, 37.787086082097993 ], [ -122.425047, 37.78713 ], [ -122.42501142743302, 37.786954207526122 ], [ -122.424917018964138, 37.78648765985448 ], [ -122.424910796252107, 37.786456908462782 ], [ -122.424858, 37.786196 ], [ -122.424801586815747, 37.785911003523694 ], [ -122.424704, 37.785418 ], [ -122.425500172083133, 37.785331276263257 ], [ -122.426249024994604, 37.78524970680845 ], [ -122.426382740826426, 37.785235141695154 ], [ -122.426419310780602, 37.785231158281086 ], [ -122.426548014802322, 37.785217139083557 ], [ -122.426726616443119, 37.785197684744467 ], [ -122.426884213474082, 37.785180518350778 ], [ -122.426968375308888, 37.78517135094971 ], [ -122.427087445174209, 37.785158381161054 ], [ -122.427456985841616, 37.785118128622393 ], [ -122.428009, 37.785058 ], [ -122.428732515969671, 37.784961663473872 ], [ -122.430388799036862, 37.78474112852556 ], [ -122.430415699232512, 37.784737546750577 ], [ -122.431291, 37.784621 ], [ -122.434251698273343, 37.78419649144292 ], [ -122.434562, 37.784152 ], [ -122.43722578020548, 37.783860686866348 ], [ -122.437863, 37.783791 ], [ -122.438901, 37.78345 ], [ -122.439862044033859, 37.783332235842359 ], [ -122.442223078255395, 37.783042920060289 ], [ -122.44281, 37.782971 ], [ -122.443183, 37.784827 ], [ -122.441567403430753, 37.785032155119907 ], [ -122.438206, 37.785459 ], [ -122.436557, 37.785668 ], [ -122.434918, 37.785876 ], [ -122.434511373335397, 37.785927648894045 ], [ -122.434130427588826, 37.785976035849977 ] ] ], [ [ [ -122.420812, 37.753703 ], [ -122.420964, 37.755295 ], [ -122.418748, 37.755437 ], [ -122.418615057915602, 37.755444985058716 ], [ -122.418478847610032, 37.755453166420487 ], [ -122.416567, 37.755568 ], [ -122.416413, 37.753968 ], [ -122.416197201061195, 37.751706002598915 ], [ -122.416108, 37.750771 ], [ -122.41587, 37.748267 ], [ -122.417102447194452, 37.748233234323436 ], [ -122.417943836629249, 37.748210182558097 ], [ -122.418206, 37.748203 ], [ -122.419396983455187, 37.748178904958998 ], [ -122.420282, 37.748161 ], [ -122.420480581451031, 37.750230660011809 ], [ -122.420507, 37.750506 ], [ -122.420518532093368, 37.750622634716407 ], [ -122.420562886220523, 37.751071228989794 ], [ -122.420581231123577, 37.751256767946003 ], [ -122.420665, 37.752104 ], [ -122.420665374121128, 37.752108069521647 ], [ -122.420679133882629, 37.752257742029393 ], [ -122.420696767496551, 37.752449552564492 ], [ -122.420712642940856, 37.752622238519926 ], [ -122.420745996220646, 37.752985040522582 ], [ -122.420806221638571, 37.753640145578693 ], [ -122.420812, 37.753703 ] ] ], [ [ [ -122.421083328107045, 37.78388718080982 ], [ -122.421105325435363, 37.783996461654795 ], [ -122.421120591341875, 37.784072301372142 ], [ -122.421149494401945, 37.784215889301606 ], [ -122.421167467635172, 37.784305178786454 ], [ -122.421256, 37.784745 ], [ -122.421675, 37.786605 ], [ -122.421044288042538, 37.786685508738707 ], [ -122.419928, 37.786828 ], [ -122.419349516669328, 37.786901314121572 ], [ -122.418271, 37.787038 ], [ -122.418128928038612, 37.786316791061466 ], [ -122.418124036944079, 37.786291962087049 ], [ -122.41806817824137, 37.786008402999805 ], [ -122.418042165835246, 37.785876354567293 ], [ -122.417996, 37.785642 ], [ -122.417988811978788, 37.785606059893937 ], [ -122.417961830842358, 37.785471154211798 ], [ -122.417946046905087, 37.785392234525446 ], [ -122.417901, 37.785167 ], [ -122.4178778804784, 37.785056050130891 ], [ -122.417872151027041, 37.785028554671015 ], [ -122.417822841417703, 37.784791919380879 ], [ -122.417811348608154, 37.784736765743276 ], [ -122.417807951167333, 37.784720461529879 ], [ -122.417707, 37.784236 ], [ -122.419206102764633, 37.784048725243039 ], [ -122.41932258540119, 37.784034173700633 ], [ -122.419364, 37.784029 ], [ -122.420214278788364, 37.783922777488606 ], [ -122.420514670591572, 37.783885250536066 ], [ -122.420586108169601, 37.783876326076175 ], [ -122.420601818137158, 37.783874363481985 ], [ -122.420603893333464, 37.783874104234584 ], [ -122.420672085940396, 37.783865585158182 ], [ -122.420752403806333, 37.783855551313344 ], [ -122.420876992946461, 37.783839986804928 ], [ -122.420970831508086, 37.783828263864386 ], [ -122.421069, 37.783816 ], [ -122.421083328107045, 37.78388718080982 ] ] ], [ [ [ -122.415598579652354, 37.790451276591803 ], [ -122.4156129546692, 37.790522925890421 ], [ -122.415635225205307, 37.79063392877196 ], [ -122.41575, 37.791206 ], [ -122.415786179722573, 37.791386315068934 ], [ -122.415936, 37.792133 ], [ -122.416019358558131, 37.792547908981405 ], [ -122.416113, 37.793014 ], [ -122.416247466544661, 37.793673562157601 ], [ -122.416292, 37.793892 ], [ -122.415886527158079, 37.793943722327136 ], [ -122.415676116602427, 37.793970562407324 ], [ -122.415631446990645, 37.793976260486296 ], [ -122.415235995259621, 37.794026704515304 ], [ -122.415218, 37.794029 ], [ -122.415129913745318, 37.794040947869654 ], [ -122.41409, 37.794182 ], [ -122.414071411680268, 37.79418435252029 ], [ -122.414040267702362, 37.794188294072882 ], [ -122.414024210784305, 37.794190326221354 ], [ -122.413850133953957, 37.794212357221525 ], [ -122.412443854376548, 37.794390334644206 ], [ -122.411364, 37.794527 ], [ -122.411416069707641, 37.794785306588849 ], [ -122.411430122843882, 37.794855021166683 ], [ -122.411517, 37.795286 ], [ -122.411542, 37.795409 ], [ -122.411630469349774, 37.795849847268336 ], [ -122.411675525798003, 37.796074365840852 ], [ -122.411711362408766, 37.796252941494494 ], [ -122.411719, 37.796291 ], [ -122.409230176815541, 37.796603616780772 ], [ -122.409131449080704, 37.796616017800993 ], [ -122.408431, 37.796704 ], [ -122.408253, 37.795824 ], [ -122.40817258927359, 37.795418729938916 ], [ -122.408137151777083, 37.7952401249565 ], [ -122.40804241763486, 37.794762664879684 ], [ -122.408029087503493, 37.794695481017605 ], [ -122.408026594503895, 37.7946829162996 ], [ -122.408017544201812, 37.794637302777119 ], [ -122.408013422494321, 37.794616529371375 ], [ -122.407980510064647, 37.794450650725814 ], [ -122.407962301761472, 37.794358880877809 ], [ -122.407920042688986, 37.794145895152496 ], [ -122.407903, 37.79406 ], [ -122.407812370046713, 37.794071569781273 ], [ -122.406305, 37.794264 ], [ -122.406222309772318, 37.794274356827721 ], [ -122.406205582074449, 37.794276451946935 ], [ -122.406122301575124, 37.7942868827053 ], [ -122.40556794720699, 37.794356314763334 ], [ -122.404796, 37.794453 ], [ -122.404752146518021, 37.794240202775981 ], [ -122.404613, 37.793565 ], [ -122.403756550047348, 37.793674588198918 ], [ -122.403616090167645, 37.793692560930644 ], [ -122.402040589606599, 37.79389415621165 ], [ -122.401922797657235, 37.793909228438039 ], [ -122.401315, 37.793987 ], [ -122.400171179902486, 37.794131203734423 ], [ -122.400149, 37.794134 ], [ -122.399293035790038, 37.794243067569838 ], [ -122.399229769434641, 37.794251129013944 ], [ -122.399093293821892, 37.79426851883381 ], [ -122.398313822864537, 37.794367839578868 ], [ -122.397814141214539, 37.794431509370924 ], [ -122.396973936954325, 37.794538568796725 ], [ -122.396586, 37.794588 ], [ -122.396315, 37.793337 ], [ -122.396571971284828, 37.793130360916514 ], [ -122.396912403562297, 37.792856608096805 ], [ -122.397022712573815, 37.792767904983322 ], [ -122.397310200310955, 37.79253672661428 ], [ -122.397428, 37.792442 ], [ -122.39758443790663, 37.792319470253105 ], [ -122.398151422038339, 37.791875380814339 ], [ -122.3986707673605, 37.791468604399022 ], [ -122.39873194193035, 37.791420689512393 ], [ -122.398756766313866, 37.79140124585264 ], [ -122.398828579635989, 37.791344998179852 ], [ -122.398964388511104, 37.791238626089779 ], [ -122.398969144427568, 37.791234901025618 ], [ -122.398984241492059, 37.79122307627334 ], [ -122.399008577030131, 37.791204015501016 ], [ -122.399060821576029, 37.791163095041753 ], [ -122.399195, 37.791058 ], [ -122.399313930319664, 37.790963103628037 ], [ -122.399389065315702, 37.790903152233376 ], [ -122.400034737890863, 37.790387959933938 ], [ -122.400182571206244, 37.790270001407251 ], [ -122.400378896658125, 37.790113350242429 ], [ -122.400623642396923, 37.78991806376937 ], [ -122.401087150798674, 37.789548223128016 ], [ -122.401088347894955, 37.78954726794607 ], [ -122.401402, 37.789297 ], [ -122.401489621930139, 37.789228328050783 ], [ -122.401516156352315, 37.789207532223877 ], [ -122.401602371228506, 37.789139963025285 ], [ -122.401714079012024, 37.789052414266372 ], [ -122.401820600481457, 37.788968930178228 ], [ -122.401931438365125, 37.788882063186058 ], [ -122.401991762569779, 37.78883478528757 ], [ -122.402914, 37.788112 ], [ -122.403206064123367, 37.787930941798059 ], [ -122.403210132674758, 37.787928419596462 ], [ -122.403231590063939, 37.787915117598736 ], [ -122.403289748260079, 37.78787906380925 ], [ -122.403456, 37.787776 ], [ -122.403793556805553, 37.787514242663605 ], [ -122.403827333132057, 37.787488050920132 ], [ -122.403915042925973, 37.787420036643262 ], [ -122.404360390117461, 37.787074693599664 ], [ -122.404743, 37.786778 ], [ -122.405882780088547, 37.785895728983768 ], [ -122.406062, 37.785757 ], [ -122.40617863976486, 37.785660178078558 ], [ -122.406178866840918, 37.785659989584182 ], [ -122.406180732711121, 37.785658440737279 ], [ -122.406194244273607, 37.785647224875838 ], [ -122.406224106382609, 37.785622436530488 ], [ -122.407014314158815, 37.784966490118705 ], [ -122.407451, 37.784604 ], [ -122.407665090850301, 37.784686342634735 ], [ -122.407698, 37.784699 ], [ -122.40770165537802, 37.78471770138561 ], [ -122.407756247346057, 37.784997000938212 ], [ -122.407775870306352, 37.785097394535057 ], [ -122.407853, 37.785492 ], [ -122.408055592983089, 37.786503339838013 ], [ -122.408137916390473, 37.786914296526767 ], [ -122.408227, 37.787359 ], [ -122.408290532009573, 37.787698079411101 ], [ -122.408402, 37.788293 ], [ -122.408595, 37.789226 ], [ -122.408653226750445, 37.789510731858137 ], [ -122.408675818287236, 37.789621205655877 ], [ -122.408786, 37.79016 ], [ -122.410101995690766, 37.789992000550114 ], [ -122.410114903357112, 37.789990352762921 ], [ -122.410633762290189, 37.789924115452315 ], [ -122.410657632515836, 37.789921068189471 ], [ -122.410718074089885, 37.789913352243843 ], [ -122.410722996018123, 37.789912723912579 ], [ -122.411112791475404, 37.789862962790373 ], [ -122.411496263968786, 37.789814008855046 ], [ -122.412076, 37.78974 ], [ -122.412129442575107, 37.789733189963123 ], [ -122.412197732471256, 37.789724487973928 ], [ -122.412626913756682, 37.789669798611101 ], [ -122.412757337652664, 37.789653179061247 ], [ -122.412874637993326, 37.7896382318091 ], [ -122.413559659407966, 37.789550941458934 ], [ -122.414301977025147, 37.789456350014994 ], [ -122.415372, 37.78932 ], [ -122.415515453684947, 37.790036501292711 ], [ -122.415559, 37.790254 ], [ -122.415584935041238, 37.790383267849478 ], [ -122.415598579652354, 37.790451276591803 ] ] ], [ [ [ -122.413236570078368, 37.712204405043416 ], [ -122.412791916916518, 37.71282204664481 ], [ -122.412273191709431, 37.713402087962443 ], [ -122.411685389237292, 37.713938941949955 ], [ -122.411119542231603, 37.714363397640554 ], [ -122.410905451685892, 37.714871181524011 ], [ -122.410539111651318, 37.715520465603269 ], [ -122.410094416245428, 37.716138096697165 ], [ -122.409963432357344, 37.716284548034423 ], [ -122.409848211242121, 37.716413375225684 ], [ -122.408561, 37.716412 ], [ -122.408315882979736, 37.71775613843139 ], [ -122.407921660257898, 37.717998441779891 ], [ -122.407272, 37.71782 ], [ -122.406836093033959, 37.718570191425357 ], [ -122.406714875932053, 37.718618157240513 ], [ -122.406715223613105, 37.718622126955125 ], [ -122.406709205843654, 37.718788562980677 ], [ -122.4061, 37.719837 ], [ -122.404450409175709, 37.719089809966675 ], [ -122.403071, 37.718465 ], [ -122.402103, 37.718721 ], [ -122.402482424439484, 37.719658470230485 ], [ -122.403078, 37.72113 ], [ -122.404059, 37.720864 ], [ -122.404981783095636, 37.723057820750142 ], [ -122.404980197683685, 37.723067690663399 ], [ -122.404780273122796, 37.723761263218243 ], [ -122.40449572006527, 37.724435930071976 ], [ -122.404454278693194, 37.724509356429294 ], [ -122.404339266539097, 37.724782041621381 ], [ -122.4026, 37.725235 ], [ -122.402061, 37.72392 ], [ -122.400785, 37.723616 ], [ -122.401183, 37.724588 ], [ -122.402105, 37.72779 ], [ -122.4005154039274, 37.729567108746039 ], [ -122.399867, 37.730292 ], [ -122.399465904216939, 37.731566653490766 ], [ -122.399423, 37.731703 ], [ -122.3996274028584, 37.731910474019877 ], [ -122.400022, 37.732311 ], [ -122.399826558076001, 37.732491617171249 ], [ -122.398585, 37.733639 ], [ -122.398209, 37.735308 ], [ -122.397824642200746, 37.73572729941737 ], [ -122.397190808373026, 37.736418754502154 ], [ -122.396515, 37.737156 ], [ -122.395945, 37.737784 ], [ -122.394093, 37.736729 ], [ -122.393524, 37.737351 ], [ -122.391268, 37.739853 ], [ -122.389425, 37.738803 ], [ -122.389202418321688, 37.739306914567074 ], [ -122.387705, 37.742697 ], [ -122.387143, 37.741297 ], [ -122.385282, 37.74024 ], [ -122.383743844140284, 37.739365597219383 ], [ -122.381558, 37.738123 ], [ -122.382121, 37.737097 ], [ -122.384047, 37.737514 ], [ -122.382228886664763, 37.733930784378956 ], [ -122.381852, 37.733188 ], [ -122.381837514738947, 37.733183357782032 ], [ -122.381960640020125, 37.732756753793971 ], [ -122.38202259640174, 37.732609992139636 ], [ -122.382150703831257, 37.732166116774664 ], [ -122.382435489299823, 37.731491504756519 ], [ -122.382583391824141, 37.731229636898668 ], [ -122.382613390083904, 37.731043262711758 ], [ -122.382813541069112, 37.730349728612623 ], [ -122.382907994882359, 37.73012597302256 ], [ -122.382921632146562, 37.730078718094362 ], [ -122.383431, 37.729738 ], [ -122.383101092801283, 37.729550693288353 ], [ -122.383300260601544, 37.729078866103983 ], [ -122.383314709192973, 37.729053282770373 ], [ -122.383378878833994, 37.728654568591196 ], [ -122.383579016244852, 37.727961032920909 ], [ -122.383696120546361, 37.727683602876027 ], [ -122.383785850337702, 37.727372655154788 ], [ -122.384070602601199, 37.726698038656131 ], [ -122.384344221229711, 37.726213531860509 ], [ -122.384436586062193, 37.725994700760587 ], [ -122.384803205701715, 37.72534549896988 ], [ -122.384844822905293, 37.725287740898395 ], [ -122.384906338024834, 37.724905451305339 ], [ -122.385067216588354, 37.724347890025093 ], [ -122.385481002310854, 37.724630999854583 ], [ -122.385481002544864, 37.724467806252584 ], [ -122.385481003057976, 37.72410999992389 ], [ -122.385481000669742, 37.723631000398733 ], [ -122.385385290829021, 37.723551244457141 ], [ -122.385391179261376, 37.723537292581753 ], [ -122.385477547913055, 37.723384344755949 ], [ -122.385522937758765, 37.723276798111073 ], [ -122.385677610806695, 37.722910315980528 ], [ -122.386044204396129, 37.722261110004141 ], [ -122.386173868913801, 37.722081144385854 ], [ -122.386484056759201, 37.721531814985894 ], [ -122.386531923699536, 37.72146537705494 ], [ -122.386570545499239, 37.721225313470455 ], [ -122.386770633132031, 37.720531771544501 ], [ -122.387055332105106, 37.719857147086429 ], [ -122.387421898606718, 37.719207936504283 ], [ -122.387618021799057, 37.718935709716405 ], [ -122.387858362678728, 37.718510041271237 ], [ -122.388303256999706, 37.717892494364278 ], [ -122.388592358960707, 37.717569414050836 ], [ -122.388603664198655, 37.7174991277709 ], [ -122.388803722835476, 37.716805581977887 ], [ -122.388805376194497, 37.716801663686887 ], [ -122.391141, 37.71804 ], [ -122.391310878682489, 37.718071587259182 ], [ -122.393545, 37.718487 ], [ -122.396682, 37.720266 ], [ -122.397025, 37.719515 ], [ -122.397647876864852, 37.71881557052285 ], [ -122.398224922998239, 37.718167604451004 ], [ -122.398693, 37.717642 ], [ -122.39867, 37.717508 ], [ -122.398697, 37.7158 ], [ -122.399303629245239, 37.7150415900445 ], [ -122.399586433974122, 37.714688026605991 ], [ -122.401155, 37.712727 ], [ -122.402546, 37.712266 ], [ -122.403109, 37.711998 ], [ -122.404348, 37.710443 ], [ -122.404821, 37.709747 ], [ -122.405365, 37.708255 ], [ -122.406481, 37.708323 ], [ -122.410066976532349, 37.708310842086682 ], [ -122.41238, 37.708303 ], [ -122.414181020781299, 37.708256721093413 ], [ -122.414226003492317, 37.70876979390755 ], [ -122.414200363148282, 37.709481024013812 ], [ -122.414087096297848, 37.710186832567686 ], [ -122.413887291330838, 37.710880421999441 ], [ -122.413722280298359, 37.711271853319069 ], [ -122.413602870215982, 37.711555112234656 ], [ -122.413236570078368, 37.712204405043416 ] ] ], [ [ [ -122.411019, 37.80117 ], [ -122.409615031535054, 37.801343281426426 ], [ -122.408974588314891, 37.801422326588408 ], [ -122.40777, 37.801571 ], [ -122.406199, 37.80172 ], [ -122.40618647522578, 37.801656660427525 ], [ -122.406139562371564, 37.801419415421925 ], [ -122.406045965159933, 37.800946080951668 ], [ -122.406024, 37.800835 ], [ -122.405922335915321, 37.800334458622658 ], [ -122.405850366336722, 37.79998011763675 ], [ -122.405836122746479, 37.799909989564448 ], [ -122.405754453028692, 37.799507890109595 ], [ -122.405645, 37.798969 ], [ -122.404190217998647, 37.799155360101288 ], [ -122.402421, 37.799382 ], [ -122.402304290431459, 37.798805516157515 ], [ -122.402259261154896, 37.798583095230903 ], [ -122.402242613813797, 37.798500866127647 ], [ -122.402240915027065, 37.798492475015252 ], [ -122.402238938819508, 37.79848271359004 ], [ -122.402236534686864, 37.79847083844016 ], [ -122.402233059601116, 37.798453673345541 ], [ -122.402103833958947, 37.797815366686734 ], [ -122.402086199092878, 37.797728259729837 ], [ -122.402074396340495, 37.797669960345061 ], [ -122.402041, 37.797505 ], [ -122.402843943165735, 37.79740324452969 ], [ -122.404027952138549, 37.79725319730963 ], [ -122.404525973023041, 37.797190084063899 ], [ -122.405513, 37.797065 ], [ -122.406668, 37.797865 ], [ -122.407869, 37.798697 ], [ -122.408625339811508, 37.799220823118354 ], [ -122.408993629358648, 37.799475891774151 ], [ -122.409014, 37.79949 ], [ -122.410062205803726, 37.800215578530519 ], [ -122.410358229766032, 37.800420489274956 ], [ -122.411376, 37.801125 ], [ -122.411019, 37.80117 ] ] ], [ [ [ -122.402019181166423, 37.779172693897799 ], [ -122.402031559641742, 37.779182579040331 ], [ -122.402093347617452, 37.779231921381033 ], [ -122.402176122033012, 37.779298022970664 ], [ -122.402184507392988, 37.779304719310595 ], [ -122.402207109326383, 37.779322768652484 ], [ -122.402213239583304, 37.779327664123201 ], [ -122.402233584773441, 37.779343911286041 ], [ -122.402380715788937, 37.779461406455795 ], [ -122.40242440684122, 37.779496297043536 ], [ -122.403387, 37.780265 ], [ -122.403446922514789, 37.780313779029584 ], [ -122.403477366630909, 37.780338561608318 ], [ -122.403527637019138, 37.780379483468209 ], [ -122.403672, 37.780497 ], [ -122.40379606715311, 37.780597648855128 ], [ -122.403921, 37.780699 ], [ -122.404263792919082, 37.780970321272903 ], [ -122.404785710434396, 37.78138342001774 ], [ -122.404933, 37.7815 ], [ -122.404843857999737, 37.781570472259986 ], [ -122.404783888668106, 37.78161788172261 ], [ -122.40471155902371, 37.781675062776316 ], [ -122.404167191492959, 37.782105418950067 ], [ -122.404005019168665, 37.782233626194312 ], [ -122.403333727127347, 37.782764324037309 ], [ -122.403045626427115, 37.782992085444818 ], [ -122.40275806619951, 37.783219419575317 ], [ -122.402708, 37.783259 ], [ -122.401419841365509, 37.784277450420397 ], [ -122.40053334285669, 37.784978338303937 ], [ -122.400468, 37.78503 ], [ -122.398956927671406, 37.783806797757428 ], [ -122.39893, 37.783785 ], [ -122.398534678985911, 37.783469818543828 ], [ -122.398086742055384, 37.783112687480696 ], [ -122.39762127118621, 37.782741576962586 ], [ -122.397386, 37.782554 ], [ -122.397703457665372, 37.782303023379342 ], [ -122.397950846651597, 37.782107441862429 ], [ -122.398012752193253, 37.78205850039609 ], [ -122.398032449965996, 37.78204292767262 ], [ -122.399616, 37.780791 ], [ -122.400212216871978, 37.78032007701939 ], [ -122.400548356934181, 37.780054576179957 ], [ -122.401017772349178, 37.779683807560751 ], [ -122.40114520248197, 37.779583156638623 ], [ -122.401724270624442, 37.779125778613206 ], [ -122.401729393299789, 37.779121732458762 ], [ -122.401732978252639, 37.779118900877236 ], [ -122.401843, 37.779032 ], [ -122.401879356202556, 37.779061033159167 ], [ -122.401959427078552, 37.779124975769335 ], [ -122.402019181166423, 37.779172693897799 ] ] ], [ [ [ -122.223301406766964, 37.767938588090715 ], [ -122.224078555319352, 37.768293077862936 ], [ -122.224808199208042, 37.768706324713207 ], [ -122.225483312382224, 37.769174349780407 ], [ -122.225934181003353, 37.769554892062466 ], [ -122.226176496659264, 37.769599321178852 ], [ -122.227025859038676, 37.769826623371607 ], [ -122.227843071010156, 37.770118911394022 ], [ -122.228620264042618, 37.770473371090965 ], [ -122.229349954609646, 37.770886589673211 ], [ -122.230022720102426, 37.771352927651435 ], [ -122.230463120012658, 37.771470768373241 ], [ -122.231280363594649, 37.771763032484557 ], [ -122.232057590228735, 37.772117469418916 ], [ -122.232787316065028, 37.772530666606329 ], [ -122.233462514264076, 37.772998645663868 ], [ -122.233814923327984, 37.773296019756877 ], [ -122.234272823841067, 37.773459757187062 ], [ -122.235050082505296, 37.773814174287402 ], [ -122.235779841654079, 37.774227352828611 ], [ -122.236067211955032, 37.77442651137401 ], [ -122.236455074127292, 37.774695314607293 ], [ -122.237069277406547, 37.775213553872248 ], [ -122.237616536225104, 37.775777080679738 ], [ -122.237662258009706, 37.775835155355999 ], [ -122.238112835475192, 37.775955679424506 ], [ -122.238930158494725, 37.776247890275862 ], [ -122.239707468553306, 37.776602276496739 ], [ -122.240437280998194, 37.777015426005413 ], [ -122.241112568156254, 37.777483360878001 ], [ -122.241726826982756, 37.778001575622383 ], [ -122.242274141676219, 37.778565080530988 ], [ -122.242469592987447, 37.778813301005918 ], [ -122.243217600598314, 37.779013339665063 ], [ -122.243879000863103, 37.779249761032261 ], [ -122.243879003956508, 37.780527997291067 ], [ -122.24358479536177, 37.780822207148255 ], [ -122.243584795901555, 37.780822208732758 ], [ -122.243179004766873, 37.781227999484408 ], [ -122.243979004735095, 37.782328000925908 ], [ -122.243889446910231, 37.782353588496711 ], [ -122.243889446934617, 37.782353588782051 ], [ -122.243279002603131, 37.782527998571453 ], [ -122.243379004567188, 37.783527998865068 ], [ -122.244279000640063, 37.783228000106512 ], [ -122.247280003781512, 37.786027997913337 ], [ -122.247380003887713, 37.786127999643682 ], [ -122.248080000471333, 37.786528000002697 ], [ -122.248679999199439, 37.786327999006126 ], [ -122.25378000289416, 37.788027999951971 ], [ -122.257531604495497, 37.786683120262452 ], [ -122.257759306087365, 37.786972162731281 ], [ -122.258083947998443, 37.787491433473164 ], [ -122.258273599240894, 37.787577845400278 ], [ -122.259003622801359, 37.787990879164845 ], [ -122.259679126715412, 37.788458706768942 ], [ -122.259789376806353, 37.788551668295689 ], [ -122.259820553032895, 37.788573259416061 ], [ -122.26005316906371, 37.78876939710954 ], [ -122.259280000844512, 37.789427999993727 ], [ -122.259880004183003, 37.789928001112301 ], [ -122.260848634598062, 37.789516971563799 ], [ -122.260982572457976, 37.78965479258278 ], [ -122.261457894362223, 37.79025808514622 ], [ -122.261747021046759, 37.790720481989787 ], [ -122.262026403195634, 37.790847761044013 ], [ -122.262756479769024, 37.791260771330165 ], [ -122.262863585058298, 37.791334938952673 ], [ -122.261327, 37.793807 ], [ -122.260806, 37.79528 ], [ -122.259577, 37.79632 ], [ -122.259551, 37.798132 ], [ -122.259554, 37.798301 ], [ -122.257805, 37.799704 ], [ -122.254505, 37.800561 ], [ -122.254468, 37.801838 ], [ -122.254073, 37.802521 ], [ -122.253647922311202, 37.803259114133745 ], [ -122.253447, 37.803608 ], [ -122.252124437733528, 37.804363948748097 ], [ -122.251976540048346, 37.804311113458503 ], [ -122.251198881377462, 37.803956809913188 ], [ -122.250468744265675, 37.803543729044812 ], [ -122.249793161153207, 37.803075849979571 ], [ -122.249178638615092, 37.802557679625103 ], [ -122.249138893559206, 37.802516778876026 ], [ -122.249040988525579, 37.80243422347845 ], [ -122.248825263776169, 37.802212222871312 ], [ -122.248493446551507, 37.801870752430212 ], [ -122.248339300331338, 37.801675076217883 ], [ -122.247719577728787, 37.801245853758111 ], [ -122.247382528138488, 37.800961631109658 ], [ -122.247105084804758, 37.800727672424124 ], [ -122.247093398571195, 37.800715645536783 ], [ -122.246964390070232, 37.800606855605473 ], [ -122.246416877327789, 37.8000433747263 ], [ -122.245941614991608, 37.79944002262858 ], [ -122.245543178994154, 37.798802610808693 ], [ -122.245378704444306, 37.798458245964262 ], [ -122.245345696361454, 37.798446450908962 ], [ -122.244568130745023, 37.798092103261332 ], [ -122.243838088182272, 37.797678980899043 ], [ -122.243162600202439, 37.797211063348072 ], [ -122.242548172463927, 37.79669285788669 ], [ -122.242498477565761, 37.796641706379255 ], [ -122.242410928138369, 37.796567866621061 ], [ -122.241863479725566, 37.796004364184789 ], [ -122.241699645678651, 37.795796340613563 ], [ -122.241640214335135, 37.795775100492278 ], [ -122.241503686831663, 37.795712875622314 ], [ -122.241457574835067, 37.795696395375984 ], [ -122.240680056566234, 37.795342021915424 ], [ -122.240048186798361, 37.794984409514967 ], [ -122.239950062668157, 37.794928875277485 ], [ -122.239274624201116, 37.79446093522197 ], [ -122.238660246346427, 37.793942709243936 ], [ -122.23811284574505, 37.79337918912654 ], [ -122.237644861100947, 37.792784904793493 ], [ -122.23739019568346, 37.79273825365344 ], [ -122.236540539550916, 37.792511027063924 ], [ -122.235723046952273, 37.79221880050347 ], [ -122.235607366611632, 37.792166066301903 ], [ -122.234945592456597, 37.791864389011799 ], [ -122.234215664644026, 37.791451206616621 ], [ -122.233540293938063, 37.790983233422203 ], [ -122.232925984867151, 37.790464977242756 ], [ -122.232378653409484, 37.789901430152383 ], [ -122.232183208701812, 37.789653193206561 ], [ -122.231435121599219, 37.789453085171615 ], [ -122.231016908087923, 37.789303559656943 ], [ -122.230617682749781, 37.789160823058182 ], [ -122.229976037704589, 37.788868272698487 ], [ -122.229840284629248, 37.788806377712589 ], [ -122.229110415274562, 37.788393163488692 ], [ -122.228565858323705, 37.788015775557774 ], [ -122.228435104545895, 37.7879251607973 ], [ -122.227820856393748, 37.787406877736764 ], [ -122.227273586209421, 37.786843306640108 ], [ -122.227227864925823, 37.786785225950823 ], [ -122.226777240273975, 37.786664662618961 ], [ -122.225959850444241, 37.786372368070616 ], [ -122.225322305937411, 37.786081642745685 ], [ -122.225182503739717, 37.786017891840586 ], [ -122.22445268770187, 37.78560464858019 ], [ -122.223777431677078, 37.785136618979998 ], [ -122.223425007849599, 37.784839213987681 ], [ -122.222967059871578, 37.78467543628792 ], [ -122.222450162371686, 37.784439704041823 ], [ -122.222189745210898, 37.784320940220667 ], [ -122.221459962498699, 37.783907678311621 ], [ -122.220787132721824, 37.783441289479065 ], [ -122.220346681518691, 37.783323415901137 ], [ -122.219529353767427, 37.783031076602938 ], [ -122.218752072723333, 37.782676557769669 ], [ -122.218665979537818, 37.782627799973476 ], [ -122.218022325295095, 37.782263274463133 ], [ -122.217347140167931, 37.781795207759572 ], [ -122.216896242163941, 37.78141463219859 ], [ -122.216653892593513, 37.781370185368694 ], [ -122.215804429958638, 37.781142808918524 ], [ -122.214987144080652, 37.780850438021858 ], [ -122.214434030920899, 37.780598126584479 ], [ -122.214209907536485, 37.7804958891087 ], [ -122.213480206805926, 37.780082577530656 ], [ -122.212805070124233, 37.779614484636234 ], [ -122.212190999764857, 37.779096119392655 ], [ -122.211780357274293, 37.778673051494472 ], [ -122.211454180025939, 37.778639476115728 ], [ -122.210580770520394, 37.778479239398223 ], [ -122.209731359538608, 37.778251819079252 ], [ -122.208914129375387, 37.777959405937857 ], [ -122.208618879171652, 37.777824697279613 ], [ -122.208136952070618, 37.777604816811014 ], [ -122.207407313533238, 37.77719146743766 ], [ -122.20673224139918, 37.776723339530385 ], [ -122.206467847713796, 37.776500114743939 ], [ -122.206409414204487, 37.776489391995995 ], [ -122.205560038748501, 37.776261941546174 ], [ -122.204742846898739, 37.77596949938966 ], [ -122.203965710325861, 37.775614882642941 ], [ -122.203236114546286, 37.77520150731096 ], [ -122.202705442759012, 37.774833470545268 ], [ -122.202241655947361, 37.774709257982231 ], [ -122.201424494243128, 37.774416792745726 ], [ -122.200647389755872, 37.774062154029423 ], [ -122.199917827692829, 37.773648758049916 ], [ -122.19924283495294, 37.773180586968742 ], [ -122.198628912422663, 37.772662150506171 ], [ -122.198618240833611, 37.772651151749912 ], [ -122.19861164034694, 37.772644348906994 ], [ -122.197931426078625, 37.772519468984271 ], [ -122.197082121976194, 37.77229195730083 ], [ -122.19626500717726, 37.771999456179778 ], [ -122.195487952609923, 37.771644783305639 ], [ -122.194758443000268, 37.771231355224018 ], [ -122.194083504741855, 37.770763154405707 ], [ -122.193651704762715, 37.770398461866399 ], [ -122.193427133321421, 37.770357222743627 ], [ -122.192577867734855, 37.770129678526239 ], [ -122.192475475295282, 37.770093019499534 ], [ -122.191760794455334, 37.769837146076561 ], [ -122.190983784010854, 37.769482443380888 ], [ -122.190254320702323, 37.769068987272092 ], [ -122.189579430477025, 37.768600760490912 ], [ -122.189356806150244, 37.76841271125577 ], [ -122.189246139117415, 37.768392384262356 ], [ -122.188396908799433, 37.768164809848599 ], [ -122.18757987359453, 37.767872248322064 ], [ -122.186802903663803, 37.767517517949074 ], [ -122.186073482917735, 37.767104035829178 ], [ -122.185695597141844, 37.766841834765458 ], [ -122.185406198348289, 37.766641031569492 ], [ -122.18492450948871, 37.766511931194238 ], [ -122.184107506136513, 37.766219345518174 ], [ -122.183330570072741, 37.765864592158003 ], [ -122.182601184881534, 37.765451088434659 ], [ -122.181926375757357, 37.764982817547498 ], [ -122.181825085052267, 37.764897239743455 ], [ -122.181159035911776, 37.76471869977766 ], [ -122.180342067109635, 37.764426087914494 ], [ -122.179693520911783, 37.7641299232764 ], [ -122.179565167779614, 37.764071309627809 ], [ -122.178835821151779, 37.763657782478596 ], [ -122.178161052049035, 37.763189489891943 ], [ -122.17759188885573, 37.762708568622834 ], [ -122.17711599176603, 37.76262109878023 ], [ -122.176266864579262, 37.762393436760185 ], [ -122.175449940614826, 37.762100790875614 ], [ -122.174673088961711, 37.761745980205561 ], [ -122.173943792390574, 37.761332422622992 ], [ -122.173269075241933, 37.760864101846074 ], [ -122.172655435746648, 37.760345529036911 ], [ -122.172108783431455, 37.75978169931907 ], [ -122.171800644777534, 37.759389605785138 ], [ -122.171634382213071, 37.759178043634044 ], [ -122.171236799728547, 37.758540376401569 ], [ -122.171124818989909, 37.758305227238466 ], [ -122.170853761208136, 37.758151502824354 ], [ -122.17017909242216, 37.757683164103973 ], [ -122.169565500764051, 37.757164574925206 ], [ -122.169018895299644, 37.756600730569275 ], [ -122.16854453949442, 37.755997062118702 ], [ -122.168147000547975, 37.75535938411609 ], [ -122.167830105452182, 37.75469383853325 ], [ -122.167782798539037, 37.754554473982765 ], [ -122.167394930439656, 37.754226631189042 ], [ -122.166848363058605, 37.753662776483942 ], [ -122.166374043642747, 37.753059098994932 ], [ -122.165976539041324, 37.752421413351755 ], [ -122.16565967591545, 37.751755861599705 ], [ -122.165474009213625, 37.751208821443413 ], [ -122.165296478564414, 37.75108555990974 ], [ -122.164923268017986, 37.75077007225584 ], [ -122.164682975461844, 37.75056694473033 ], [ -122.164136455577847, 37.750003077098306 ], [ -122.163662181553505, 37.749399388320342 ], [ -122.163264719800864, 37.748761693134902 ], [ -122.1630517810502, 37.748314366725488 ], [ -122.162976280778139, 37.748250539413121 ], [ -122.162429790880623, 37.747686663646036 ], [ -122.161955545504824, 37.747082967763852 ], [ -122.161558110786928, 37.746445266573403 ], [ -122.161241312715049, 37.745779702269715 ], [ -122.161199782281884, 37.745657305874047 ], [ -122.160719985537867, 37.745251653458688 ], [ -122.160520324954021, 37.745045622236262 ], [ -122.160173534813993, 37.744687766944537 ], [ -122.159699326904899, 37.744084061678613 ], [ -122.159301927585886, 37.743446352558109 ], [ -122.158985162504223, 37.742780781854442 ], [ -122.158752080394692, 37.742093760029491 ], [ -122.158650898624401, 37.741611178640369 ], [ -122.158479338725442, 37.741513832974512 ], [ -122.157804898967782, 37.741045422110496 ], [ -122.157191531028388, 37.740526767060487 ], [ -122.156645141818004, 37.739962863740281 ], [ -122.156170992719055, 37.739359143800264 ], [ -122.156114068290108, 37.73926778303364 ], [ -122.155957548883336, 37.739068488426511 ], [ -122.155839878568742, 37.738879630254473 ], [ -122.15556020849013, 37.738430766154806 ], [ -122.155243498294269, 37.737765184837365 ], [ -122.155066862608791, 37.73724442336372 ], [ -122.154637397693577, 37.736881236151682 ], [ -122.154529552603194, 37.736769923235052 ], [ -122.154522663811051, 37.736765138174576 ], [ -122.153909354101359, 37.736246465672536 ], [ -122.153363021260731, 37.735682546734118 ], [ -122.153254825846844, 37.735544766976759 ], [ -122.153248043056038, 37.73553776575244 ], [ -122.152773949781491, 37.734934031701428 ], [ -122.152376658807597, 37.734296298258926 ], [ -122.152059994738252, 37.733630707930466 ], [ -122.151961977473235, 37.733341675707642 ], [ -122.151396215993486, 37.732863166672793 ], [ -122.150849927089226, 37.73229923576838 ], [ -122.150375873950878, 37.731695491747246 ], [ -122.150304350249641, 37.731580669992432 ], [ -122.150278229616191, 37.731547402856819 ], [ -122.149880978157682, 37.730909660644784 ], [ -122.149564350864765, 37.730244063239418 ], [ -122.149331395145566, 37.729557021359696 ], [ -122.149185704658521, 37.72886160712612 ], [ -122.149437645234826, 37.72870844269498 ], [ -122.150172, 37.728262 ], [ -122.152602373700731, 37.728133941579379 ], [ -122.154613, 37.728028 ], [ -122.156211, 37.728435 ], [ -122.157524, 37.726871 ], [ -122.160328, 37.730825 ], [ -122.161755, 37.732735 ], [ -122.163336, 37.73486 ], [ -122.163359924142966, 37.734891356886408 ], [ -122.16416, 37.73594 ], [ -122.165218368705297, 37.73735088937925 ], [ -122.165472, 37.737689 ], [ -122.171556, 37.734996 ], [ -122.170957750475125, 37.733790480052697 ], [ -122.170097, 37.732056 ], [ -122.170497, 37.731869 ], [ -122.171626675417983, 37.731652502791754 ], [ -122.171904838859703, 37.732006589814347 ], [ -122.171961777136431, 37.73209794306176 ], [ -122.1721183247749, 37.732297216639147 ], [ -122.17251577444253, 37.732934883717952 ], [ -122.172832618723561, 37.733600419135364 ], [ -122.173065804349605, 37.734287414073783 ], [ -122.173167070043419, 37.734769982193221 ], [ -122.173338633311133, 37.734867308060075 ], [ -122.174013114895303, 37.735335630499499 ], [ -122.174626557371198, 37.735854198435909 ], [ -122.175173052795813, 37.736418018760546 ], [ -122.175647337476363, 37.737021662528505 ], [ -122.176044842687347, 37.737659317205875 ], [ -122.17636173871206, 37.738324842613487 ], [ -122.176403290090249, 37.738447232091808 ], [ -122.176883128428742, 37.738852822838375 ], [ -122.177429663022465, 37.739416632417004 ], [ -122.177903985168371, 37.740020266801508 ], [ -122.178162251103515, 37.740434519908042 ], [ -122.178301525780071, 37.740657913548375 ], [ -122.178514535735374, 37.741105212990519 ], [ -122.178590040737319, 37.741169030410248 ], [ -122.179136605314156, 37.741732831854634 ], [ -122.17961095610768, 37.742336459135167 ], [ -122.180008523755674, 37.742974099876697 ], [ -122.180325477940116, 37.743639614034322 ], [ -122.18051123516274, 37.744186629664704 ], [ -122.180688774454708, 37.744309870247704 ], [ -122.181302337592328, 37.744828402654583 ], [ -122.181848949660846, 37.745392191173316 ], [ -122.182323345844338, 37.745995807165279 ], [ -122.182720956343488, 37.746633438364043 ], [ -122.182774902544281, 37.746746694561921 ], [ -122.183037950427561, 37.747298944816535 ], [ -122.183085251017317, 37.747438212020732 ], [ -122.18347320389411, 37.747766049083701 ], [ -122.184019854041466, 37.748329827254182 ], [ -122.184494286613059, 37.748933434207977 ], [ -122.184891931459063, 37.749571057765678 ], [ -122.185003980710789, 37.749806271264816 ], [ -122.185274978532121, 37.749959932158767 ], [ -122.185949672331361, 37.750428185088637 ], [ -122.18651879393137, 37.750909064943386 ], [ -122.186994628698471, 37.750996499076429 ], [ -122.187843658511227, 37.751224084267101 ], [ -122.188660511701173, 37.751516644807481 ], [ -122.188687180310893, 37.751528822621111 ], [ -122.189437323190077, 37.751871363918532 ], [ -122.190166613123495, 37.752284826313399 ], [ -122.190841358857298, 37.752753051055478 ], [ -122.190942643689596, 37.752838620099375 ], [ -122.191608609546904, 37.753017106345332 ], [ -122.192425497270776, 37.753309640703122 ], [ -122.193202345477005, 37.753664334891454 ], [ -122.193931673957792, 37.754077773863358 ], [ -122.194046371576079, 37.754157357308706 ], [ -122.194598894744985, 37.75454072793201 ], [ -122.195080526884496, 37.75466979198395 ], [ -122.19589744644621, 37.754962302196382 ], [ -122.196674328504258, 37.755316973401001 ], [ -122.197403692525114, 37.755730390772115 ], [ -122.198078515151508, 37.756198573806699 ], [ -122.198301127419214, 37.756386606629405 ], [ -122.198411776582631, 37.75640692550536 ], [ -122.199260903182775, 37.756634428240467 ], [ -122.200077860801329, 37.756926909381043 ], [ -122.200854783355027, 37.757281552912552 ], [ -122.201584189920581, 37.757694944275762 ], [ -122.202259056731251, 37.75816310321806 ], [ -122.202690829086521, 37.75852776386639 ], [ -122.202915368677182, 37.758568986569657 ], [ -122.20293350090671, 37.758573843742916 ], [ -122.203764533774915, 37.758796456776942 ], [ -122.204581532893542, 37.759088906594279 ], [ -122.205358499550456, 37.759443520308778 ], [ -122.206087952397894, 37.759856883648268 ], [ -122.206762867223674, 37.760325016630013 ], [ -122.207376744566872, 37.760843411854189 ], [ -122.207394014944981, 37.760861210778543 ], [ -122.208074139433862, 37.760986037788449 ], [ -122.208923347949522, 37.761213470737104 ], [ -122.209740393951492, 37.76150588467609 ], [ -122.210517410505943, 37.76186046423787 ], [ -122.211246915784869, 37.762273795479189 ], [ -122.211777539664084, 37.762641792610026 ], [ -122.212241267592773, 37.762765969924459 ], [ -122.213058343726118, 37.763058360787404 ], [ -122.213835392351811, 37.763412918382954 ], [ -122.214564931333186, 37.763826228979276 ], [ -122.215239935629072, 37.764294313101445 ], [ -122.215504315443752, 37.764517518837557 ], [ -122.21556273763818, 37.764528236958796 ], [ -122.216412009564351, 37.764755615818672 ], [ -122.217229123993306, 37.765047977671514 ], [ -122.218006213332743, 37.765402507651366 ], [ -122.21873579505413, 37.765815792292273 ], [ -122.219410843704992, 37.76628385236927 ], [ -122.220024858536277, 37.766802181184573 ], [ -122.220435482874038, 37.767225219699036 ], [ -122.220761613550593, 37.767258771856412 ], [ -122.221370757953295, 37.767370487881891 ], [ -122.221634913094562, 37.767418933476009 ], [ -122.222484236649308, 37.767646268475275 ], [ -122.223301406766964, 37.767938588090715 ] ], [ [ -122.192563548962084, 37.761868617243827 ], [ -122.190299, 37.760786 ], [ -122.192294138491448, 37.761739819666005 ], [ -122.192563548962084, 37.761868617243827 ] ] ], [ [ [ -122.246178971009257, 37.781417975921023 ], [ -122.24617897485453, 37.78141797571395 ], [ -122.246080001858289, 37.781327999074044 ], [ -122.246042141854019, 37.780419353978047 ], [ -122.24621756174777, 37.780540890405156 ], [ -122.24683188147489, 37.781059078270012 ], [ -122.247193514958411, 37.78143135177028 ], [ -122.247217692864211, 37.781431935741296 ], [ -122.248106764637399, 37.781523175558519 ], [ -122.248980290819304, 37.781683134200115 ], [ -122.249829861137783, 37.781910271608659 ], [ -122.250647295770236, 37.78220240092304 ], [ -122.251424724042749, 37.782556709516086 ], [ -122.251886388833626, 37.782817970280171 ], [ -122.254153773614263, 37.784855195718471 ], [ -122.254680002390288, 37.785327999511324 ], [ -122.254608050623389, 37.785347986137062 ], [ -122.254608050973459, 37.785347986697083 ], [ -122.2528800015548, 37.785828000339379 ], [ -122.249380002542608, 37.784327999681807 ], [ -122.248601865141694, 37.783620627266117 ], [ -122.248601867651132, 37.783620634630537 ], [ -122.248487442213118, 37.783516610130704 ], [ -122.248178801041675, 37.783236037251449 ], [ -122.248178814199647, 37.783236035502412 ], [ -122.246452370517261, 37.781666520509283 ], [ -122.246178971009257, 37.781417975921023 ] ] ], [ [ [ -122.27014, 37.796524 ], [ -122.272515, 37.797457 ], [ -122.274595008408838, 37.798160936730099 ], [ -122.274935, 37.798276 ], [ -122.275061, 37.798321 ], [ -122.273445, 37.800927 ], [ -122.27211, 37.802965 ], [ -122.271274, 37.804361 ], [ -122.270392906993578, 37.805768244259887 ], [ -122.270392906993564, 37.805768244259895 ], [ -122.268415594124932, 37.808926324240176 ], [ -122.268273735501722, 37.80915289479718 ], [ -122.26701291459554, 37.81116662430135 ], [ -122.266771, 37.811553 ], [ -122.265421, 37.811468 ], [ -122.262463, 37.810945 ], [ -122.263190359336917, 37.80848149140111 ], [ -122.263190359336917, 37.808481491401103 ], [ -122.263469243356425, 37.807536933264196 ], [ -122.263564, 37.807216 ], [ -122.265449, 37.806338 ], [ -122.264778, 37.805119 ], [ -122.266458, 37.802497 ], [ -122.267312, 37.801081 ], [ -122.268034905013806, 37.799910501928579 ], [ -122.268596, 37.799002 ], [ -122.269885654629405, 37.796932204552022 ], [ -122.27014, 37.796524 ] ] ], [ [ [ -122.281107071217917, 37.802579177756691 ], [ -122.280992397407388, 37.803284846340219 ], [ -122.280791098944277, 37.803978198221586 ], [ -122.280666669494835, 37.804271603122473 ], [ -122.280653169485788, 37.804627826854599 ], [ -122.280538488197649, 37.80533349472757 ], [ -122.28033717994208, 37.806026845569434 ], [ -122.280051181162634, 37.806701201601371 ], [ -122.279683244177392, 37.807350067810312 ], [ -122.279613366558209, 37.807446685488664 ], [ -122.279585816023967, 37.807495270888069 ], [ -122.279498093740685, 37.807616560316582 ], [ -122.279139480913642, 37.808112397214828 ], [ -122.278619046429142, 37.80869183986632 ], [ -122.278122627417474, 37.809143338750147 ], [ -122.277876864843293, 37.809722753456747 ], [ -122.277558825237833, 37.810283567141255 ], [ -122.277493955269435, 37.81050694772707 ], [ -122.277207913408688, 37.811181296297768 ], [ -122.276839929373338, 37.811830153091179 ], [ -122.276762786293801, 37.811936802453893 ], [ -122.276740700741044, 37.811975744799234 ], [ -122.276294315047323, 37.812592859839818 ], [ -122.275773826951124, 37.813172289448964 ], [ -122.275566601874516, 37.8133607399757 ], [ -122.274122, 37.812829 ], [ -122.273662, 37.811471 ], [ -122.273353, 37.810465 ], [ -122.275132067755536, 37.807590443835977 ], [ -122.275979, 37.806222 ], [ -122.276861, 37.804819 ], [ -122.277500981309998, 37.803786188717922 ], [ -122.277500981309998, 37.803786188717929 ], [ -122.278135, 37.802763 ], [ -122.278504059595903, 37.802165376553589 ], [ -122.279521108446971, 37.800518454901109 ], [ -122.279564, 37.800449 ], [ -122.279687, 37.800256 ], [ -122.280991797043853, 37.800774329279591 ], [ -122.281072982072814, 37.801158128354743 ], [ -122.281134018440554, 37.801867988695278 ], [ -122.281107071217917, 37.802579177756691 ] ] ], [ [ [ -122.259656903539337, 37.81015037526825 ], [ -122.260213, 37.810523 ], [ -122.261, 37.810744 ], [ -122.262312, 37.810926 ], [ -122.262463, 37.810945 ], [ -122.261582, 37.812878 ], [ -122.261495, 37.813034 ], [ -122.261400463498603, 37.81313021887582 ], [ -122.261099577033377, 37.812820711553577 ], [ -122.260802238133039, 37.812443433277721 ], [ -122.260624113594332, 37.81221742006931 ], [ -122.260225482982122, 37.811580059378741 ], [ -122.259907522703571, 37.810914768398526 ], [ -122.259673293004028, 37.810227954897798 ], [ -122.259656903539337, 37.81015037526825 ] ] ], [ [ [ -122.269058, 37.811959 ], [ -122.273394, 37.812723 ], [ -122.274122, 37.812829 ], [ -122.274554280982727, 37.814178986937051 ], [ -122.274531256462325, 37.814196184387725 ], [ -122.273821140512368, 37.81463078708952 ], [ -122.273060739809253, 37.815008074162058 ], [ -122.272257378529872, 37.815324411238578 ], [ -122.271418795005985, 37.815576751035323 ], [ -122.27127600905213, 37.8156074137638 ], [ -122.270553067140952, 37.815762662728616 ], [ -122.269668534542916, 37.815880355390192 ], [ -122.268773718125928, 37.815928695253902 ], [ -122.267877237957606, 37.815907216646835 ], [ -122.266987730146965, 37.815816126479177 ], [ -122.266113763577437, 37.815656302249273 ], [ -122.265263757290143, 37.815429283583178 ], [ -122.264529646721698, 37.815167160425894 ], [ -122.266771, 37.811553 ], [ -122.269058, 37.811959 ] ] ], [ [ [ -121.849651, 37.250502 ], [ -121.846752, 37.250573 ], [ -121.846773, 37.249968 ], [ -121.847641417248695, 37.247541379535477 ], [ -121.8479750589389, 37.247733303473744 ], [ -121.848643107859402, 37.248203506286671 ], [ -121.849250296887163, 37.248723788039285 ], [ -121.84979077828811, 37.249289139121885 ], [ -121.850259346279515, 37.249894115850154 ], [ -121.850609479024484, 37.250464463753381 ], [ -121.849651, 37.250502 ] ] ], [ [ [ -121.826787021369043, 37.254798072333998 ], [ -121.825977013516336, 37.254502992194638 ], [ -121.825207096175532, 37.254145863523256 ], [ -121.824484685302892, 37.253730126524175 ], [ -121.823816738897364, 37.253259785911368 ], [ -121.823209689960834, 37.252739372304731 ], [ -121.822669384533057, 37.252173898559953 ], [ -121.822201025397518, 37.251568811453993 ], [ -121.822111870346802, 37.251423472859429 ], [ -121.825074, 37.251398 ], [ -121.830838, 37.251288 ], [ -121.830811, 37.25477 ], [ -121.830825936473843, 37.255311980622388 ], [ -121.830431970995662, 37.255331944011395 ], [ -121.829542344781615, 37.255307133118187 ], [ -121.828660046541813, 37.255212733307864 ], [ -121.828613057235117, 37.255203889586205 ], [ -121.828495787537889, 37.25519134197161 ], [ -121.827629317287091, 37.255028261410686 ], [ -121.826787021369043, 37.254798072333998 ] ] ], [ [ [ -121.854281393225492, 37.276227965117585 ], [ -121.854176006791505, 37.275911268952996 ], [ -121.854032626775165, 37.275209004756796 ], [ -121.854023556008187, 37.27509510521481 ], [ -121.85401660158729, 37.275061042587865 ], [ -121.853973911114963, 37.274524981313768 ], [ -121.857225, 37.274471 ], [ -121.860301, 37.274321 ], [ -121.862939, 37.27445 ], [ -121.863403, 37.276531 ], [ -121.864749, 37.279805 ], [ -121.861476, 37.280518 ], [ -121.858294, 37.280226 ], [ -121.85714953514146, 37.280222299914655 ], [ -121.856852508053834, 37.28001336923726 ], [ -121.856245012084699, 37.27949312727565 ], [ -121.855704263597715, 37.278927806369232 ], [ -121.855235469644541, 37.278322851823006 ], [ -121.85484314386035, 37.277684090566552 ], [ -121.854531063037612, 37.277017675003364 ], [ -121.854302230811953, 37.276330023729869 ], [ -121.854281393225492, 37.276227965117585 ] ] ], [ [ [ -121.956494755670661, 37.282450447623631 ], [ -121.956048890610546, 37.283066382479575 ], [ -121.95594667357922, 37.283180168005011 ], [ -121.955582170210619, 37.283683695899668 ], [ -121.955062881452676, 37.284261740192697 ], [ -121.954475176761775, 37.284796327889381 ], [ -121.953824715735053, 37.285282309635903 ], [ -121.953117762834239, 37.285715004174342 ], [ -121.952530177068141, 37.286006406285594 ], [ -121.952528545616588, 37.286045227128291 ], [ -121.952411563644333, 37.286750610996947 ], [ -121.95220861003952, 37.287443436301459 ], [ -121.951921637130354, 37.288117030315853 ], [ -121.951921113755162, 37.288117951165617 ], [ -121.951920998204059, 37.288118222389123 ], [ -121.951552767716919, 37.288766097428557 ], [ -121.951106824288217, 37.289382013358185 ], [ -121.950669474017118, 37.289868762569647 ], [ -121.95059064779214, 37.289977630498761 ], [ -121.950071276734917, 37.290555652553955 ], [ -121.949780927373411, 37.2908197093345 ], [ -121.94978, 37.29065 ], [ -121.94975, 37.28702 ], [ -121.949748164676791, 37.286853772155844 ], [ -121.94968, 37.28068 ], [ -121.949736, 37.277842 ], [ -121.95276, 37.27365 ], [ -121.9545, 37.27487 ], [ -121.95557, 37.27774 ], [ -121.9572, 37.27977 ], [ -121.957426103661675, 37.279993329383615 ], [ -121.957352707098451, 37.280436116703264 ], [ -121.957149816409753, 37.281128950691681 ], [ -121.956862912241846, 37.281802556931964 ], [ -121.956494755670661, 37.282450447623631 ] ] ], [ [ [ -121.920684907486432, 37.30093266007929 ], [ -121.920631887353508, 37.300674217605398 ], [ -121.92057468374891, 37.299964137112347 ], [ -121.920604879396549, 37.299252996669004 ], [ -121.920722181016828, 37.298547644879605 ], [ -121.920925456532586, 37.297854874409062 ], [ -121.921212746063787, 37.297181356575848 ], [ -121.921581280887779, 37.2965335771204 ], [ -121.922027510179063, 37.295917773767229 ], [ -121.922547135268573, 37.295339876180741 ], [ -121.92288474907167, 37.295033031941621 ], [ -121.923098610105129, 37.294795181759056 ], [ -121.923539794347022, 37.294394196933041 ], [ -121.924157, 37.294409 ], [ -121.931686, 37.294397 ], [ -121.931672, 37.29623 ], [ -121.931669, 37.297222 ], [ -121.929222, 37.297795 ], [ -121.928371758862781, 37.29816468985458 ], [ -121.925487, 37.299419 ], [ -121.922689, 37.299831 ], [ -121.921292, 37.300823 ], [ -121.920684907486432, 37.30093266007929 ] ] ], [ [ [ -121.943781849489653, 37.297994877253167 ], [ -121.943262370097983, 37.298572868971206 ], [ -121.94267446853442, 37.299107397217163 ], [ -121.942023806292596, 37.29959331320984 ], [ -121.941316649772759, 37.300025936324715 ], [ -121.940559809926341, 37.300401099208784 ], [ -121.940494632139291, 37.300426713268493 ], [ -121.940488, 37.299743 ], [ -121.940466, 37.299292 ], [ -121.940213, 37.29812 ], [ -121.93832, 37.294389 ], [ -121.945216812122325, 37.294341539359088 ], [ -121.945203422407317, 37.294659372856792 ], [ -121.945086357848737, 37.295364749223921 ], [ -121.944883312981588, 37.296057561652134 ], [ -121.94459624101259, 37.296731137539417 ], [ -121.944227904633351, 37.297378989377428 ], [ -121.943781849489653, 37.297994877253167 ] ] ], [ [ [ -121.872985732341292, 37.301547859534303 ], [ -121.872095542139789, 37.301523372021343 ], [ -121.871212644829427, 37.301429293015822 ], [ -121.870345545592016, 37.301266528809499 ], [ -121.869502597292154, 37.301036647351602 ], [ -121.868691919948972, 37.300741863131741 ], [ -121.867921322460361, 37.300385015829711 ], [ -121.867198227336246, 37.299969542939351 ], [ -121.866925748801989, 37.29977796986573 ], [ -121.868117, 37.298987 ], [ -121.870268, 37.297486 ], [ -121.871144, 37.296703 ], [ -121.872074, 37.295707 ], [ -121.872864, 37.294715 ], [ -121.874729, 37.299143 ], [ -121.876110015113056, 37.301056522208903 ], [ -121.875614449713296, 37.301204773293726 ], [ -121.874753701794504, 37.301387789167372 ], [ -121.873874639936489, 37.301502519658392 ], [ -121.872985732341292, 37.301547859534303 ] ] ], [ [ [ -121.916527615647382, 37.30288461703249 ], [ -121.917217824254777, 37.302794278315602 ], [ -121.915289, 37.304545 ], [ -121.913628, 37.307067 ], [ -121.913621, 37.306578 ], [ -121.913606, 37.304509 ], [ -121.913606, 37.304417 ], [ -121.913602, 37.303883 ], [ -121.91360202290268, 37.303845416691964 ], [ -121.914033541155192, 37.303631664095626 ], [ -121.914832913682645, 37.303317750915625 ], [ -121.91566694862675, 37.303067933485387 ], [ -121.916527615647382, 37.30288461703249 ] ] ], [ [ [ -121.875187362590438, 37.309724191634345 ], [ -121.87539109046736, 37.309031500524029 ], [ -121.875678833175698, 37.308358094696338 ], [ -121.876047817629356, 37.30771045881238 ], [ -121.876494488674041, 37.307094829213405 ], [ -121.877014543388071, 37.306517133890083 ], [ -121.877602972569335, 37.305982935425845 ], [ -121.878254109007045, 37.305497377462089 ], [ -121.878961682072074, 37.305065135199875 ], [ -121.879123130750401, 37.304985228178097 ], [ -121.883232, 37.310156 ], [ -121.887901, 37.315414 ], [ -121.888061, 37.315323 ], [ -121.889345, 37.317119 ], [ -121.88984, 37.318589 ], [ -121.890521, 37.320957 ], [ -121.891810534988309, 37.323143500804925 ], [ -121.89217, 37.323753 ], [ -121.892048, 37.323771 ], [ -121.890432, 37.324074 ], [ -121.890674, 37.324694 ], [ -121.890990736548844, 37.327209150583052 ], [ -121.891012, 37.327378 ], [ -121.892665, 37.328751 ], [ -121.888326, 37.330797 ], [ -121.886862, 37.329608 ], [ -121.885984, 37.330023 ], [ -121.888124, 37.332891 ], [ -121.890566, 37.336168 ], [ -121.891416346364551, 37.337310838073357 ], [ -121.893293, 37.339833 ], [ -121.893828, 37.340548 ], [ -121.894953, 37.342046 ], [ -121.895345, 37.342573 ], [ -121.896748, 37.34447 ], [ -121.896855, 37.344597 ], [ -121.897006, 37.344803 ], [ -121.893845, 37.346307 ], [ -121.893987221074099, 37.346497815872674 ], [ -121.897038, 37.350591 ], [ -121.892974558975581, 37.352521233018152 ], [ -121.892892351098084, 37.352120048724998 ], [ -121.89288334143788, 37.352007767821313 ], [ -121.892215567703417, 37.351624563354335 ], [ -121.891546319854399, 37.35115461083798 ], [ -121.890938003873345, 37.35063455026377 ], [ -121.890396478005457, 37.350069391086656 ], [ -121.889926956789509, 37.349464577053659 ], [ -121.889634671946638, 37.34898959680752 ], [ -121.889438397250032, 37.34878474711779 ], [ -121.888968891862945, 37.348179929210296 ], [ -121.888575910884214, 37.34754128264656 ], [ -121.88826323741479, 37.346874958725458 ], [ -121.888033880795447, 37.34618737516098 ], [ -121.888027083805198, 37.346154190944361 ], [ -121.888023802356315, 37.346138170278344 ], [ -121.887490636642013, 37.34594451758165 ], [ -121.886719483180713, 37.345587794587246 ], [ -121.885995846076185, 37.345172438484177 ], [ -121.885326695141671, 37.344702450316909 ], [ -121.884718474983359, 37.344182357310089 ], [ -121.884177042923341, 37.343617169231081 ], [ -121.883707612596737, 37.343012330105338 ], [ -121.883433515681077, 37.342566793103721 ], [ -121.883268846146706, 37.342394891034807 ], [ -121.882799430850767, 37.341790048237947 ], [ -121.882406536210652, 37.341151380803218 ], [ -121.882364349481676, 37.341061452862668 ], [ -121.88196738340433, 37.340647032588784 ], [ -121.881742235067435, 37.34035691256657 ], [ -121.881497989623625, 37.340042184531882 ], [ -121.881438202817719, 37.339944993555754 ], [ -121.881256536999743, 37.33971090014775 ], [ -121.881222515661136, 37.339655593608995 ], [ -121.880885864866471, 37.339221782251144 ], [ -121.880515948847304, 37.338620415758818 ], [ -121.880236190838161, 37.338328336782908 ], [ -121.879766825635883, 37.337723481730364 ], [ -121.879651769370653, 37.337536428473214 ], [ -121.879642813749271, 37.337527078119201 ], [ -121.879173458382979, 37.336922220668939 ], [ -121.878780620328044, 37.336283540941267 ], [ -121.878468081309052, 37.335617190554416 ], [ -121.878438686963676, 37.335529019409456 ], [ -121.880729, 37.334381 ], [ -121.881916254078277, 37.333869898431779 ], [ -121.88393, 37.333003 ], [ -121.882238085781125, 37.330728955221929 ], [ -121.882238085781125, 37.330728955221922 ], [ -121.881756, 37.330081 ], [ -121.883332, 37.329332 ], [ -121.884891, 37.328588 ], [ -121.884094, 37.327403 ], [ -121.88406336476703, 37.32736451139322 ], [ -121.88406336476703, 37.327364511393213 ], [ -121.883228, 37.326315 ], [ -121.883049, 37.326078 ], [ -121.882701040190113, 37.325610739683867 ], [ -121.883217261914993, 37.325142157673866 ], [ -121.883519580732397, 37.324916746800639 ], [ -121.883238850721895, 37.324676622262309 ], [ -121.882697571159198, 37.324111426871589 ], [ -121.882228275321012, 37.32350658131201 ], [ -121.881835481675822, 37.322867911463433 ], [ -121.881522971521179, 37.322201568849131 ], [ -121.88129375262605, 37.321513971363053 ], [ -121.881270625379983, 37.321400972089208 ], [ -121.881250450652985, 37.321340452338603 ], [ -121.881106729103962, 37.32063822235483 ], [ -121.881049885730761, 37.319928123136705 ], [ -121.881064429502473, 37.3195899090843 ], [ -121.881080465500261, 37.319216993454006 ], [ -121.881168399263629, 37.318690081119321 ], [ -121.8807957854428, 37.318554667482118 ], [ -121.880024946525353, 37.318197900028885 ], [ -121.879301611800997, 37.317782502115335 ], [ -121.879301557869226, 37.317782464216563 ], [ -121.87930136990326, 37.317782356269944 ], [ -121.878632506274954, 37.317312329342151 ], [ -121.878024555578733, 37.316792200999821 ], [ -121.87748337254132, 37.316226981350844 ], [ -121.877014168399782, 37.315622114724874 ], [ -121.876886324805113, 37.315414195224498 ], [ -121.876693521242814, 37.315212820773418 ], [ -121.876655107679312, 37.315163299405974 ], [ -121.876642848040561, 37.315150494710402 ], [ -121.876331378181447, 37.314748954726944 ], [ -121.87617365745804, 37.314545624694162 ], [ -121.875780962635261, 37.313906934331193 ], [ -121.875468543918174, 37.313240575342249 ], [ -121.875239408195398, 37.312552965779041 ], [ -121.875095760012343, 37.311850728189697 ], [ -121.875038980423199, 37.311140625821331 ], [ -121.875069613781093, 37.310429497473955 ], [ -121.875187362590438, 37.309724191634345 ] ] ], [ [ [ -121.921550986741508, 37.317238646775991 ], [ -121.920716813341144, 37.317488505967283 ], [ -121.91987381934581, 37.317668055292465 ], [ -121.919873347455777, 37.317679163720115 ], [ -121.919756007800331, 37.318384514179911 ], [ -121.919552665611505, 37.319077282115586 ], [ -121.919265276958726, 37.319750795353187 ], [ -121.918896607582951, 37.320398566987478 ], [ -121.918450206336985, 37.321014357877587 ], [ -121.918018202997303, 37.321494598513532 ], [ -121.917933649981933, 37.321611232350861 ], [ -121.917413806570366, 37.32218910893021 ], [ -121.916825534396679, 37.322723506975514 ], [ -121.916174498524882, 37.323209278959695 ], [ -121.915745394938298, 37.323471561998794 ], [ -121.913747, 37.323489 ], [ -121.913738, 37.321599 ], [ -121.913733, 37.320753 ], [ -121.913768, 37.317896 ], [ -121.914118643518407, 37.317146679604484 ], [ -121.914425, 37.316492 ], [ -121.915001, 37.315221 ], [ -121.91845, 37.316501 ], [ -121.919142, 37.316624 ], [ -121.919882138458675, 37.316702177655792 ], [ -121.919882138458675, 37.316702177655799 ], [ -121.920013, 37.316716 ], [ -121.921648, 37.316771 ], [ -121.922690233168524, 37.31675637507071 ], [ -121.922350473216596, 37.316924682456808 ], [ -121.921550986741508, 37.317238646775991 ] ] ], [ [ [ -121.864414118130426, 37.350540603931705 ], [ -121.864643270726916, 37.351228233546571 ], [ -121.864786896373687, 37.35193048276723 ], [ -121.864843609518289, 37.352640588864453 ], [ -121.864835644742655, 37.352824794193126 ], [ -121.864812861514125, 37.353351713253893 ], [ -121.864694945998906, 37.354057007350555 ], [ -121.864490996162218, 37.354749678527185 ], [ -121.864202973924549, 37.355423055540712 ], [ -121.863833651128587, 37.356070652797122 ], [ -121.863386582920569, 37.356686232834392 ], [ -121.86286607357502, 37.357263866421455 ], [ -121.862277135089883, 37.357797989692799 ], [ -121.861625438948693, 37.358283457767776 ], [ -121.861223771634343, 37.358528558961552 ], [ -121.860917261513165, 37.358715594336161 ], [ -121.860159423571915, 37.359090236731646 ], [ -121.859359224627454, 37.359403776057192 ], [ -121.85852437255528, 37.359653191974814 ], [ -121.85850061249657, 37.35965823636537 ], [ -121.858254413383534, 37.359731787779047 ], [ -121.858109814600766, 37.359774986329832 ], [ -121.857248348940502, 37.359957873130952 ], [ -121.856368570982681, 37.360072471977617 ], [ -121.85547895582971, 37.360117678905716 ], [ -121.854588073430691, 37.360093058422301 ], [ -121.853704505953033, 37.359998847704531 ], [ -121.852836765036244, 37.359835954312864 ], [ -121.852637801527806, 37.359781704195804 ], [ -121.852435970846571, 37.360466729300292 ], [ -121.852147817900033, 37.361140076496554 ], [ -121.851778362331899, 37.361787635582459 ], [ -121.851540860353523, 37.362114536158586 ], [ -121.85133116056727, 37.36240316946347 ], [ -121.850810518167322, 37.362980749352936 ], [ -121.850221448411858, 37.363514811902512 ], [ -121.849569624049153, 37.364000212816279 ], [ -121.848861322676456, 37.364432276430911 ], [ -121.848103366276732, 37.364806840782791 ], [ -121.847303055493967, 37.365120297726669 ], [ -121.846468099281552, 37.365369627718124 ], [ -121.846098442141468, 37.365448060603896 ], [ -121.846053644706117, 37.365461437375167 ], [ -121.845192083953521, 37.365644235534283 ], [ -121.844505942994843, 37.365733532192728 ], [ -121.844312220532089, 37.365758743876086 ], [ -121.843422530367917, 37.365803859308294 ], [ -121.842531584132871, 37.365779147219421 ], [ -121.841647964609564, 37.36568484566908 ], [ -121.840780183938861, 37.365521863092717 ], [ -121.839936601551003, 37.3652917695429 ], [ -121.839125343574239, 37.364996781551874 ], [ -121.838354224499824, 37.36463974076193 ], [ -121.837630671861646, 37.364224086530029 ], [ -121.836961654657458, 37.363753822771955 ], [ -121.836353616203212, 37.3632334793664 ], [ -121.83581241206835, 37.362668068492027 ], [ -121.835457889405873, 37.362210871889054 ], [ -121.835343253690212, 37.362063036319356 ], [ -121.834950658210133, 37.361424210524682 ], [ -121.834638405013663, 37.360757744132208 ], [ -121.834409499391597, 37.360070056227002 ], [ -121.834266143669524, 37.359367770110786 ], [ -121.834209716081361, 37.358657649496969 ], [ -121.834240757586826, 37.357946533360391 ], [ -121.834358966756724, 37.357241270069437 ], [ -121.834563202771136, 37.356548651435084 ], [ -121.834851496498402, 37.355875347312164 ], [ -121.835221069544616, 37.355227841381861 ], [ -121.83566836108659, 37.354612368733683 ], [ -121.836189062227248, 37.354034855846756 ], [ -121.836778157540067, 37.353500863547637 ], [ -121.837429973400788, 37.353015533492595 ], [ -121.837813080773628, 37.352781861433677 ], [ -121.83813823263948, 37.3525835386883 ], [ -121.838896114986525, 37.352209038526205 ], [ -121.839696322730347, 37.351895638761974 ], [ -121.840531150955684, 37.351646356824162 ], [ -121.840900745650643, 37.351567941435867 ], [ -121.840945535677804, 37.351554566623903 ], [ -121.841806944337748, 37.351371799538704 ], [ -121.842686642164111, 37.351257309913912 ], [ -121.843576159545123, 37.351212200032933 ], [ -121.844466932410114, 37.351236904203382 ], [ -121.845350384611493, 37.351331184579244 ], [ -121.846218010422263, 37.351494133448874 ], [ -121.846416947526464, 37.351548393222963 ], [ -121.846618808974171, 37.350863379436845 ], [ -121.846906972115221, 37.350190045485661 ], [ -121.84727641255445, 37.349542501376824 ], [ -121.847723570745458, 37.348926982567626 ], [ -121.848244139075106, 37.348349415981872 ], [ -121.848833103395421, 37.347815362963274 ], [ -121.849484791343045, 37.347329965752827 ], [ -121.84999946973187, 37.347015935613022 ], [ -121.850192926979332, 37.346897898003931 ], [ -121.850950691224213, 37.346523319810366 ], [ -121.851750787502795, 37.34620983767914 ], [ -121.852585511972563, 37.345960469831837 ], [ -121.852609268074616, 37.345955426636685 ], [ -121.853000002282329, 37.345838694928361 ], [ -121.853861315548755, 37.345655839217422 ], [ -121.854740927597192, 37.345541259104827 ], [ -121.855630369641389, 37.345496057745166 ], [ -121.856521078335774, 37.345520670326799 ], [ -121.857404478150414, 37.345614859885494 ], [ -121.858185998909917, 37.345761563817405 ], [ -121.859173, 37.346813 ], [ -121.860072139906137, 37.346369893512708 ], [ -121.860697645959846, 37.346659430617287 ], [ -121.861421156802265, 37.347074942852203 ], [ -121.862090178586712, 37.347545067419233 ], [ -121.8626982685836, 37.348065277743331 ], [ -121.863239570382291, 37.348630564901818 ], [ -121.863515151466146, 37.348985785003279 ], [ -121.863708870298083, 37.349235485825176 ], [ -121.864101647608067, 37.349874215680082 ], [ -121.864414118130426, 37.350540603931705 ] ] ], [ [ [ -121.912073813291883, 37.354597461282914 ], [ -121.912917496846291, 37.354827035883226 ], [ -121.913728935509511, 37.355121513363684 ], [ -121.914500316319575, 37.355478058490675 ], [ -121.915224211696412, 37.355893238397861 ], [ -121.915893650925923, 37.356363055613492 ], [ -121.916502187261173, 37.356882986522209 ], [ -121.917043959995837, 37.357448024892292 ], [ -121.917513750912491, 37.358052730050375 ], [ -121.917907034561807, 37.358691279241519 ], [ -121.91822002188772, 37.359357523671434 ], [ -121.91832514712398, 37.359672214144844 ], [ -121.918336011501538, 37.359695340333921 ], [ -121.918565688496173, 37.360382864115863 ], [ -121.918709838636531, 37.361085046833743 ], [ -121.918767071319365, 37.361795126399798 ], [ -121.91873683289441, 37.362506264486271 ], [ -121.918724456473598, 37.362580609764684 ], [ -121.919526257822895, 37.362871511649764 ], [ -121.920297746333645, 37.363228018489743 ], [ -121.921021749036143, 37.363643162434016 ], [ -121.921691294183077, 37.364112946357032 ], [ -121.922299934007825, 37.364632846964049 ], [ -121.922841806807725, 37.365197858315035 ], [ -121.923311693401828, 37.365802539996842 ], [ -121.923705067419462, 37.366441069480615 ], [ -121.924018138934088, 37.367107298161834 ], [ -121.924100060910547, 37.367352443788739 ], [ -121.924165750600267, 37.367492231620574 ], [ -121.924395505229711, 37.368179743699983 ], [ -121.924539725222758, 37.368881918960852 ], [ -121.924554894733291, 37.369069922883234 ], [ -121.924710786931229, 37.369141947512617 ], [ -121.925434871485407, 37.369557064075224 ], [ -121.92610449740134, 37.370026822648413 ], [ -121.9267132161349, 37.370546700181464 ], [ -121.92725516522367, 37.371111690956567 ], [ -121.927725124752101, 37.371716354758682 ], [ -121.928118567647161, 37.372354869231117 ], [ -121.928431703318992, 37.373021085913955 ], [ -121.928527070522975, 37.373306388536847 ], [ -121.928579000416221, 37.373416870792937 ], [ -121.928726734548619, 37.373858827854967 ], [ -121.927392, 37.373543 ], [ -121.923694581927961, 37.372838175312715 ], [ -121.919455, 37.37203 ], [ -121.918321, 37.373022 ], [ -121.917202, 37.371741 ], [ -121.916876, 37.37166 ], [ -121.911177, 37.369861 ], [ -121.909755124545072, 37.369152748435233 ], [ -121.909755124545057, 37.369152748435233 ], [ -121.909589, 37.36907 ], [ -121.906818189561903, 37.366885178914359 ], [ -121.904766, 37.365267 ], [ -121.904164, 37.364941 ], [ -121.902359, 37.364215 ], [ -121.90178, 37.364029 ], [ -121.902777, 37.362562 ], [ -121.904626, 37.360777 ], [ -121.907021, 37.358395 ], [ -121.911009415302829, 37.354414133152915 ], [ -121.91120600800987, 37.354434999887317 ], [ -121.912073813291883, 37.354597461282914 ] ] ], [ [ [ -121.90178, 37.364029 ], [ -121.901410937663869, 37.364886704310322 ], [ -121.901345052722178, 37.36477969417659 ], [ -121.901032193193799, 37.364113404894624 ], [ -121.900934341186414, 37.363820286627714 ], [ -121.90178, 37.364029 ] ] ], [ [ [ -122.036096904558889, 37.410607533333611 ], [ -122.035894390978299, 37.411300499262069 ], [ -122.035792663109945, 37.411539584054424 ], [ -122.035598001007685, 37.412205665697115 ], [ -122.035311301050413, 37.412879459703802 ], [ -122.034943179023159, 37.413527592735512 ], [ -122.034497178498725, 37.414143822173209 ], [ -122.033977593459483, 37.414722212533931 ], [ -122.033389426991945, 37.415257192665777 ], [ -122.032738343135108, 37.415743609437015 ], [ -122.032030612345295, 37.416176777401247 ], [ -122.031273051101863, 37.416552523958799 ], [ -122.030472956236054, 37.416867229577903 ], [ -122.029638034616255, 37.41711786268668 ], [ -122.028776328868176, 37.417302008899199 ], [ -122.027896139847968, 37.417417894292278 ], [ -122.027005946617578, 37.417464402508372 ], [ -122.026114324695897, 37.417441085518917 ], [ -122.025229863376765, 37.41734816794407 ], [ -122.024361082913941, 37.417186544886931 ], [ -122.024269061095808, 37.417161623357472 ], [ -122.024113201812327, 37.417278040005726 ], [ -122.023405406424274, 37.41771115589593 ], [ -122.022647786193474, 37.418086846722467 ], [ -122.021847638519759, 37.418401493490265 ], [ -122.021012670780436, 37.418652065194443 ], [ -122.020150926045801, 37.418836148040548 ], [ -122.019270705547797, 37.418951968715817 ], [ -122.018380488651744, 37.418998411486122 ], [ -122.017488851104559, 37.418975028953398 ], [ -122.016604382350735, 37.418882046369163 ], [ -122.015735602715523, 37.418720359462789 ], [ -122.014890881257116, 37.418491525805351 ], [ -122.014078355082077, 37.418197749792398 ], [ -122.013748336348044, 37.418045713025883 ], [ -122.013646777129253, 37.418008992415452 ], [ -122.012874276962862, 37.417653101168355 ], [ -122.012149239896203, 37.417238525963597 ], [ -122.011478649232828, 37.416769260323711 ], [ -122.010868963451586, 37.41624982451399 ], [ -122.010630058043702, 37.416001373139508 ], [ -122.010361951752486, 37.415994325665785 ], [ -122.009477527197276, 37.415901289340454 ], [ -122.008608797694222, 37.415739549632356 ], [ -122.007764131818348, 37.41551066462123 ], [ -122.006951666140537, 37.415216839197306 ], [ -122.006179226791815, 37.414860903804012 ], [ -122.005454254030496, 37.414446287150575 ], [ -122.004783730540382, 37.41397698315879 ], [ -122.004174114153074, 37.413457512463367 ], [ -122.003631275643073, 37.412892878837994 ], [ -122.003160442195394, 37.412288520968396 ], [ -122.002766147089673, 37.411650260038108 ], [ -122.002452186084909, 37.410984243633159 ], [ -122.002248297281312, 37.41037651906872 ], [ -122.001717378215091, 37.410489855460121 ], [ -122.000837227547819, 37.410605537914222 ], [ -121.999947098733614, 37.410651840855799 ], [ -121.999055566670677, 37.410628318233734 ], [ -121.998171219786983, 37.410535196649093 ], [ -121.997839824480934, 37.410473460311323 ], [ -121.997714781539017, 37.410460292382652 ], [ -121.996846140846429, 37.410298465523638 ], [ -121.996001572607383, 37.41006949575052 ], [ -121.995675871591288, 37.409951659097025 ], [ -121.995782, 37.409928 ], [ -122.002031359473236, 37.408574112486086 ], [ -122.004686, 37.407999 ], [ -122.00479, 37.407976 ], [ -122.006109, 37.407689 ], [ -122.007376691314761, 37.407402144899315 ], [ -122.007376691314761, 37.407402144899322 ], [ -122.00964, 37.40689 ], [ -122.018718510988464, 37.404818631782291 ], [ -122.018954730918225, 37.404764735448907 ], [ -122.019984337495885, 37.404529818693902 ], [ -122.020274607360093, 37.404583841018216 ], [ -122.020447625640713, 37.404426491470772 ], [ -122.02436559237016, 37.403666340935288 ], [ -122.02713, 37.40313 ], [ -122.029954723949075, 37.402420157514349 ], [ -122.032916, 37.401676 ], [ -122.035491, 37.400811 ], [ -122.035937, 37.400637 ], [ -122.037361, 37.400906 ], [ -122.037273, 37.401432 ], [ -122.037163139872774, 37.409374480309523 ], [ -122.036427784145204, 37.409531693410784 ], [ -122.036227383527205, 37.409558094276029 ], [ -122.036213289833285, 37.409902070326673 ], [ -122.036096904558889, 37.410607533333611 ] ] ], [ [ [ -122.169179097909705, 37.723789289859546 ], [ -122.168892407308277, 37.724463385560959 ], [ -122.168523907317308, 37.725111913884263 ], [ -122.168077145130383, 37.725728628407623 ], [ -122.167942442251388, 37.725878396410387 ], [ -122.164245, 37.722651 ], [ -122.164415486913313, 37.722604607066991 ], [ -122.166088507414571, 37.722149344393031 ], [ -122.16724, 37.721836 ], [ -122.168104, 37.721626 ], [ -122.169491242955502, 37.721281509065399 ], [ -122.169524815620136, 37.721679376943207 ], [ -122.169496829687617, 37.722390549892353 ], [ -122.169381220132891, 37.723096119288307 ], [ -122.169179097909705, 37.723789289859546 ] ] ] ] } }
]
}
