{
"type": "FeatureCollection",
"name": "at_risk_tier1",
"crs": { "type": "name", "properties": { "name": "urn:ogc:def:crs:OGC:1.3:CRS84" } },
"features": [
{ "type": "Feature", "properties": { "STATEFP": "06", "COUNTYFP": "001", "TRACTCE": "406202", "AFFGEOID": "1400000US06001406202", "GEOID": "06001406202", "NAME": "4062.02", "NAMELSAD": "Census Tract 4062.02", "STUSPS": "CA", "NAMELSADCO": "Alameda County", "STATE_NAME": "California", "LSAD": "CT", "ALAND": 392183, "AWATER": 0, "pop_23": 4958, "white_23": 223, "B19001_001E_x": 1379, "hinc_23": 51958.0, "mhval_23": 731100.0, "mhval_23_se": 140134.0, "mrent_23": 1450.0, "mrent_23_se": 203.0, "total_25_23": 3269, "total_25_col_bd_23": 369, "total_25_col_md_23": 91, "total_25_col_pd_23": 24, "state_x": 6, "county_x": 1, "tract_x": 406202, "total_25_col_phd_23": 10, "tot_units_built_23": 1467, "units_40_49_built_23": 76, "units_39_early_built_23": 214, "ohu_23": 164, "rhu_23": 1215, "mmhcosts_23": 1448.0, "iinc_23": 28814.0, "B19001_001E_y": 1379, "I_10000_23": 70, "I_15000_23": 98, "I_20000_23": 21, "I_25000_23": 79, "I_30000_23": 29, "I_35000_23": 109, "I_40000_23": 56, "I_45000_23": 51, "I_50000_23": 135, "I_60000_23": 78, "I_75000_23": 197, "I_100000_23": 147, "I_125000_23": 80, "I_150000_23": 56, "I_200000_23": 87, "I_201000_23": 86, "mov_wc_w_income_23": 279, "mov_wc_9000_23": 64, "mov_wc_15000_23": 11, "mov_wc_25000_23": 49, "mov_wc_35000_23": 12, "mov_wc_50000_23": 94, "mov_wc_65000_23": 0, "mov_wc_75000_23": 12, "mov_wc_76000_more_23": 37, "mov_oc_w_income_23": 57, "mov_oc_9000_23": 23, "mov_oc_15000_23": 0, "mov_oc_25000_23": 0, "mov_oc_35000_23": 24, "mov_oc_50000_23": 0, "mov_oc_65000_23": 10, "mov_oc_75000_23": 0, "mov_oc_76000_more_23": 0, "mov_os_w_income_23": 35, "mov_os_9000_23": 2, "mov_os_15000_23": 0, "mov_os_25000_23": 0, "mov_os_35000_23": 12, "mov_os_50000_23": 0, "mov_os_65000_23": 0, "mov_os_75000_23": 21, "mov_os_76000_more_23": 0, "mov_fa_w_income_23": 0, "mov_fa_9000_23": 0, "mov_fa_15000_23": 0, "mov_fa_25000_23": 0, "mov_fa_35000_23": 0, "mov_fa_50000_23": 0, "mov_fa_65000_23": 0, "mov_fa_75000_23": 0, "mov_fa_76000_more_23": 0, "FIPS": "06001406202", "mhval_19": 538000.0, "mhval_19_se": 106779.0, "mrent_19": 1206.0, "mrent_19_se": 100.0, "mov_wc_w_income_19": 352, "mov_wc_9000_19": 109, "mov_wc_15000_19": 77, "mov_wc_25000_19": 44, "mov_wc_35000_19": 19, "mov_wc_50000_19": 35, "mov_wc_65000_19": 27, "mov_wc_75000_19": 29, "state_y": 6, "county_y": 1, "tract_y": 406202, "mov_wc_76000_more_19": 12, "mov_oc_w_income_19": 97, "mov_oc_9000_19": 11, "mov_oc_15000_19": 0, "mov_oc_25000_19": 16, "mov_oc_35000_19": 21, "mov_oc_50000_19": 15, "mov_oc_65000_19": 15, "mov_oc_75000_19": 19, "mov_oc_76000_more_19": 0, "mov_os_w_income_19": 27, "mov_os_9000_19": 0, "mov_os_15000_19": 0, "mov_os_25000_19": 27, "mov_os_35000_19": 0, "mov_os_50000_19": 0, "mov_os_65000_19": 0, "mov_os_75000_19": 0, "mov_os_76000_more_19": 0, "mov_fa_w_income_19": 8, "mov_fa_9000_19": 8, "mov_fa_15000_19": 0, "mov_fa_25000_19": 0, "mov_fa_35000_19": 0, "mov_fa_50000_19": 0, "mov_fa_65000_19": 0, "mov_fa_75000_19": 0, "mov_fa_76000_more_19": 0, "iinc_19": 23889.0, "pct_renter": 0.88107324147933286, "pct_nonwhite": 0.95502218636546998, "pct_college": 0.15111654940348732, "rent_growth": 0.20232172470978441, "val_growth": 0.35892193308550185, "is_low_income": true, "high_renter": true, "low_education": true, "high_market_pressure": true, "at_risk_displacement": "At Risk", "parent_sta": "mtc:19th-st-oakland-bart", "stop_id": "19TH_3", "stop_name": "A2 20th and Broadway Entrance / Exit", "stop_code": "19TH_3", "stop_desc": "Pedestrian Access Point", "stop_lat": 37.80881, "stop_lon": -122.26854, "zone_id": "BA:79542", "stop_url": null, "tts_stop_n": null, "platform_c": null, "location_t": "2", "stop_timez": "America/Los_Angeles", "wheelchair": "1", "level_id": "mtc:19th-st-oakland-bart-street", "route_info": "{'route_id': None, 'route_type': None}", "station_id": "mtc:fruitvale", "OBJECTID": "152", "access_id": "mtc:BA-FTVL_2-1643433662776", "access_point_name": "Enter/Exit : Station entrance", "location_type": "2", "x": "-122.22445", "y": "37.77508" }, "geometry": { "type": "MultiPolygon", "coordinates": [ [ [ [ -122.420131868825791, 37.627590515764822 ], [ -122.420339925036458, 37.627922581233939 ], [ -122.420560855006798, 37.628383617398683 ], [ -122.420642632002412, 37.628514134028386 ], [ -122.420961249359962, 37.629179010251832 ], [ -122.421196397296967, 37.629865522433711 ], [ -122.421345809049953, 37.630567059586916 ], [ -122.421408043335092, 37.631276865850118 ], [ -122.421396303182547, 37.631603742239747 ], [ -122.422119243213913, 37.632012127763645 ], [ -122.42279435573731, 37.632479031762863 ], [ -122.423408681674431, 37.632996310735265 ], [ -122.423956304587819, 37.633558983986902 ], [ -122.424431949941038, 37.634161633622007 ], [ -122.424831035919567, 37.63479845668391 ], [ -122.425149717597947, 37.635463321006242 ], [ -122.425384924026488, 37.636149824238991 ], [ -122.425534387878201, 37.636851355481262 ], [ -122.425596667367174, 37.637561158928705 ], [ -122.425571160224933, 37.63827239892305 ], [ -122.425458109595851, 37.638978225777954 ], [ -122.42538407053739, 37.639235632617762 ], [ -122.423435, 37.640472 ], [ -122.418482, 37.642316 ], [ -122.416763, 37.639353 ], [ -122.4160034897169, 37.638046106307151 ], [ -122.413759, 37.634184 ], [ -122.41567, 37.634043 ], [ -122.418981, 37.632888 ], [ -122.4166, 37.628826 ], [ -122.419782, 37.627608 ], [ -122.420109737264539, 37.627486588861181 ], [ -122.420131868825791, 37.627590515764822 ] ] ], [ [ [ -122.409177081783326, 37.662286476427447 ], [ -122.408340688590002, 37.66253979571988 ], [ -122.407477084664649, 37.662726716809239 ], [ -122.406594589147971, 37.662845439042997 ], [ -122.405701703323714, 37.662894818736461 ], [ -122.404807028655469, 37.662874380199554 ], [ -122.403919183854484, 37.66278432032324 ], [ -122.403046721780271, 37.662625506681131 ], [ -122.402198046978782, 37.662399469164775 ], [ -122.402103850879413, 37.662365896791599 ], [ -122.404025, 37.661097 ], [ -122.404919, 37.660116 ], [ -122.406389, 37.657442 ], [ -122.409116, 37.65805 ], [ -122.41147, 37.658575 ], [ -122.410341334674015, 37.661788062741337 ], [ -122.409978207447892, 37.661969199191759 ], [ -122.409177081783326, 37.662286476427447 ] ] ], [ [ [ -122.436805282405729, 37.668962249936058 ], [ -122.436257301694511, 37.66839963926467 ], [ -122.435781341637451, 37.667797040311974 ], [ -122.435381984899536, 37.667160257324028 ], [ -122.435063075993966, 37.666495423657111 ], [ -122.434827684315465, 37.665808942679909 ], [ -122.43467807465224, 37.665107426080276 ], [ -122.434615685458056, 37.664397630171862 ], [ -122.43464111509013, 37.663686390814583 ], [ -122.434754116142145, 37.662980557576368 ], [ -122.43481668413007, 37.662762998754062 ], [ -122.435586, 37.663959 ], [ -122.439542, 37.666907 ], [ -122.442727, 37.66422 ], [ -122.444615, 37.665485 ], [ -122.445127, 37.66584 ], [ -122.445701, 37.66537 ], [ -122.44719, 37.666344 ], [ -122.448501, 37.667499 ], [ -122.449911, 37.669521 ], [ -122.450108068675476, 37.669687750417715 ], [ -122.449854607528252, 37.669878151197885 ], [ -122.449146894800691, 37.670313819059693 ], [ -122.448388859889448, 37.670692244760296 ], [ -122.44758780417493, 37.671009782964546 ], [ -122.446751443771518, 37.671263374817812 ], [ -122.445887835159226, 37.671450577434783 ], [ -122.445005297523366, 37.67156958745106 ], [ -122.444112332553217, 37.67161925840967 ], [ -122.443217542474841, 37.6715991118147 ], [ -122.442329547111655, 37.671509341744745 ], [ -122.441456900774327, 37.671350812981643 ], [ -122.440608009784683, 37.671125052672636 ], [ -122.439791051431428, 37.670834235606705 ], [ -122.439013895141272, 37.670481163247317 ], [ -122.438416323164432, 37.670143902847613 ], [ -122.438284026627784, 37.670069236724437 ], [ -122.438275544579653, 37.670063375601572 ], [ -122.438187942539869, 37.670013933736655 ], [ -122.437512392768298, 37.669547120504376 ], [ -122.437486935308058, 37.669525701948572 ], [ -122.437420007045887, 37.669479453122506 ], [ -122.436805282405729, 37.668962249936058 ] ] ], [ [ [ -122.457118075617529, 37.686328287517554 ], [ -122.456968214432379, 37.685626801382767 ], [ -122.456905595300725, 37.684917019447063 ], [ -122.456930818792983, 37.684205777436283 ], [ -122.457043639486656, 37.683499924944343 ], [ -122.457242968426101, 37.68280625947007 ], [ -122.457526883703252, 37.682131460963028 ], [ -122.457892649053449, 37.681482027508473 ], [ -122.458336740284281, 37.680864212769961 ], [ -122.458854879279642, 37.680283965791467 ], [ -122.459442075249399, 37.679746873737479 ], [ -122.459458715397517, 37.679734372844401 ], [ -122.459762078370034, 37.679456890701353 ], [ -122.460412671306457, 37.678968123296116 ], [ -122.460997220530928, 37.678608228385627 ], [ -122.461346226121933, 37.678288981801764 ], [ -122.461996798433319, 37.677800205559308 ], [ -122.462704507119597, 37.677364460937554 ], [ -122.463462537186572, 37.676985943440314 ], [ -122.464263589479685, 37.676668297509288 ], [ -122.465099950936917, 37.676414581460293 ], [ -122.465963568811858, 37.676227238060356 ], [ -122.466846128154074, 37.676108071027656 ], [ -122.467739131803697, 37.676058227680194 ], [ -122.46860491699276, 37.67607753958184 ], [ -122.470537, 37.678445 ], [ -122.470694, 37.682109 ], [ -122.466448, 37.682521 ], [ -122.463522, 37.682523 ], [ -122.465348, 37.683921 ], [ -122.464121, 37.685376 ], [ -122.459672, 37.685397 ], [ -122.458691, 37.684925 ], [ -122.457222881483773, 37.686633564702035 ], [ -122.457118075617529, 37.686328287517554 ] ] ], [ [ [ -122.471705, 37.682609 ], [ -122.472362, 37.677088 ], [ -122.472404294696105, 37.67699804102029 ], [ -122.472838390719886, 37.67719507792107 ], [ -122.473568520466586, 37.677606789772895 ], [ -122.474244369673102, 37.678073395530191 ], [ -122.474859429893385, 37.678590402501186 ], [ -122.475407777620987, 37.67915283261101 ], [ -122.475884131341004, 37.6797552703054 ], [ -122.476283902418118, 37.680391914668839 ], [ -122.476603239329322, 37.681056635256276 ], [ -122.4768390648143, 37.681743031102457 ], [ -122.476989105582888, 37.682444492341368 ], [ -122.477051914291167, 37.683154263843747 ], [ -122.477026883571327, 37.68386551025997 ], [ -122.476914251976368, 37.684571381842964 ], [ -122.476715101779021, 37.685265080417224 ], [ -122.47643134864235, 37.685939924858282 ], [ -122.476269331320552, 37.686227729619638 ], [ -122.475332, 37.686062 ], [ -122.47431, 37.687879 ], [ -122.471131, 37.687895 ], [ -122.471511, 37.686305 ], [ -122.471561, 37.685009 ], [ -122.471624, 37.683935 ], [ -122.471672, 37.683156 ], [ -122.471705, 37.682609 ] ] ], [ [ [ -122.462455414403792, 37.700911979028483 ], [ -122.463106177354916, 37.700423198330057 ], [ -122.463814094852793, 37.699987448529917 ], [ -122.46457234989262, 37.699608925181941 ], [ -122.465373641153789, 37.699291272784322 ], [ -122.4662102532738, 37.699037549715356 ], [ -122.467074131093256, 37.698850198809772 ], [ -122.467956957159714, 37.698731023858137 ], [ -122.468850231745904, 37.698681172254723 ], [ -122.469745354615924, 37.698701123959815 ], [ -122.470633707754587, 37.698790686882901 ], [ -122.471506738267237, 37.698948998730373 ], [ -122.471639777043592, 37.698984327854276 ], [ -122.4717, 37.700079 ], [ -122.472211, 37.701566 ], [ -122.477401741679856, 37.702762212274344 ], [ -122.477633368126476, 37.703130955209133 ], [ -122.477770732853344, 37.703416788064551 ], [ -122.472602, 37.704885 ], [ -122.471724, 37.705024 ], [ -122.471743, 37.701518 ], [ -122.469834, 37.701872 ], [ -122.466574, 37.701478 ], [ -122.466344, 37.701277 ], [ -122.463482, 37.701288 ], [ -122.462974, 37.703169 ], [ -122.462217, 37.703155 ], [ -122.462149910426717, 37.701191352895862 ], [ -122.462455414403792, 37.700911979028483 ] ] ], [ [ [ -122.476971132019472, 37.709946320919599 ], [ -122.476514348761427, 37.71045786165503 ], [ -122.476513773406751, 37.710458662128602 ], [ -122.475995561947883, 37.711038984118019 ], [ -122.4754082384257, 37.711576156136765 ], [ -122.474757458735084, 37.712065003948076 ], [ -122.474049490380608, 37.71250081869551 ], [ -122.473291152111727, 37.712879402289687 ], [ -122.472851946273437, 37.713053519424875 ], [ -122.472269, 37.712838 ], [ -122.471355, 37.712802 ], [ -122.471215, 37.708939 ], [ -122.471329, 37.708233 ], [ -122.477991189567987, 37.708179090588594 ], [ -122.477780960141487, 37.708678944422196 ], [ -122.477415234724418, 37.709328436934385 ], [ -122.476971132019472, 37.709946320919599 ] ] ], [ [ [ -122.404348, 37.710443 ], [ -122.404821, 37.709747 ], [ -122.405365, 37.708255 ], [ -122.406481, 37.708323 ], [ -122.41077273785659, 37.708308449269857 ], [ -122.410802598751076, 37.708649223033476 ], [ -122.41077692570029, 37.709360452407559 ], [ -122.410663626534301, 37.710066257682605 ], [ -122.41046378995415, 37.710759841320332 ], [ -122.410179338233149, 37.71143452330206 ], [ -122.409866163576751, 37.711989593954009 ], [ -122.409813008791247, 37.71208380547732 ], [ -122.409368327909377, 37.712701434167521 ], [ -122.408849576833532, 37.71328146042061 ], [ -122.408261750593311, 37.713818297335287 ], [ -122.407610509928546, 37.714306773901768 ], [ -122.406902126786861, 37.714742184839054 ], [ -122.406275836232737, 37.715054339275333 ], [ -122.406143423915921, 37.71512033594707 ], [ -122.406000631595219, 37.715176840658174 ], [ -122.405341709132216, 37.715437584535898 ], [ -122.404504704901015, 37.715690874540954 ], [ -122.403640473906449, 37.715877765984821 ], [ -122.402757341331466, 37.71599645850079 ], [ -122.401863814598485, 37.716045808690637 ], [ -122.401850355087774, 37.716045501046423 ], [ -122.401844783987912, 37.716045808720587 ], [ -122.400949470741637, 37.716025341033863 ], [ -122.400060995859377, 37.715935252786657 ], [ -122.399187918272148, 37.715776411825772 ], [ -122.398798730891215, 37.715672815692152 ], [ -122.401155, 37.712727 ], [ -122.402546, 37.712266 ], [ -122.403109, 37.711998 ], [ -122.404348, 37.710443 ] ] ], [ [ [ -122.441681157167011, 37.715307206309362 ], [ -122.442295310660171, 37.714929427020522 ], [ -122.441896, 37.715308 ], [ -122.440999, 37.716488 ], [ -122.440418, 37.717245 ], [ -122.43983816676851, 37.71703229130862 ], [ -122.439923975433857, 37.716913027445983 ], [ -122.440442509376581, 37.716332864722638 ], [ -122.441030123084587, 37.715795867476913 ], [ -122.441681157167011, 37.715307206309362 ] ] ], [ [ [ -122.456742405709022, 37.720663830545966 ], [ -122.456717168043525, 37.721375068487077 ], [ -122.456672128599578, 37.721656702319805 ], [ -122.456667218503483, 37.721795072225746 ], [ -122.456611122123249, 37.722145841784723 ], [ -122.456597309531574, 37.722535077254513 ], [ -122.456484425355526, 37.723240925032464 ], [ -122.456284980912557, 37.723934584859293 ], [ -122.456282303493211, 37.723940944544182 ], [ -122.453105, 37.72327 ], [ -122.452335, 37.72318 ], [ -122.451596, 37.723033 ], [ -122.449546, 37.723011 ], [ -122.451646, 37.719686 ], [ -122.452506, 37.72003 ], [ -122.456686131720815, 37.720026252123382 ], [ -122.456742405709022, 37.720663830545966 ] ] ], [ [ [ -122.425729428282168, 37.729884969191133 ], [ -122.426174076009048, 37.729267280458352 ], [ -122.42669280345153, 37.728687179418294 ], [ -122.426723736134093, 37.728658924385499 ], [ -122.43039, 37.728547 ], [ -122.431294, 37.72873 ], [ -122.430199, 37.729872 ], [ -122.429304, 37.730742 ], [ -122.428038, 37.732016 ], [ -122.425563, 37.731579 ], [ -122.424958739725085, 37.731625720514785 ], [ -122.42507875159545, 37.731209013589691 ], [ -122.425363143746523, 37.730534297786114 ], [ -122.425729428282168, 37.729884969191133 ] ] ], [ [ [ -122.420507, 37.750506 ], [ -122.420665, 37.752104 ], [ -122.420812, 37.753703 ], [ -122.420964, 37.755295 ], [ -122.418748, 37.755437 ], [ -122.416567, 37.755568 ], [ -122.416413, 37.753968 ], [ -122.416108, 37.750771 ], [ -122.41587, 37.748267 ], [ -122.418206, 37.748203 ], [ -122.420282, 37.748161 ], [ -122.420507, 37.750506 ] ] ], [ [ [ -122.424929, 37.770778 ], [ -122.425032620275431, 37.771125652244834 ], [ -122.424765956140291, 37.771289496957948 ], [ -122.424006766690823, 37.771667759518301 ], [ -122.423590633377785, 37.771832380575347 ], [ -122.423665, 37.771781 ], [ -122.424929, 37.770778 ] ] ], [ [ [ -122.422351877382866, 37.77505168961433 ], [ -122.419359, 37.775432 ], [ -122.419334, 37.77521 ], [ -122.421087184766009, 37.773795526596572 ], [ -122.421427574581585, 37.774081606517122 ], [ -122.421474610166328, 37.77412984465461 ], [ -122.421607577787469, 37.774241595457738 ], [ -122.422156228317277, 37.774804264711911 ], [ -122.422351877382866, 37.77505168961433 ] ] ], [ [ [ -122.404933, 37.7815 ], [ -122.404845215420409, 37.781569399135059 ], [ -122.404746314039059, 37.781647586788893 ], [ -122.403900990279482, 37.782315867459957 ], [ -122.402708, 37.783259 ], [ -122.400468, 37.78503 ], [ -122.39893, 37.783785 ], [ -122.398589313633096, 37.783513377644013 ], [ -122.397386, 37.782554 ], [ -122.399616, 37.780791 ], [ -122.401843, 37.779032 ], [ -122.403387, 37.780265 ], [ -122.403514628229786, 37.780368893857229 ], [ -122.403672, 37.780497 ], [ -122.403921, 37.780699 ], [ -122.404933, 37.7815 ] ] ], [ [ [ -122.420175530582654, 37.785264233608729 ], [ -122.419466544344118, 37.785699714849535 ], [ -122.418707180609118, 37.786077942310442 ], [ -122.418127069269559, 37.786307355273848 ], [ -122.417996, 37.785642 ], [ -122.417901, 37.785167 ], [ -122.417707, 37.784236 ], [ -122.419364, 37.784029 ], [ -122.421069, 37.783816 ], [ -122.421194689607646, 37.784440415216565 ], [ -122.42082731076836, 37.78477569346456 ], [ -122.420175530582654, 37.785264233608729 ] ] ], [ [ [ -122.408786, 37.79016 ], [ -122.411225714652119, 37.789848547065688 ], [ -122.412076, 37.78974 ], [ -122.414544242888638, 37.789425478758119 ], [ -122.414357302644078, 37.789596049620734 ], [ -122.413800997786581, 37.790012941942344 ], [ -122.413535719934202, 37.790309273371172 ], [ -122.412947317894904, 37.790846126620131 ], [ -122.412387183738574, 37.791265868136428 ], [ -122.41229543260026, 37.791334622668685 ], [ -122.411652911246776, 37.791729177787637 ], [ -122.411586342206064, 37.791770056048939 ], [ -122.410826876272225, 37.792148232345355 ], [ -122.410172409086201, 37.792406973913089 ], [ -122.409875074115689, 37.792819504596288 ], [ -122.409431217717611, 37.793315253651777 ], [ -122.409355767362698, 37.793399525146675 ], [ -122.408767310622878, 37.793936357235999 ], [ -122.408678089108719, 37.79400320796519 ], [ -122.408385159556104, 37.794409601265563 ], [ -122.408047246098945, 37.794787000338665 ], [ -122.407903, 37.79406 ], [ -122.406650161377854, 37.79421993684538 ], [ -122.406305, 37.794264 ], [ -122.404796, 37.794453 ], [ -122.404613, 37.793565 ], [ -122.401315, 37.793987 ], [ -122.400149, 37.794134 ], [ -122.396586, 37.794588 ], [ -122.396315, 37.793337 ], [ -122.397428, 37.792442 ], [ -122.399195, 37.791058 ], [ -122.401402, 37.789297 ], [ -122.402914, 37.788112 ], [ -122.403456, 37.787776 ], [ -122.404743, 37.786778 ], [ -122.406062, 37.785757 ], [ -122.407451, 37.784604 ], [ -122.407698, 37.784699 ], [ -122.407853, 37.785492 ], [ -122.408055825109557, 37.786504498608402 ], [ -122.408227, 37.787359 ], [ -122.408402, 37.788293 ], [ -122.408595, 37.789226 ], [ -122.408786, 37.79016 ] ] ], [ [ [ -122.33082795896992, 37.57438986885996 ], [ -122.330120457891312, 37.574824826324345 ], [ -122.329835191816258, 37.574967018909028 ], [ -122.330666, 37.573862 ], [ -122.331167960607544, 37.574134778351869 ], [ -122.33082795896992, 37.57438986885996 ] ] ], [ [ [ -122.335030715892927, 37.576171316398394 ], [ -122.335078670723306, 37.576104710530771 ], [ -122.335111149541973, 37.576047162400187 ], [ -122.335163461677567, 37.575974503649093 ], [ -122.338699, 37.577483 ], [ -122.334553, 37.580398 ], [ -122.334173897642415, 37.580660807673013 ], [ -122.334100751888045, 37.580315180414424 ], [ -122.334039392261801, 37.57960532373626 ], [ -122.334065753364058, 37.5788940986344 ], [ -122.334179578823964, 37.578188354537275 ], [ -122.334379770017918, 37.577494887897068 ], [ -122.334664396743122, 37.576820376745722 ], [ -122.335030715892927, 37.576171316398394 ] ] ], [ [ [ -122.402910008488945, 37.798420614632313 ], [ -122.402607316207977, 37.798696696073257 ], [ -122.402325065433971, 37.798908133735701 ], [ -122.402041, 37.797505 ], [ -122.404504330185318, 37.797192826819831 ], [ -122.404467310971384, 37.797226593729654 ], [ -122.403815313886511, 37.797715042328811 ], [ -122.403793975939649, 37.797728141932723 ], [ -122.403587312514063, 37.797916642468806 ], [ -122.402935303582368, 37.79840508614091 ], [ -122.402910008488945, 37.798420614632313 ] ] ], [ [ [ -122.27014, 37.796524 ], [ -122.272515, 37.797457 ], [ -122.274624889583478, 37.798171049408623 ], [ -122.274935, 37.798276 ], [ -122.275061, 37.798321 ], [ -122.273753972840495, 37.800428743055484 ], [ -122.273445, 37.800927 ], [ -122.272679049085951, 37.802096294354186 ], [ -122.27211, 37.802965 ], [ -122.271274, 37.804361 ], [ -122.267013835114525, 37.81116515408759 ], [ -122.266771, 37.811553 ], [ -122.265421, 37.811468 ], [ -122.262463, 37.810945 ], [ -122.263236301115029, 37.808325890228929 ], [ -122.263564, 37.807216 ], [ -122.265449, 37.806338 ], [ -122.264778, 37.805119 ], [ -122.26496529530435, 37.804826685542857 ], [ -122.266458, 37.802497 ], [ -122.267312, 37.801081 ], [ -122.268596, 37.799002 ], [ -122.27014, 37.796524 ] ] ], [ [ [ -122.281417008257179, 37.80094324399542 ], [ -122.28156175819538, 37.80162751743574 ], [ -122.281622799621502, 37.802337377461491 ], [ -122.281595856909902, 37.803048566572549 ], [ -122.281481187019622, 37.803754235569684 ], [ -122.281279891848158, 37.804447588224654 ], [ -122.280993907713167, 37.805121946741203 ], [ -122.280670733677198, 37.805691900659433 ], [ -122.280640035046616, 37.805797634667783 ], [ -122.280354039900601, 37.806471991462907 ], [ -122.279986106697791, 37.80712085864441 ], [ -122.279903303582515, 37.807235349201122 ], [ -122.279824128930116, 37.807422030338365 ], [ -122.279673487899913, 37.807687685279774 ], [ -122.279456186388657, 37.808070895751477 ], [ -122.279009846740649, 37.808688021521121 ], [ -122.278644966475312, 37.809094268441861 ], [ -122.278600388241415, 37.809247786113978 ], [ -122.278314361280707, 37.809922137527408 ], [ -122.277946393155432, 37.810570997926284 ], [ -122.277500025928759, 37.811188117692808 ], [ -122.276979557089874, 37.811767552775535 ], [ -122.276723692370027, 37.81200024803956 ], [ -122.27666650432181, 37.812101084558073 ], [ -122.276220117257779, 37.812718199303276 ], [ -122.27569962770383, 37.813297628571313 ], [ -122.275611895496354, 37.813377411994338 ], [ -122.274122, 37.812829 ], [ -122.273757534341215, 37.811753033989937 ], [ -122.273662, 37.811471 ], [ -122.273353, 37.810465 ], [ -122.275979, 37.806222 ], [ -122.276861, 37.804819 ], [ -122.278135, 37.802763 ], [ -122.279564, 37.800449 ], [ -122.279687, 37.800256 ], [ -122.281417008257179, 37.80094324399542 ] ] ], [ [ [ -122.291952137659962, 37.811775380157421 ], [ -122.29143257062087, 37.81158999447846 ], [ -122.291134214997214, 37.811483538803444 ], [ -122.290356294409534, 37.811129493937067 ], [ -122.289625868969054, 37.810716656054481 ], [ -122.288949973894944, 37.810249001941536 ], [ -122.288335118768714, 37.809731036339222 ], [ -122.287787224830282, 37.809167748523059 ], [ -122.287311567959037, 37.808564564215885 ], [ -122.286912727888819, 37.807927293298498 ], [ -122.286856292195793, 37.807809304485971 ], [ -122.287923, 37.804853 ], [ -122.28867, 37.802755 ], [ -122.291101, 37.802526 ], [ -122.296858, 37.801922 ], [ -122.300389, 37.802657 ], [ -122.303339, 37.804684 ], [ -122.304274481021039, 37.806498304375936 ], [ -122.304170781022194, 37.806855882684658 ], [ -122.303959860919818, 37.807353624538536 ], [ -122.302446, 37.806982 ], [ -122.302012, 37.808058 ], [ -122.300212, 37.810339 ], [ -122.299251761856326, 37.811548188773514 ], [ -122.298945376663141, 37.811668925551004 ], [ -122.298106925164703, 37.811921455226873 ], [ -122.297241306783079, 37.812107562897303 ], [ -122.296356860071057, 37.812225455746201 ], [ -122.295730038274101, 37.812259462143146 ], [ -122.293994, 37.811415 ], [ -122.293433426651021, 37.812117498855827 ], [ -122.292802183683889, 37.812002206669987 ], [ -122.291952137659962, 37.811775380157421 ] ] ], [ [ [ -122.272183171195152, 37.815449748097919 ], [ -122.271344586003309, 37.815702087361153 ], [ -122.271220794468505, 37.81572867115031 ], [ -122.270756906976175, 37.815828289329438 ], [ -122.270644527879611, 37.815862104119986 ], [ -122.269778794748291, 37.816048010121079 ], [ -122.268894257523158, 37.816165696970728 ], [ -122.267999437162942, 37.816214030958719 ], [ -122.267102953773204, 37.816192546468763 ], [ -122.26621344349401, 37.816101450467769 ], [ -122.265339475232594, 37.815941620510209 ], [ -122.264489468046349, 37.815714596277353 ], [ -122.264244414144201, 37.815627095191083 ], [ -122.266771, 37.811553 ], [ -122.269058, 37.811959 ], [ -122.273394, 37.812723 ], [ -122.274122, 37.812829 ], [ -122.274572347654612, 37.814235408042826 ], [ -122.274457054094029, 37.814321522704191 ], [ -122.273746936510904, 37.814756124948985 ], [ -122.272986534146938, 37.815133411534241 ], [ -122.272183171195152, 37.815449748097919 ] ] ], [ [ [ -122.271002484090602, 37.822607421873187 ], [ -122.271780432638536, 37.822961593591891 ], [ -122.272510879306452, 37.823374541006359 ], [ -122.273186790315961, 37.823842288138373 ], [ -122.273801656616428, 37.824360331303311 ], [ -122.274349556557581, 37.824923682445636 ], [ -122.274825212924043, 37.825526917138582 ], [ -122.275174592423454, 37.82608520625206 ], [ -122.275061, 37.826059 ], [ -122.271796, 37.825226 ], [ -122.268563, 37.824462 ], [ -122.267828, 37.827044 ], [ -122.266895, 37.831339 ], [ -122.266494, 37.833405 ], [ -122.2659094846627, 37.836270682957235 ], [ -122.265232909415474, 37.836201407245774 ], [ -122.264358706585782, 37.83604157064309 ], [ -122.263508472209352, 37.835814540222955 ], [ -122.26269039651558, 37.835522503008271 ], [ -122.261912359692033, 37.835168272214531 ], [ -122.26118185592982, 37.834755260128603 ], [ -122.2605059212014, 37.834287445213995 ], [ -122.260170735972224, 37.834004999597553 ], [ -122.259891065468878, 37.833769333760159 ], [ -122.259343209976436, 37.833205916447007 ], [ -122.258867630231293, 37.832602620244131 ], [ -122.258468905222429, 37.83196525610942 ], [ -122.258150873364841, 37.831299962992482 ], [ -122.257916595592079, 37.830613148682971 ], [ -122.257768325950508, 37.829911428074908 ], [ -122.257707489975033, 37.829201559442588 ], [ -122.257734671052148, 37.828490379342455 ], [ -122.257849604897658, 37.827784736768052 ], [ -122.258051182198315, 37.82709142719289 ], [ -122.258337459388983, 37.826417127135834 ], [ -122.258705677457172, 37.82576832987926 ], [ -122.259152288590997, 37.825151282958011 ], [ -122.259672990410564, 37.824571928020596 ], [ -122.260262767451252, 37.824035843640587 ], [ -122.260915939496726, 37.823548191627587 ], [ -122.261626216295724, 37.823113667353823 ], [ -122.261892921416504, 37.822981387214647 ], [ -122.262386758134724, 37.822736454572848 ], [ -122.263190241683404, 37.822420185164333 ], [ -122.264028930480023, 37.822167904191055 ], [ -122.264894749379124, 37.821982040603537 ], [ -122.265779362247272, 37.821864383872935 ], [ -122.266674252160826, 37.821816066776591 ], [ -122.267570803337065, 37.821837554501059 ], [ -122.268460384013167, 37.821928640167279 ], [ -122.269228929187193, 37.822069157608503 ], [ -122.269334429477979, 37.822088446820658 ], [ -122.2701845244613, 37.822315435866912 ], [ -122.271002484090602, 37.822607421873187 ] ] ], [ [ [ -122.270410752228685, 37.845167568590433 ], [ -122.27130061604673, 37.84525863242682 ], [ -122.272174942400468, 37.845418417309041 ], [ -122.273025313316083, 37.845645384852361 ], [ -122.273843541265023, 37.845937349830805 ], [ -122.27416087994564, 37.846081766387492 ], [ -122.274621747937061, 37.846291501199133 ], [ -122.275352440048565, 37.846704429136381 ], [ -122.276028581458064, 37.847172157851709 ], [ -122.276080254393449, 37.847215677308917 ], [ -122.276626156383557, 37.847675441363833 ], [ -122.276643660896397, 37.84769018383767 ], [ -122.277191754660763, 37.848253519203894 ], [ -122.277253577878213, 37.848331894727586 ], [ -122.277507259297082, 37.848592626202638 ], [ -122.277983093044242, 37.849195845361201 ], [ -122.278001059693139, 37.849224543619115 ], [ -122.278043224897559, 37.849277996253896 ], [ -122.278273078434708, 37.84964513855774 ], [ -122.278442211043668, 37.849915292049751 ], [ -122.278760504594175, 37.850580528012763 ], [ -122.278995038321128, 37.851267298210139 ], [ -122.279143551359454, 37.851968989166316 ], [ -122.279204611063818, 37.852678843535209 ], [ -122.2791816324726, 37.853284456163564 ], [ -122.279177626897408, 37.853390025164828 ], [ -122.279162352022823, 37.853483941696197 ], [ -122.279121, 37.853287 ], [ -122.271161, 37.854268 ], [ -122.271466, 37.857052 ], [ -122.271762, 37.859769 ], [ -122.271837603900792, 37.860485436964716 ], [ -122.27178572882984, 37.860496570705806 ], [ -122.270900664893887, 37.860614271572395 ], [ -122.270005309785788, 37.860662620354596 ], [ -122.269108288764016, 37.860641151293692 ], [ -122.26821824314942, 37.860550071207825 ], [ -122.267343747007644, 37.860390257498167 ], [ -122.266493224482687, 37.860163249689222 ], [ -122.265674868580348, 37.859871234585945 ], [ -122.264896562188, 37.859517025190634 ], [ -122.264186284219576, 37.859115609128494 ], [ -122.264139, 37.858893 ], [ -122.263968, 37.858017 ], [ -122.263515, 37.855732 ], [ -122.262407, 37.855865 ], [ -122.261829, 37.85258 ], [ -122.260419341661247, 37.852766959667591 ], [ -122.260441738378304, 37.852180589831455 ], [ -122.260556683174229, 37.851474947917389 ], [ -122.260758299535652, 37.850781636953435 ], [ -122.260838738450815, 37.850592214907188 ], [ -122.260888339263786, 37.850421646282392 ], [ -122.261174680677144, 37.849747342436807 ], [ -122.261542989703116, 37.849098539300847 ], [ -122.261989717652654, 37.84848148446617 ], [ -122.262510561020022, 37.847902119657718 ], [ -122.263100502976698, 37.847366023544303 ], [ -122.26375386171776, 37.846878358048848 ], [ -122.264464345193943, 37.846443818673563 ], [ -122.265225111701483, 37.846066589317644 ], [ -122.266028835747022, 37.845750302020583 ], [ -122.266867778553461, 37.845498002017571 ], [ -122.267733862530264, 37.845312118442457 ], [ -122.268323598382764, 37.845233691848755 ], [ -122.268618748992338, 37.845194440958991 ], [ -122.269513918382714, 37.845146102544355 ], [ -122.270410752228685, 37.845167568590433 ] ] ], [ [ [ -122.27311300653426, 37.86339158427576 ], [ -122.273843858658807, 37.863804520128504 ], [ -122.274520146396114, 37.864272255870837 ], [ -122.275135357067896, 37.864790287927491 ], [ -122.275683565707325, 37.865353628349453 ], [ -122.276159492125473, 37.865956852812921 ], [ -122.276558551786934, 37.866594152821946 ], [ -122.276876900003913, 37.867259391613366 ], [ -122.277111469021136, 37.867946163226982 ], [ -122.277246667879211, 37.868584880668358 ], [ -122.277346778416913, 37.868510158754297 ], [ -122.278057389429691, 37.868075539456477 ], [ -122.278818308632694, 37.867698224132468 ], [ -122.279622209061984, 37.867381845649646 ], [ -122.280461350242135, 37.867129450121439 ], [ -122.281327652672758, 37.866943467601587 ], [ -122.281731725269523, 37.866889699673614 ], [ -122.282212775565839, 37.866825688706548 ], [ -122.283108197088566, 37.866777247389983 ], [ -122.284005296341448, 37.866798610034479 ], [ -122.284895436286476, 37.866889570965192 ], [ -122.285770046829583, 37.867049254428295 ], [ -122.286620707261775, 37.867276123015522 ], [ -122.287439227267811, 37.867567992453473 ], [ -122.287536970896227, 37.867612446606941 ], [ -122.287601907741049, 37.86763560149118 ], [ -122.288380407685409, 37.867989660576626 ], [ -122.28911139007559, 37.868402501509124 ], [ -122.289787815975728, 37.868870149335393 ], [ -122.290294375428488, 37.869296526476838 ], [ -122.29040317137779, 37.869388101326756 ], [ -122.290951529921955, 37.869951370305216 ], [ -122.291427609976338, 37.87055453263514 ], [ -122.291826825526528, 37.871191780418975 ], [ -122.292145330383889, 37.871856977396703 ], [ -122.29238005528498, 37.87254371801103 ], [ -122.292528737522659, 37.873245389071457 ], [ -122.292589942820968, 37.8739552334237 ], [ -122.292563079239656, 37.874666415012484 ], [ -122.292448402970763, 37.875372084711294 ], [ -122.29244008272056, 37.875400730759488 ], [ -122.282793, 37.87666 ], [ -122.282606, 37.876673 ], [ -122.282186, 37.876714 ], [ -122.277103, 37.877358 ], [ -122.275316520143932, 37.877586698158517 ], [ -122.275299233207008, 37.877564790873265 ], [ -122.274900125346875, 37.87692748805393 ], [ -122.274596910105018, 37.876293915484119 ], [ -122.274292007116244, 37.876521458141909 ], [ -122.273662150961215, 37.876906610103923 ], [ -122.273581293134583, 37.876956054013178 ], [ -122.272820252329694, 37.877333334856843 ], [ -122.272016215044971, 37.877649666366622 ], [ -122.27117692612498, 37.877902001312876 ], [ -122.270310470269649, 37.878087908919014 ], [ -122.269425194101686, 37.878205598296418 ], [ -122.268529625700182, 37.878253935710774 ], [ -122.268370292920196, 37.878250121706081 ], [ -122.268299603929421, 37.878253936686484 ], [ -122.267402370674773, 37.878232454740569 ], [ -122.266512116082794, 37.878141362121447 ], [ -122.265694513481165, 37.877991969200217 ], [ -122.265637416232934, 37.877981536350944 ], [ -122.264786697231983, 37.877754517069675 ], [ -122.263968153978809, 37.877462491193022 ], [ -122.263189671165833, 37.877108271826899 ], [ -122.262458747280718, 37.876695271147867 ], [ -122.261782422342932, 37.876227467509153 ], [ -122.261167210073054, 37.875709367091218 ], [ -122.260619035148693, 37.875145960467343 ], [ -122.260517474100851, 37.875017203093527 ], [ -122.265383, 37.874297 ], [ -122.266329, 37.874188 ], [ -122.266171, 37.87249 ], [ -122.266159, 37.872389 ], [ -122.268403, 37.87211 ], [ -122.270732, 37.871825 ], [ -122.273067, 37.871512 ], [ -122.272763, 37.868784 ], [ -122.272548, 37.866967 ], [ -122.272375, 37.865179 ], [ -122.272161, 37.863352 ], [ -122.272304, 37.863334 ], [ -122.272837374923213, 37.863266172697116 ], [ -122.27311300653426, 37.86339158427576 ] ] ], [ [ [ -122.163968, 37.44069 ], [ -122.16021, 37.437297 ], [ -122.159118627373601, 37.436338858184676 ], [ -122.159224524086454, 37.436286188892325 ], [ -122.16002428342783, 37.435970606038495 ], [ -122.160858977252289, 37.435719045695926 ], [ -122.161720568872298, 37.435533929874282 ], [ -122.162600762845713, 37.435417040843419 ], [ -122.163491084782407, 37.435369503988156 ], [ -122.164382962866839, 37.435391776982598 ], [ -122.165267810314191, 37.435483645387514 ], [ -122.166137107970343, 37.43564422471308 ], [ -122.166982486263308, 37.435871968927373 ], [ -122.167405498826923, 37.436024212568178 ], [ -122.167795805720743, 37.436164685328698 ], [ -122.167981212151759, 37.436249755565115 ], [ -122.168149460496679, 37.436310307328554 ], [ -122.168922893248322, 37.436665175304903 ], [ -122.169648988992904, 37.437078780592486 ], [ -122.169830433344899, 37.437205285754914 ], [ -122.170319461310271, 37.437429651510108 ], [ -122.171045572233737, 37.437843248133788 ], [ -122.171717354728131, 37.438311600402166 ], [ -122.171769618602767, 37.438355961511519 ], [ -122.17054, 37.4409 ], [ -122.17043, 37.44111 ], [ -122.17018, 37.4414 ], [ -122.16941, 37.44203 ], [ -122.168872, 37.442504 ], [ -122.16763, 37.44363 ], [ -122.165424, 37.441929 ], [ -122.163968, 37.44069 ] ] ], [ [ [ -122.221469165211943, 37.484734052055082 ], [ -122.221583912418367, 37.484028410602285 ], [ -122.221784897699351, 37.483335129431204 ], [ -122.222070183212921, 37.482660884785126 ], [ -122.222185579020021, 37.482456818193263 ], [ -122.225542, 37.483959 ], [ -122.224346, 37.485677 ], [ -122.223591, 37.486739 ], [ -122.222376001909453, 37.488494948975749 ], [ -122.222198324730272, 37.488209323730942 ], [ -122.221882082532559, 37.48754390035598 ], [ -122.221649218768746, 37.48685698053459 ], [ -122.221501973886419, 37.486155180177882 ], [ -122.221441763572912, 37.485445258328504 ], [ -122.221469165211943, 37.484734052055082 ] ] ], [ [ [ -122.191567122637295, 37.748040489460216 ], [ -122.19191654067771, 37.747867297699244 ], [ -122.191946933033748, 37.747848713985995 ], [ -122.192666348575159, 37.747492123704781 ], [ -122.192707058060947, 37.747471945370911 ], [ -122.193510024156225, 37.74715614630945 ], [ -122.194348099841122, 37.74690435733509 ], [ -122.195213215873466, 37.746719002660754 ], [ -122.196097042886237, 37.746601866857368 ], [ -122.196991071520443, 37.746554077686632 ], [ -122.197886694283397, 37.746576095252252 ], [ -122.198775288348088, 37.746667707574055 ], [ -122.199648298499085, 37.746828032626972 ], [ -122.200497319430625, 37.74705552682596 ], [ -122.201314176607482, 37.747347999874819 ], [ -122.202091004913399, 37.747702635836994 ], [ -122.20282032433245, 37.74811602022622 ], [ -122.203495111937031, 37.748584172857143 ], [ -122.204108869491151, 37.749102586140879 ], [ -122.204655686018924, 37.749666268457979 ], [ -122.204730012677928, 37.749760784783327 ], [ -122.204775867136362, 37.749808052913345 ], [ -122.205250477735632, 37.750411576149581 ], [ -122.205648308588096, 37.75104912950308 ], [ -122.205672076138327, 37.751098988302573 ], [ -122.205728321137002, 37.751189123955875 ], [ -122.206045540704821, 37.751854567992375 ], [ -122.206279090669597, 37.752541495059958 ], [ -122.206426719644185, 37.753243290171405 ], [ -122.206452177818335, 37.753543086513389 ], [ -122.206487003502332, 37.753953194976461 ], [ -122.20645935918516, 37.754664372835983 ], [ -122.206344050412042, 37.755369974657491 ], [ -122.206142185237539, 37.756063204858073 ], [ -122.205855705473397, 37.756737386819111 ], [ -122.205487368074927, 37.757386027202472 ], [ -122.205040718666979, 37.758002878507796 ], [ -122.204520057461494, 37.758581999267889 ], [ -122.203930397892961, 37.759117811300797 ], [ -122.203741043323092, 37.75925913344436 ], [ -122.203277418367662, 37.759605153466794 ], [ -122.202567407590536, 37.760039331410432 ], [ -122.201807203995642, 37.760416162807523 ], [ -122.201004129863506, 37.76073201767997 ], [ -122.200165920761265, 37.760983853388367 ], [ -122.199883968281753, 37.761044264633753 ], [ -122.199485864252765, 37.761163869110185 ], [ -122.198620590684342, 37.761349254688689 ], [ -122.197736592217467, 37.761466409120416 ], [ -122.196842384620041, 37.761514203823907 ], [ -122.195946582093242, 37.761492178377878 ], [ -122.195057814216128, 37.761400544960466 ], [ -122.194184642741646, 37.761240186303326 ], [ -122.193335479048642, 37.761012647180983 ], [ -122.19251850304893, 37.760720119516989 ], [ -122.191741584333258, 37.760365421251592 ], [ -122.19101220631886, 37.759951969175049 ], [ -122.190337394131447, 37.759483745989399 ], [ -122.18972364691804, 37.758965261916813 ], [ -122.189176875243689, 37.758401511226332 ], [ -122.188918332775685, 37.758072654137358 ], [ -122.188702344175525, 37.757797924098448 ], [ -122.188304622601976, 37.757160314292875 ], [ -122.187987539274502, 37.756494823124761 ], [ -122.187754145993111, 37.755807860290432 ], [ -122.187606688288483, 37.755106042113404 ], [ -122.187546583879694, 37.754396127806451 ], [ -122.187574409112415, 37.753684954364481 ], [ -122.1876898935041, 37.752979370715458 ], [ -122.187891922445374, 37.752286171763757 ], [ -122.187959773708243, 37.752126587849688 ], [ -122.187991951095768, 37.752016179397771 ], [ -122.188073926565067, 37.751823373010765 ], [ -122.188278574729196, 37.751342040320999 ], [ -122.18864703237945, 37.750693453052996 ], [ -122.189093773933465, 37.750076663104814 ], [ -122.189614495761262, 37.749497609648778 ], [ -122.19020418221065, 37.748961868353916 ], [ -122.190857153942247, 37.748474597724829 ], [ -122.191567122637295, 37.748040489460216 ] ] ], [ [ [ -122.218016668958285, 37.769130940394682 ], [ -122.218726676325318, 37.768696670089525 ], [ -122.219486878818074, 37.768319730127907 ], [ -122.220289956374856, 37.768003749761959 ], [ -122.220686212414293, 37.767884630687405 ], [ -122.221128176443415, 37.76775177127103 ], [ -122.221993468391233, 37.767566220692892 ], [ -122.222877501157598, 37.7674488844848 ], [ -122.223771763402823, 37.767400892337903 ], [ -122.224667645385722, 37.767422706310228 ], [ -122.225556521784284, 37.767514116381641 ], [ -122.226429834665765, 37.767674242474364 ], [ -122.227279175810864, 37.767901542918807 ], [ -122.228096367602561, 37.768193829284186 ], [ -122.228873541704033, 37.768548287431244 ], [ -122.229172916120959, 37.768717825622197 ], [ -122.229283522638511, 37.768768270511515 ], [ -122.230013200146686, 37.769181485112583 ], [ -122.230079559827558, 37.769227484214582 ], [ -122.230263192437803, 37.769331473254688 ], [ -122.230938345658913, 37.769799467031511 ], [ -122.231552469973749, 37.770317735482955 ], [ -122.232099650875767, 37.770881288384238 ], [ -122.232574618073002, 37.771484699365914 ], [ -122.232972796268655, 37.772122158136142 ], [ -122.233290349265886, 37.772787526402922 ], [ -122.233524216971077, 37.773474396959067 ], [ -122.233672144936619, 37.774176155362042 ], [ -122.233732706155934, 37.774886043615581 ], [ -122.233731646276937, 37.774913562375659 ], [ -122.233732711073714, 37.774926043616333 ], [ -122.233705319800848, 37.77563722523616 ], [ -122.233590237284133, 37.776342851099251 ], [ -122.23338856939732, 37.777036125391703 ], [ -122.233102256050287, 37.777710371070903 ], [ -122.232734052593685, 37.778359094185646 ], [ -122.232287503360268, 37.778976046439418 ], [ -122.231766907595386, 37.779555285393187 ], [ -122.23117727810137, 37.78009123172717 ], [ -122.230807853276943, 37.780367028799375 ], [ -122.230524292993252, 37.780578723008489 ], [ -122.229814241028393, 37.781013063445791 ], [ -122.229053961036428, 37.781390069150092 ], [ -122.228250776032937, 37.781706108464455 ], [ -122.227412422652492, 37.781958136973039 ], [ -122.226546976581943, 37.782143726850556 ], [ -122.226398065201693, 37.782163492904978 ], [ -122.226396962800692, 37.782163729302248 ], [ -122.225512760458386, 37.782281091594996 ], [ -122.224618320184405, 37.782329096820924 ], [ -122.223722258421887, 37.78230728253078 ], [ -122.223463776431672, 37.78228070209213 ], [ -122.222833207248058, 37.782215858868483 ], [ -122.222655694165823, 37.782183312327454 ], [ -122.222583184100728, 37.782175855491154 ], [ -122.221709709008024, 37.782015701314549 ], [ -122.22086022351472, 37.781788361313971 ], [ -122.220042910633737, 37.78149602549481 ], [ -122.219265643202206, 37.78114150994918 ], [ -122.218554014610532, 37.780738484256119 ], [ -122.218535907997691, 37.780728229707229 ], [ -122.21829585155912, 37.780561811977563 ], [ -122.218165897964937, 37.780488212175989 ], [ -122.217490728068313, 37.780020146145645 ], [ -122.216876621656326, 37.779501805343067 ], [ -122.216522871546331, 37.779137391058825 ], [ -122.21632949275471, 37.778938182657342 ], [ -122.21585460987194, 37.778334707036215 ], [ -122.215793686584774, 37.778237136029482 ], [ -122.215456545285335, 37.777697191165537 ], [ -122.215139131050037, 37.777031775456059 ], [ -122.214905422152853, 37.776344868877707 ], [ -122.214757667163468, 37.775643087212579 ], [ -122.214697286663196, 37.774933189322326 ], [ -122.214724859655419, 37.774222012044277 ], [ -122.214840118085334, 37.773516404343937 ], [ -122.215041949517982, 37.77282316135792 ], [ -122.215158286706995, 37.772549352651104 ], [ -122.21532840794508, 37.772148958962717 ], [ -122.215509764109441, 37.771829566274505 ], [ -122.215696732613068, 37.771500289499194 ], [ -122.216143374687604, 37.770883399270488 ], [ -122.216150634106754, 37.770875324079363 ], [ -122.216253384408503, 37.770733406338628 ], [ -122.216774039306685, 37.770154234982193 ], [ -122.2173636938345, 37.769618359735908 ], [ -122.218016668958285, 37.769130940394682 ] ] ], [ [ [ -122.256124526455196, 37.799619829760857 ], [ -122.25589036737135, 37.79893300730194 ], [ -122.255742180130824, 37.798231279936758 ], [ -122.255681389477033, 37.797521406004741 ], [ -122.255685152631244, 37.79742297259552 ], [ -122.255708578362146, 37.796810222113365 ], [ -122.255823482428795, 37.796104577292645 ], [ -122.256024992652755, 37.795411267037558 ], [ -122.256311166116802, 37.794736967873412 ], [ -122.256679244809149, 37.794088173073732 ], [ -122.257125682261716, 37.793471130149449 ], [ -122.257646177768436, 37.792891780710306 ], [ -122.257878545754792, 37.792680486378885 ], [ -122.257976188395872, 37.792571800847945 ], [ -122.258565723557567, 37.792035721733214 ], [ -122.259218625304882, 37.791548076191908 ], [ -122.259928605989558, 37.791113559533635 ], [ -122.260688828749352, 37.790736355438312 ], [ -122.261491973326017, 37.790420095701705 ], [ -122.262330306521022, 37.790167825293267 ], [ -122.263195756612049, 37.789981973061572 ], [ -122.264079991015578, 37.78986432836831 ], [ -122.26497449645079, 37.789816023874799 ], [ -122.265290116460591, 37.789823596228501 ], [ -122.262963, 37.791175 ], [ -122.261327, 37.793807 ], [ -122.260806, 37.79528 ], [ -122.259577, 37.79632 ], [ -122.259551, 37.798132 ], [ -122.259554, 37.798301 ], [ -122.257805, 37.799704 ], [ -122.256345802443789, 37.80008294918354 ], [ -122.256124526455196, 37.799619829760857 ] ] ], [ [ [ -122.259133259958631, 37.811200046179813 ], [ -122.258899036521342, 37.810513231178589 ], [ -122.258750797733313, 37.8098115091084 ], [ -122.258726407478875, 37.80952687580465 ], [ -122.260213, 37.810523 ], [ -122.261, 37.810744 ], [ -122.262312, 37.810926 ], [ -122.262463, 37.810945 ], [ -122.261582, 37.812878 ], [ -122.261495, 37.813034 ], [ -122.260871862012294, 37.813668227370101 ], [ -122.260325298992612, 37.813105997056546 ], [ -122.260115818257844, 37.81284019370203 ], [ -122.259849840018148, 37.812502702483975 ], [ -122.259451214520979, 37.811865339211252 ], [ -122.259133259958631, 37.811200046179813 ] ] ], [ [ [ -122.262937773556686, 37.863553240291026 ], [ -122.262953259631573, 37.86354377127126 ], [ -122.263714209160796, 37.863166552957047 ], [ -122.264518124885981, 37.862850277039556 ], [ -122.264938069840397, 37.86272402030707 ], [ -122.265357266184935, 37.862597988644652 ], [ -122.266223553556387, 37.862412116794474 ], [ -122.267108646357499, 37.862294451039951 ], [ -122.268004023045222, 37.862246124245424 ], [ -122.268901063151731, 37.862267601690846 ], [ -122.269791130208162, 37.862358676596159 ], [ -122.270665654821997, 37.862518472110196 ], [ -122.271516217111085, 37.862745449745866 ], [ -122.272114951519725, 37.862959052968314 ], [ -122.272161, 37.863352 ], [ -122.269834, 37.863665 ], [ -122.267324, 37.863991 ], [ -122.265277, 37.864265 ], [ -122.26102503487769, 37.864806806843184 ], [ -122.26116909495444, 37.86467593202584 ], [ -122.261822618825292, 37.86418827892799 ], [ -122.262533279374111, 37.863753752697313 ], [ -122.262937773556686, 37.863553240291026 ] ] ], [ [ [ -121.875772023312933, 37.311374488176824 ], [ -121.87597575026976, 37.310681796091089 ], [ -121.876263494063664, 37.310008388867367 ], [ -121.876632481597952, 37.309360751180186 ], [ -121.87707915768857, 37.308745119388192 ], [ -121.877599219365166, 37.308167421503221 ], [ -121.878187657358552, 37.307633220133376 ], [ -121.878838804372975, 37.307147658948033 ], [ -121.879546389677444, 37.306715413179298 ], [ -121.879606635211672, 37.306685595959848 ], [ -121.879632521213367, 37.306669782659988 ], [ -121.880227668001979, 37.30637522375833 ], [ -121.883232, 37.310156 ], [ -121.887901, 37.315414 ], [ -121.888061, 37.315323 ], [ -121.889345, 37.317119 ], [ -121.88984, 37.318589 ], [ -121.889857785702844, 37.318650845145832 ], [ -121.889855320996432, 37.318652350891306 ], [ -121.889098034352784, 37.319027180997942 ], [ -121.888298385759384, 37.31934091838815 ], [ -121.887464077788707, 37.319590540815781 ], [ -121.886603147156819, 37.319773643629951 ], [ -121.885723887253221, 37.319888462958147 ], [ -121.884834768188185, 37.319933892712164 ], [ -121.883944355130325, 37.319909495252482 ], [ -121.883061225724546, 37.319815505607814 ], [ -121.882193887389235, 37.319652829209076 ], [ -121.881351712586294, 37.319423310403621 ], [ -121.881350695292966, 37.319423033159573 ], [ -121.880539771804138, 37.319128331126031 ], [ -121.879768928192448, 37.318771561996535 ], [ -121.879045589339299, 37.318356162511733 ], [ -121.878376722184655, 37.317886134134248 ], [ -121.877768768601214, 37.317366004476177 ], [ -121.877227583343497, 37.316800783658145 ], [ -121.876758377669958, 37.316195916021016 ], [ -121.876365669180743, 37.315557227657308 ], [ -121.876072325425923, 37.314931579477403 ], [ -121.876053238353379, 37.314890870268492 ], [ -121.875824092193042, 37.314203261890846 ], [ -121.875680435345615, 37.313501025061164 ], [ -121.87562364894859, 37.312790923019158 ], [ -121.875654277420566, 37.312079794561747 ], [ -121.875772023312933, 37.311374488176824 ] ] ], [ [ [ -121.94355644613718, 37.348654519154636 ], [ -121.944098363787433, 37.349219432706704 ], [ -121.944568321916066, 37.349824029673179 ], [ -121.944961793464984, 37.350462488341385 ], [ -121.945274987569931, 37.351128660789207 ], [ -121.945504886126884, 37.351816132062766 ], [ -121.945649272930112, 37.352518281930976 ], [ -121.945706755098144, 37.353228348623084 ], [ -121.945676776578836, 37.353939493935876 ], [ -121.945559623598939, 37.354644869084645 ], [ -121.945468782664548, 37.354954590979837 ], [ -121.945431962305008, 37.355176280085139 ], [ -121.945228758079978, 37.355869091424047 ], [ -121.945051983725733, 37.356283540926022 ], [ -121.94383, 37.356683 ], [ -121.937553, 37.353984 ], [ -121.932135, 37.351219 ], [ -121.932111, 37.356424 ], [ -121.93471, 37.35678 ], [ -121.933153, 37.358649 ], [ -121.935709026567238, 37.361093315545666 ], [ -121.934862223953147, 37.361003622674545 ], [ -121.933994294714282, 37.3608413300244 ], [ -121.933150478480187, 37.360611907180569 ], [ -121.932338903633834, 37.360317564214498 ], [ -121.931567387721771, 37.359961136555235 ], [ -121.930843362103701, 37.359546057653979 ], [ -121.930173800337087, 37.359076325885319 ], [ -121.929565150987173, 37.358556466004281 ], [ -121.929023275511639, 37.357991485533098 ], [ -121.928553391818028, 37.357386826497901 ], [ -121.928160024037481, 37.356748312982312 ], [ -121.927846958997335, 37.356082095004382 ], [ -121.927617209810364, 37.355394589258324 ], [ -121.92747298692889, 37.3546924172933 ], [ -121.927415676939901, 37.353982341725271 ], [ -121.927445829302101, 37.353271201097215 ], [ -121.927454423112962, 37.353219534234547 ], [ -121.927464986078604, 37.352970403623324 ], [ -121.927582307272431, 37.352265046511903 ], [ -121.927785665332436, 37.351572265648961 ], [ -121.92807309958026, 37.35089873245343 ], [ -121.928113923687391, 37.350827013643794 ], [ -121.92818172388759, 37.350668137885776 ], [ -121.928550462123852, 37.350020337897575 ], [ -121.928875874686497, 37.349571508646235 ], [ -121.928996953427983, 37.349404509313295 ], [ -121.929516896605463, 37.348826582040822 ], [ -121.930105283524824, 37.348292120898087 ], [ -121.930756447379125, 37.347806272056815 ], [ -121.93146411727264, 37.347373713519609 ], [ -121.932221478606564, 37.346998610106489 ], [ -121.9330212386824, 37.346684573381793 ], [ -121.933855696891996, 37.346434626907126 ], [ -121.934716818820519, 37.346251177152745 ], [ -121.935596313550008, 37.346135990347129 ], [ -121.936485713422726, 37.346090175486033 ], [ -121.937376455498764, 37.346114173664446 ], [ -121.938259963926996, 37.346207753833504 ], [ -121.9391277324399, 37.346370015023012 ], [ -121.939432746014035, 37.346452942825273 ], [ -121.939971406181272, 37.346599395008468 ], [ -121.940373165007585, 37.346745100693354 ], [ -121.940782862082457, 37.346893685339118 ], [ -121.941554287016245, 37.347250052583391 ], [ -121.942278252978596, 37.34766506558789 ], [ -121.942947788576802, 37.348134728488013 ], [ -121.94355644613718, 37.348654519154636 ] ] ], [ [ [ -121.869880999338989, 37.36121236055903 ], [ -121.870681173488975, 37.36089874945062 ], [ -121.871515998884107, 37.36064924698475 ], [ -121.872377437576091, 37.360466255356748 ], [ -121.873257195598953, 37.360351536384243 ], [ -121.874146802761217, 37.36030619455881 ], [ -121.875037694128011, 37.36033066642117 ], [ -121.875323099320084, 37.36036104486567 ], [ -121.875901, 37.360611 ], [ -121.877449, 37.36108 ], [ -121.879152104189302, 37.361439499587128 ], [ -121.879215371967959, 37.361468766089814 ], [ -121.879939129235879, 37.361884163716844 ], [ -121.880608400184713, 37.362354182241077 ], [ -121.881216739686309, 37.362874296108473 ], [ -121.881278064752038, 37.362938300080984 ], [ -121.881645594893556, 37.363252522710866 ], [ -121.882187150122363, 37.363817721935611 ], [ -121.882656698887502, 37.364422566530337 ], [ -121.883049718069884, 37.365061232396918 ], [ -121.883362421158552, 37.365727569616844 ], [ -121.883591794775427, 37.366415161648327 ], [ -121.883654374440979, 37.366720691485078 ], [ -121.883668324941212, 37.36675041755003 ], [ -121.883897704515036, 37.367438008945705 ], [ -121.88404154235289, 37.368140233979922 ], [ -121.884098450858176, 37.368850330156739 ], [ -121.884069456979788, 37.369524764835504 ], [ -121.880698, 37.368007 ], [ -121.880202, 37.367788 ], [ -121.877419, 37.366069 ], [ -121.876439, 37.365418 ], [ -121.874509, 37.363418 ], [ -121.869365, 37.366808 ], [ -121.865321422261488, 37.369548011300381 ], [ -121.865220221339385, 37.36905333298359 ], [ -121.865163492152476, 37.368343227666671 ], [ -121.865194242989773, 37.367632103732383 ], [ -121.865199327397292, 37.367601696693619 ], [ -121.86522746105021, 37.366951082885393 ], [ -121.865345391892092, 37.366245788718857 ], [ -121.86554936519471, 37.365553116463694 ], [ -121.865837414355212, 37.36487973649173 ], [ -121.866206763333523, 37.364232133215197 ], [ -121.866468971959037, 37.363871102759788 ], [ -121.866653853462694, 37.363616542661582 ], [ -121.867174377783641, 37.363038892445914 ], [ -121.86776332257098, 37.36250474471759 ], [ -121.868415015648381, 37.362019242629913 ], [ -121.869123181026765, 37.361587060846375 ], [ -121.869880999338989, 37.36121236055903 ] ] ], [ [ [ -122.14924, 37.42769 ], [ -122.150367951798103, 37.426349401551434 ], [ -122.150670133373467, 37.426987235794655 ], [ -122.150902156985524, 37.427674299474837 ], [ -122.151048622570201, 37.428376191460544 ], [ -122.151108117224979, 37.429086152468457 ], [ -122.151099470579311, 37.429305370194378 ], [ -122.14924, 37.42769 ] ] ], [ [ [ -122.024419853395216, 37.585874608836264 ], [ -122.024964110349757, 37.586439137121893 ], [ -122.025436221722657, 37.587043397624726 ], [ -122.025438685717958, 37.587047374361887 ], [ -122.025492852638223, 37.587116702435885 ], [ -122.025888271505806, 37.587754876486358 ], [ -122.026203187319595, 37.58842081913528 ], [ -122.026434565385543, 37.589108117641715 ], [ -122.026580175237754, 37.589810153438819 ], [ -122.026638612202589, 37.590520165855303 ], [ -122.026609311017324, 37.591231317212099 ], [ -122.0264925513696, 37.591936758668083 ], [ -122.026289455299761, 37.592629696180715 ], [ -122.026001976487919, 37.593303455946 ], [ -122.025632881525411, 37.593951548687862 ], [ -122.025185723347334, 37.594567732176429 ], [ -122.024835740333288, 37.594956295382154 ], [ -122.021013, 37.593736 ], [ -122.019662, 37.592519 ], [ -122.020334, 37.590605 ], [ -122.021514, 37.587181 ], [ -122.022443995053692, 37.584491059761355 ], [ -122.023136515134695, 37.584886056942423 ], [ -122.023808692999296, 37.585355248530277 ], [ -122.024419853395216, 37.585874608836264 ] ] ], [ [ [ -122.065817209307184, 37.635800710670722 ], [ -122.065652941406739, 37.636361904219662 ], [ -122.063341, 37.63434 ], [ -122.061771, 37.635046 ], [ -122.058388, 37.635735 ], [ -122.054695, 37.630946 ], [ -122.053594, 37.629424 ], [ -122.052851825677152, 37.627997427725298 ], [ -122.053218611612593, 37.627853484241299 ], [ -122.054055817639593, 37.627602688645858 ], [ -122.05491989543998, 37.627418360669843 ], [ -122.055802525642264, 37.627302274998563 ], [ -122.056695210408165, 37.627255549282737 ], [ -122.057589355180269, 37.627278633387228 ], [ -122.058476351356887, 37.627371305063527 ], [ -122.059347659101363, 37.627532672087561 ], [ -122.060194889492536, 37.627761180842711 ], [ -122.061009885228103, 37.628054631265009 ], [ -122.061784799107485, 37.628410198008069 ], [ -122.062512169541222, 37.628824457624177 ], [ -122.062586741601734, 37.628876435056476 ], [ -122.061485, 37.62848 ], [ -122.062799, 37.631345 ], [ -122.065046, 37.633582 ], [ -122.065813808954701, 37.633241785789735 ], [ -122.065903761178404, 37.633674088269558 ], [ -122.065962607720294, 37.634384077104741 ], [ -122.065933665019188, 37.635095234203661 ], [ -122.065817209307184, 37.635800710670722 ] ] ], [ [ [ -122.061278128602709, 37.640841577201009 ], [ -122.06047574929903, 37.641156480167467 ], [ -122.059638412429436, 37.641407320982573 ], [ -122.058774183890051, 37.641591683260991 ], [ -122.057891388845221, 37.641707790999206 ], [ -122.056998531468025, 37.64175452569841 ], [ -122.056104212949151, 37.641731437148536 ], [ -122.055217048567414, 37.641638747768965 ], [ -122.054861322330467, 37.641572866379008 ], [ -122.054363, 37.640113 ], [ -122.05692, 37.638815 ], [ -122.054266, 37.636394 ], [ -122.057233, 37.635929 ], [ -122.058388, 37.635735 ], [ -122.062082271909034, 37.640438503932323 ], [ -122.062037821463875, 37.640465645554393 ], [ -122.061278128602709, 37.640841577201009 ] ] ], [ [ [ -122.084309298611529, 37.66256293141879 ], [ -122.083302, 37.664395 ], [ -122.082336, 37.666154 ], [ -122.083076, 37.666916 ], [ -122.088112, 37.670501 ], [ -122.09398, 37.674467 ], [ -122.094131705453862, 37.674571766520998 ], [ -122.093839942448881, 37.674836560796322 ], [ -122.093789721655199, 37.674873997407524 ], [ -122.093691704837894, 37.674962952990803 ], [ -122.093038742264383, 37.675449690698841 ], [ -122.092328891800676, 37.675883210179997 ], [ -122.091568990341145, 37.676259335451306 ], [ -122.090766357259454, 37.676574443335319 ], [ -122.089928723876341, 37.676825498387338 ], [ -122.089064158944325, 37.677010082158517 ], [ -122.08853894009097, 37.677079266040181 ], [ -122.088180990868551, 37.677126416511811 ], [ -122.087287727416339, 37.677173380765566 ], [ -122.086392973691346, 37.67715052249833 ], [ -122.085505349166056, 37.677058061911104 ], [ -122.084633404575214, 37.676896889704146 ], [ -122.083785539474505, 37.67666855848924 ], [ -122.082969921261423, 37.676375267820589 ], [ -122.082194406442326, 37.676019842988687 ], [ -122.081466464906185, 37.675605707782886 ], [ -122.081166445484129, 37.6753968064315 ], [ -122.080920269822144, 37.675256750550062 ], [ -122.080246919454865, 37.674787891105119 ], [ -122.079634638862743, 37.674268827169946 ], [ -122.079089324480933, 37.673704558598615 ], [ -122.07861622733779, 37.673100520559281 ], [ -122.078219902509488, 37.672462531153812 ], [ -122.077904165294854, 37.671796735352387 ], [ -122.077672054530453, 37.671109545783885 ], [ -122.077652827364972, 37.6710172607281 ], [ -122.077989, 37.670841 ], [ -122.079887, 37.669851 ], [ -122.080681, 37.668851 ], [ -122.078546727823081, 37.666161672469585 ], [ -122.078918329433648, 37.665649430481849 ], [ -122.079439317520922, 37.665070856527599 ], [ -122.080029127773315, 37.664535659756794 ], [ -122.08067583900251, 37.664053644798628 ], [ -122.080682079665706, 37.664048993428942 ], [ -122.081391885076016, 37.663615543422246 ], [ -122.082151708837031, 37.663239483144075 ], [ -122.082954234537908, 37.662924433375146 ], [ -122.083791734942622, 37.662673427433603 ], [ -122.084309298611529, 37.66256293141879 ] ] ], [ [ [ -122.067142605910817, 37.689317149356839 ], [ -122.067430083123853, 37.6886432979313 ], [ -122.067799283760763, 37.687995082466486 ], [ -122.068246650560752, 37.687378744890701 ], [ -122.06876787388012, 37.686800220017901 ], [ -122.069357933244575, 37.686265078425144 ], [ -122.070011145730319, 37.685778472840703 ], [ -122.07072122070629, 37.685345088558094 ], [ -122.071481320410058, 37.684969098351878 ], [ -122.072284125774544, 37.684654122328261 ], [ -122.073121906871705, 37.684403193095491 ], [ -122.073652921010478, 37.684289910560423 ], [ -122.073986597297591, 37.684218726588213 ], [ -122.074869871783605, 37.684102498825794 ], [ -122.075763226289979, 37.684055628827181 ], [ -122.076658059812985, 37.684078567846441 ], [ -122.077545757121754, 37.6841710950318 ], [ -122.078417771631337, 37.684332319550293 ], [ -122.079265707617907, 37.684560689157038 ], [ -122.080081400987538, 37.684854005127541 ], [ -122.080856997824412, 37.685209443409569 ], [ -122.081585029964558, 37.685623581791901 ], [ -122.082258486870032, 37.686092432829192 ], [ -122.082870883113202, 37.686611482207404 ], [ -122.083416320822124, 37.68717573218165 ], [ -122.083889546486546, 37.68777974966914 ], [ -122.084286001576828, 37.688417718536449 ], [ -122.08460186648766, 37.689083495577783 ], [ -122.084834097381659, 37.689770669647373 ], [ -122.084980455575391, 37.690472623377389 ], [ -122.085011067610438, 37.690840532752119 ], [ -122.085039529182836, 37.691182596887714 ], [ -122.085010746803832, 37.691893752875103 ], [ -122.084894383122602, 37.692599242455124 ], [ -122.084691556358749, 37.693292271123156 ], [ -122.084404217591356, 37.693966164198947 ], [ -122.084035132055803, 37.694614431124045 ], [ -122.083622318068066, 37.69518333103678 ], [ -122.082996, 37.695366 ], [ -122.080958, 37.69563 ], [ -122.077186, 37.695659 ], [ -122.074671, 37.69566 ], [ -122.073974, 37.695616 ], [ -122.074017831421813, 37.698389067953329 ], [ -122.073415452609879, 37.698277694780067 ], [ -122.072567378177652, 37.69804928352314 ], [ -122.071751569706691, 37.697755916092326 ], [ -122.070975885536114, 37.69740041851751 ], [ -122.070247797186084, 37.696986215288483 ], [ -122.069574317354608, 37.696517296342662 ], [ -122.068961932350405, 37.695998178603709 ], [ -122.068416539613509, 37.695433862443622 ], [ -122.06794339092589, 37.694829783488629 ], [ -122.067547041859058, 37.694191760234339 ], [ -122.067231307943857, 37.693525937976638 ], [ -122.06720168235266, 37.693438214097164 ], [ -122.066999227983615, 37.692838729598897 ], [ -122.066853034861438, 37.692136753787388 ], [ -122.066823398376897, 37.691779519136865 ], [ -122.066794134119746, 37.691426771270834 ], [ -122.066823090515584, 37.690715619698558 ], [ -122.066939622677339, 37.690010147785358 ], [ -122.067142605910817, 37.689317149356839 ] ] ], [ [ [ -122.125264578840429, 37.689732881970656 ], [ -122.125482581951999, 37.689721352207194 ], [ -122.125924840267103, 37.689662963119702 ], [ -122.126818229256088, 37.689615705841206 ], [ -122.127713145291509, 37.689638256869998 ], [ -122.128600972348366, 37.689730399089832 ], [ -122.129473162593257, 37.689891245374042 ], [ -122.130134357932846, 37.690068988251795 ], [ -122.130321318611436, 37.690119247119412 ], [ -122.131137274192014, 37.690412209143268 ], [ -122.13191317289612, 37.690767310801327 ], [ -122.132641543655268, 37.691181133123649 ], [ -122.133315372673138, 37.691649691708292 ], [ -122.133928170941203, 37.692168475057571 ], [ -122.134474036718501, 37.692732487988529 ], [ -122.134947712374796, 37.693336299701564 ], [ -122.135344635049066, 37.693974096045331 ], [ -122.135660980634924, 37.69463973547613 ], [ -122.135893700667268, 37.695326808174279 ], [ -122.136040551753112, 37.696028697749107 ], [ -122.136100117260114, 37.696738644939337 ], [ -122.136071821050848, 37.697449812696242 ], [ -122.135991410726163, 37.697939360221305 ], [ -122.135955933126908, 37.69815535202315 ], [ -122.135753567124993, 37.698848467937424 ], [ -122.135466669685329, 37.699522484919498 ], [ -122.135098001791022, 37.700170911218585 ], [ -122.134651112255114, 37.700787501394736 ], [ -122.134130303607378, 37.701366316494294 ], [ -122.133540590707057, 37.701901781278039 ], [ -122.132887652478331, 37.702388737949697 ], [ -122.132177777231988, 37.702822495865924 ], [ -122.131417802099449, 37.703198876747443 ], [ -122.130953582264183, 37.703381255717446 ], [ -122.130897770847554, 37.703408895838002 ], [ -122.130095011437788, 37.703724270491151 ], [ -122.129257205066537, 37.703975604269353 ], [ -122.128392422152189, 37.704160476039021 ], [ -122.127508993199783, 37.704277104888952 ], [ -122.127494444468624, 37.704277874455002 ], [ -122.127460026546018, 37.704282418107056 ], [ -122.127092012338139, 37.70430188295412 ], [ -122.124559, 37.702507 ], [ -122.123695, 37.701926 ], [ -122.123668, 37.698483 ], [ -122.12437, 37.698333 ], [ -122.125252, 37.698258 ], [ -122.128359, 37.6982 ], [ -122.128532, 37.698137 ], [ -122.129535, 37.697456 ], [ -122.130032, 37.697097 ], [ -122.130061, 37.692755 ], [ -122.129883, 37.692596 ], [ -122.129655, 37.692398 ], [ -122.128145, 37.69106 ], [ -122.127785, 37.690765 ], [ -122.127153, 37.690719 ], [ -122.123236591521703, 37.690118347268339 ], [ -122.123516685596272, 37.690034323993565 ], [ -122.124381316368002, 37.689849487620407 ], [ -122.125264578840429, 37.689732881970656 ] ] ], [ [ [ -122.117827304962347, 37.694276860436339 ], [ -122.118196094221673, 37.693628487620025 ], [ -122.118643077163227, 37.693011959208711 ], [ -122.118998147203939, 37.692617435468605 ], [ -122.118851, 37.696651 ], [ -122.11882, 37.698366 ], [ -122.118868, 37.698542 ], [ -122.120913, 37.699979 ], [ -122.119265495393861, 37.701579995247009 ], [ -122.11890979175206, 37.70121238948375 ], [ -122.118436196163216, 37.700608514005658 ], [ -122.118349199197851, 37.700468672771059 ], [ -122.1183448445165, 37.700463120097758 ], [ -122.117948033022003, 37.699825267106583 ], [ -122.117631823940201, 37.699159580639957 ], [ -122.117399260652007, 37.698472472274247 ], [ -122.117252580696274, 37.69777055973352 ], [ -122.117220085387046, 37.697382082535469 ], [ -122.11719319430442, 37.697060603138077 ], [ -122.117221670910496, 37.696349439888728 ], [ -122.117337733763037, 37.695643918813722 ], [ -122.117540262686475, 37.694950834213223 ], [ -122.117827304962347, 37.694276860436339 ] ] ], [ [ [ -122.169484059070967, 37.723511811656216 ], [ -122.169197372305206, 37.724185908129947 ], [ -122.168828876350474, 37.724834437436229 ], [ -122.168382118361464, 37.725451153143752 ], [ -122.167973484994278, 37.725905492773258 ], [ -122.164245, 37.722651 ], [ -122.16724, 37.721836 ], [ -122.168104, 37.721626 ], [ -122.169812868088485, 37.721201640616826 ], [ -122.169829766835235, 37.721401897750518 ], [ -122.169801783924655, 37.722113070803921 ], [ -122.169686177695979, 37.722818640530711 ], [ -122.169484059070967, 37.723511811656216 ] ] ], [ [ [ -122.158002765981735, 37.728592277980688 ], [ -122.157154086090031, 37.728364476985554 ], [ -122.156474721987209, 37.728120863527806 ], [ -122.157524, 37.726871 ], [ -122.158856024358087, 37.728749325360873 ], [ -122.158002765981735, 37.728592277980688 ] ] ] ] } }
]
}
