{
"type": "FeatureCollection",
"name": "tier1_low_resource",
"crs": { "type": "name", "properties": { "name": "urn:ogc:def:crs:OGC:1.3:CRS84" } },
"features": [
{ "type": "Feature", "properties": { "fips": "06001401300", "fips_bg": null, "county_name": "Alameda", "region": "Bay Area Region", "pct_above_200_pov": 0.72988363456301064, "pct_bachelors_plus": 0.54068105016896284, "pct_employed": 0.8465059505645407, "home_value": 846800.0, "math_prof": 0.42152350661859894, "read_prof": 0.43668727496593363, "grad_rate": 0.89014582470156611, "pct_not_frpm": 0.39628637962945218, "pct_above_200_pov_median": 0.84730388039643878, "pct_bachelors_plus_median": 0.5261797026502909, "pct_employed_median": 0.78294937050582336, "home_value_median": 1111500.0, "math_prof_median": 0.45779087822494302, "read_prof_median": 0.48794991395350246, "grad_rate_median": 0.91924847573665891, "pct_not_frpm_median": 0.5504194029081021, "env_burden_flag": 0.0, "oppscore": 3.0, "oppcat": "Low Resource", "pct_below_pov": 0.11587026491705868, "pct_asian": 0.16826923076923078, "pct_black": 0.28548534798534797, "pct_hispanic": 0.080128205128205135, "pct_poc": 0.66597985347985356, "pct_asian_cty": 0.3198506733561387, "pct_black_cty": 0.096275369275928016, "pct_hispanic_cty": 0.23320635201207784, "pct_poc_cty": 0.71763958814709172, "pov_seg_flag": 0.0, "index_right": 22, "parent_sta": "mtc:19th-st-oakland-bart", "stop_id": "19TH_3", "stop_name": "A2 20th and Broadway Entrance / Exit", "stop_code": "19TH_3", "stop_desc": "Pedestrian Access Point", "stop_lat": 37.80881, "stop_lon": -122.26854, "zone_id": "BA:79542", "stop_url": null, "tts_stop_n": null, "platform_c": null, "location_t": "2", "stop_timez": "America/Los_Angeles", "wheelchair": "1", "level_id": "mtc:19th-st-oakland-bart-street", "route_info": "{'route_id': None, 'route_type': None}", "station_id": "mtc:fruitvale", "OBJECTID": "152", "access_id": "mtc:BA-FTVL_2-1643433662776", "access_point_name": "Enter/Exit : Station entrance", "location_type": "2", "x": "-122.22445", "y": "37.77508" }, "geometry": { "type": "MultiPolygon", "coordinates": [ [ [ [ -122.430841, 37.65766 ], [ -122.430146, 37.659594 ], [ -122.4298, 37.660567 ], [ -122.426254, 37.659785 ], [ -122.422726, 37.659006 ], [ -122.415691, 37.657453 ], [ -122.412134, 37.656668 ], [ -122.41147, 37.658575 ], [ -122.409116, 37.65805 ], [ -122.406389, 37.657442 ], [ -122.404919, 37.660116 ], [ -122.404025, 37.661097 ], [ -122.399439, 37.664126 ], [ -122.398932, 37.664519 ], [ -122.3937, 37.669391 ], [ -122.39195, 37.671708 ], [ -122.391917, 37.671762 ], [ -122.387308, 37.671774 ], [ -122.380995, 37.671769970391601 ], [ -122.380995, 37.667855 ], [ -122.376699971887007, 37.664235875028098 ], [ -122.374401988290003, 37.662299522203398 ], [ -122.374291, 37.662206 ], [ -122.376241, 37.655249 ], [ -122.376250907937006, 37.655229387338103 ], [ -122.376402931607004, 37.654928458023697 ], [ -122.377657397639993, 37.652445255210999 ], [ -122.37790722567, 37.651950723154897 ], [ -122.380044, 37.647721 ], [ -122.387245, 37.64734 ], [ -122.388196331732004, 37.647115706171 ], [ -122.391215, 37.646404 ], [ -122.390784661218007, 37.644998724409902 ], [ -122.390671319502999, 37.644628605907499 ], [ -122.389444288503, 37.6406217239198 ], [ -122.389313, 37.640193 ], [ -122.384322, 37.640382 ], [ -122.384156277117995, 37.640164178851201 ], [ -122.383325321452006, 37.639071995826903 ], [ -122.380584497046002, 37.635469539030296 ], [ -122.380495536439994, 37.635352611897702 ], [ -122.38191, 37.635399 ], [ -122.401995, 37.635476 ], [ -122.402722, 37.635537 ], [ -122.403661, 37.635538 ], [ -122.403686, 37.634976 ], [ -122.403609, 37.634193 ], [ -122.402946, 37.631839 ], [ -122.402865, 37.631313 ], [ -122.402393, 37.627936 ], [ -122.400056, 37.620771 ], [ -122.398008, 37.61521 ], [ -122.396469, 37.612862 ], [ -122.397875, 37.612708 ], [ -122.399083, 37.612019 ], [ -122.400091, 37.612666 ], [ -122.400163, 37.612646 ], [ -122.405228, 37.619437 ], [ -122.404954, 37.619727 ], [ -122.407252, 37.622842 ], [ -122.409458, 37.626656 ], [ -122.411774, 37.630673 ], [ -122.412852, 37.632856 ], [ -122.412985, 37.634135 ], [ -122.413759, 37.634184 ], [ -122.416763, 37.639353 ], [ -122.418482, 37.642316 ], [ -122.423435, 37.640472 ], [ -122.424997, 37.642668 ], [ -122.427492, 37.64605 ], [ -122.429534, 37.648748 ], [ -122.433353, 37.654157 ], [ -122.434433, 37.655079 ], [ -122.433716, 37.655502 ], [ -122.427435, 37.652102 ], [ -122.427072, 37.651848 ], [ -122.424064, 37.655237 ], [ -122.42376, 37.656097 ], [ -122.430841, 37.65766 ] ] ], [ [ [ -122.471743, 37.701518 ], [ -122.469834, 37.701872 ], [ -122.466574, 37.701478 ], [ -122.466344, 37.701277 ], [ -122.463482, 37.701288 ], [ -122.462974, 37.703169 ], [ -122.462217, 37.703155 ], [ -122.462035, 37.704106 ], [ -122.459876, 37.704853 ], [ -122.459132, 37.70293 ], [ -122.456873, 37.70268 ], [ -122.45634, 37.702909 ], [ -122.454778, 37.702225 ], [ -122.453623, 37.702318 ], [ -122.453001, 37.702222 ], [ -122.450546, 37.70245 ], [ -122.448257, 37.7032 ], [ -122.447571, 37.703114 ], [ -122.446857, 37.702833 ], [ -122.449047, 37.701651 ], [ -122.448911, 37.701436 ], [ -122.449445, 37.701145 ], [ -122.450729, 37.697698 ], [ -122.452198, 37.695998 ], [ -122.453368, 37.694878 ], [ -122.455203, 37.694203 ], [ -122.455864, 37.693765 ], [ -122.45477, 37.692338 ], [ -122.452808, 37.691647 ], [ -122.455224, 37.688836 ], [ -122.455748, 37.68835 ], [ -122.45769, 37.688538 ], [ -122.45967, 37.688807 ], [ -122.461097, 37.689588 ], [ -122.461128, 37.688303 ], [ -122.461642, 37.688036 ], [ -122.465743, 37.687845 ], [ -122.465986, 37.688317 ], [ -122.466112, 37.689328 ], [ -122.466725, 37.68903 ], [ -122.46823, 37.687836 ], [ -122.471561, 37.685009 ], [ -122.471511, 37.686305 ], [ -122.471131, 37.687895 ], [ -122.470749, 37.68907 ], [ -122.47061, 37.689721 ], [ -122.470603, 37.693306 ], [ -122.471587, 37.698025 ], [ -122.4717, 37.700079 ], [ -122.471743, 37.701518 ] ] ], [ [ [ -122.412887, 37.711036 ], [ -122.416, 37.711915 ], [ -122.415635, 37.712733 ], [ -122.415291, 37.713504 ], [ -122.415396, 37.715474 ], [ -122.411316, 37.714367 ], [ -122.410433, 37.716414 ], [ -122.408561, 37.716412 ], [ -122.408255, 37.71809 ], [ -122.407272, 37.71782 ], [ -122.4061, 37.719837 ], [ -122.403071, 37.718465 ], [ -122.402103, 37.718721 ], [ -122.400435, 37.719162 ], [ -122.39974, 37.716183 ], [ -122.39867, 37.717508 ], [ -122.398693, 37.717642 ], [ -122.397025, 37.719515 ], [ -122.396682, 37.720266 ], [ -122.393545, 37.718487 ], [ -122.391141, 37.71804 ], [ -122.387912, 37.716328 ], [ -122.386265, 37.717179 ], [ -122.384156, 37.719521 ], [ -122.383251, 37.720289 ], [ -122.383042056708007, 37.720609029858501 ], [ -122.377476879317001, 37.716975598622703 ], [ -122.376128860246993, 37.716095494674398 ], [ -122.375978, 37.715997 ], [ -122.380064, 37.710869 ], [ -122.379594971355004, 37.710382640042397 ], [ -122.378765, 37.709522 ], [ -122.37939, 37.708663 ], [ -122.381875580843996, 37.708886230058503 ], [ -122.387358890797998, 37.709378686220198 ], [ -122.390947634626997, 37.709700991365501 ], [ -122.391549, 37.709755 ], [ -122.393378981140003, 37.708267569990298 ], [ -122.395107, 37.708339 ], [ -122.404682, 37.708331 ], [ -122.405292, 37.708262 ], [ -122.406958, 37.704639 ], [ -122.410718, 37.705691 ], [ -122.411338, 37.701364 ], [ -122.413417, 37.697831 ], [ -122.419223, 37.699143 ], [ -122.418096, 37.701871 ], [ -122.423341, 37.703565 ], [ -122.424668, 37.705679 ], [ -122.42459, 37.706598 ], [ -122.42389, 37.708236 ], [ -122.420082, 37.708231 ], [ -122.416222, 37.708328 ], [ -122.415182, 37.708231 ], [ -122.41238, 37.708303 ], [ -122.411349, 37.710605 ], [ -122.412887, 37.711036 ] ] ], [ [ [ -122.45905, 37.708231 ], [ -122.464896, 37.708186 ], [ -122.468939, 37.708232 ], [ -122.465994, 37.710154 ], [ -122.460858, 37.710586 ], [ -122.462556, 37.711254 ], [ -122.462581, 37.712274 ], [ -122.462589, 37.71403 ], [ -122.456061, 37.714077 ], [ -122.452174, 37.714104 ], [ -122.450378, 37.716169 ], [ -122.453378, 37.717768 ], [ -122.454189, 37.718239 ], [ -122.456108, 37.718235 ], [ -122.459187, 37.71823 ], [ -122.459198, 37.720024 ], [ -122.452506, 37.72003 ], [ -122.451646, 37.719686 ], [ -122.449546, 37.723011 ], [ -122.447878, 37.723005 ], [ -122.448582, 37.718411 ], [ -122.448727, 37.71745 ], [ -122.449627, 37.715739 ], [ -122.452884, 37.712829 ], [ -122.451993, 37.712086 ], [ -122.449309, 37.709946 ], [ -122.452665, 37.708806 ], [ -122.454356, 37.708232 ], [ -122.458509, 37.708231 ], [ -122.45905, 37.708231 ] ] ], [ [ [ -122.436642, 37.71355 ], [ -122.437811, 37.71192 ], [ -122.443335, 37.710555 ], [ -122.444097, 37.711689 ], [ -122.444571, 37.712783 ], [ -122.443706, 37.713592 ], [ -122.441896, 37.715308 ], [ -122.440999, 37.716488 ], [ -122.440418, 37.717245 ], [ -122.440141, 37.717692 ], [ -122.43715, 37.721575 ], [ -122.435977, 37.72313 ], [ -122.435385, 37.723909 ], [ -122.434798, 37.724683 ], [ -122.433982, 37.725762 ], [ -122.433624, 37.726236 ], [ -122.432447, 37.727637 ], [ -122.431801, 37.728249 ], [ -122.431294, 37.72873 ], [ -122.430199, 37.729872 ], [ -122.429304, 37.730742 ], [ -122.428038, 37.732016 ], [ -122.426158, 37.733971 ], [ -122.428573, 37.735082 ], [ -122.426722, 37.736372 ], [ -122.426545, 37.736269 ], [ -122.426209, 37.736074 ], [ -122.424595, 37.735944 ], [ -122.423264, 37.735965 ], [ -122.422688, 37.735205 ], [ -122.422399, 37.735166 ], [ -122.421676, 37.73513 ], [ -122.420163, 37.735777 ], [ -122.41676, 37.735605 ], [ -122.416824, 37.734888 ], [ -122.414313, 37.734763 ], [ -122.412447, 37.73467 ], [ -122.411166, 37.735072 ], [ -122.410418, 37.734457 ], [ -122.413493, 37.732864 ], [ -122.415939, 37.732072 ], [ -122.419244, 37.73206 ], [ -122.41927, 37.73133 ], [ -122.419486, 37.729046 ], [ -122.416637, 37.728809 ], [ -122.415193, 37.729223 ], [ -122.41446, 37.727457 ], [ -122.418404, 37.726425 ], [ -122.418888, 37.724966 ], [ -122.419875, 37.72471 ], [ -122.421847, 37.724199 ], [ -122.422426, 37.724048 ], [ -122.423807, 37.723691 ], [ -122.424771, 37.722172 ], [ -122.428074, 37.723591 ], [ -122.428837, 37.723955 ], [ -122.430026, 37.722398 ], [ -122.431205, 37.720856 ], [ -122.432385, 37.719298 ], [ -122.433555, 37.717744 ], [ -122.431154, 37.716594 ], [ -122.432777, 37.714437 ], [ -122.433682, 37.713181 ], [ -122.436144, 37.714254 ], [ -122.436203, 37.714171 ], [ -122.436642, 37.71355 ] ] ], [ [ [ -122.474383, 37.717507 ], [ -122.474661, 37.719151 ], [ -122.472921, 37.71735 ], [ -122.472672, 37.717248 ], [ -122.471472, 37.713427 ], [ -122.471355, 37.712802 ], [ -122.472269, 37.712838 ], [ -122.477016, 37.714593 ], [ -122.485275, 37.714823 ], [ -122.485124, 37.718575 ], [ -122.484832, 37.718571 ], [ -122.483143, 37.718517 ], [ -122.483205, 37.717585 ], [ -122.479981, 37.716942 ], [ -122.478674, 37.717903 ], [ -122.47724, 37.717709 ], [ -122.475818, 37.716891 ], [ -122.474383, 37.717507 ] ] ], [ [ [ -122.421272, 37.758499 ], [ -122.421425, 37.760101 ], [ -122.421578, 37.761701 ], [ -122.421732, 37.7633 ], [ -122.421853, 37.764571 ], [ -122.421886, 37.764917 ], [ -122.422044, 37.76654 ], [ -122.422199, 37.76814 ], [ -122.422308, 37.769278 ], [ -122.422439, 37.770664 ], [ -122.42262, 37.772503 ], [ -122.423665, 37.771781 ], [ -122.424929, 37.770778 ], [ -122.425512, 37.772734 ], [ -122.428802, 37.772316 ], [ -122.42899, 37.773248 ], [ -122.430825, 37.773973 ], [ -122.429178, 37.774181 ], [ -122.425888, 37.774599 ], [ -122.426263, 37.776464 ], [ -122.426641, 37.778329 ], [ -122.424998, 37.778538 ], [ -122.423354, 37.778747 ], [ -122.423541, 37.779674 ], [ -122.423918, 37.781536 ], [ -122.424108, 37.782477 ], [ -122.424678, 37.785291 ], [ -122.422838, 37.784547 ], [ -122.421256, 37.784745 ], [ -122.421675, 37.786605 ], [ -122.421858, 37.787535 ], [ -122.418465, 37.787966 ], [ -122.416827, 37.788178 ], [ -122.415185, 37.788388 ], [ -122.414995, 37.787454 ], [ -122.413354, 37.787664 ], [ -122.412531, 37.787767 ], [ -122.411699, 37.787872 ], [ -122.408402, 37.788293 ], [ -122.408595, 37.789226 ], [ -122.408786, 37.79016 ], [ -122.407149, 37.790366 ], [ -122.40734, 37.791296 ], [ -122.407536, 37.792249 ], [ -122.407903, 37.79406 ], [ -122.408253, 37.795824 ], [ -122.408431, 37.796704 ], [ -122.406828, 37.796902 ], [ -122.406652, 37.796025 ], [ -122.406601, 37.795774 ], [ -122.406305, 37.794264 ], [ -122.404796, 37.794453 ], [ -122.404613, 37.793565 ], [ -122.401315, 37.793987 ], [ -122.400149, 37.794134 ], [ -122.396586, 37.794588 ], [ -122.396315, 37.793337 ], [ -122.397428, 37.792442 ], [ -122.399195, 37.791058 ], [ -122.401402, 37.789297 ], [ -122.402914, 37.788112 ], [ -122.403456, 37.787776 ], [ -122.404743, 37.786778 ], [ -122.406062, 37.785757 ], [ -122.402708, 37.783259 ], [ -122.400468, 37.78503 ], [ -122.39893, 37.783785 ], [ -122.397386, 37.782554 ], [ -122.395843, 37.781321 ], [ -122.39275, 37.778852 ], [ -122.390527, 37.780607 ], [ -122.389168, 37.781649 ], [ -122.388423, 37.781798 ], [ -122.387669, 37.782791029411797 ], [ -122.387669, 37.776799 ], [ -122.386594091484, 37.773281993988 ], [ -122.385894316499005, 37.770992391856304 ], [ -122.385216, 37.768773 ], [ -122.385706799990004, 37.767253171038703 ], [ -122.386756030236995, 37.764004086793904 ], [ -122.387917, 37.764379 ], [ -122.388164, 37.766958 ], [ -122.389099, 37.766903 ], [ -122.393001, 37.766671 ], [ -122.394473, 37.766582 ], [ -122.39351, 37.765585 ], [ -122.398703, 37.765014 ], [ -122.400633, 37.764898 ], [ -122.404497, 37.764664 ], [ -122.40509, 37.764628 ], [ -122.408424, 37.764427 ], [ -122.410364, 37.76431 ], [ -122.413003, 37.764091 ], [ -122.413588, 37.763823 ], [ -122.417332, 37.763572 ], [ -122.417179, 37.761968 ], [ -122.417026, 37.760367 ], [ -122.416872, 37.758764 ], [ -122.41672, 37.757167 ], [ -122.416567, 37.755568 ], [ -122.418748, 37.755437 ], [ -122.420964, 37.755295 ], [ -122.421118, 37.756902 ], [ -122.421272, 37.758499 ] ], [ [ -122.417146, 37.781447 ], [ -122.417339, 37.782379 ], [ -122.418993, 37.782169 ], [ -122.420689, 37.781955 ], [ -122.420358, 37.780072 ], [ -122.419943, 37.778238 ], [ -122.419765, 37.777291 ], [ -122.419359, 37.775432 ], [ -122.419334, 37.77521 ], [ -122.418704, 37.775645 ], [ -122.417615, 37.7766 ], [ -122.416292, 37.777494 ], [ -122.414782, 37.778744 ], [ -122.413365, 37.779862 ], [ -122.412548, 37.780508 ], [ -122.411985, 37.780952 ], [ -122.413866, 37.781863 ], [ -122.415505, 37.781654 ], [ -122.417146, 37.781447 ] ], [ [ -122.413161, 37.774992 ], [ -122.415561, 37.773101 ], [ -122.414027, 37.771864 ], [ -122.41248, 37.77063 ], [ -122.408516, 37.77376 ], [ -122.410063, 37.774992 ], [ -122.411606, 37.776221 ], [ -122.413161, 37.774992 ] ] ], [ [ [ -122.410551, 37.748367 ], [ -122.410619, 37.746941 ], [ -122.410441, 37.744918 ], [ -122.409378, 37.742923 ], [ -122.410662, 37.742424 ], [ -122.410365, 37.741362 ], [ -122.410507, 37.739779 ], [ -122.411992, 37.73971 ], [ -122.413938, 37.73893 ], [ -122.415184, 37.738933 ], [ -122.415899, 37.739002 ], [ -122.418584, 37.739297 ], [ -122.41777, 37.740564 ], [ -122.418752, 37.74118 ], [ -122.416103, 37.745253 ], [ -122.417819, 37.745965 ], [ -122.419121, 37.746775 ], [ -122.418206, 37.748203 ], [ -122.41587, 37.748267 ], [ -122.416108, 37.750771 ], [ -122.416413, 37.753968 ], [ -122.412047, 37.75423 ], [ -122.4119, 37.752629 ], [ -122.411746, 37.751034 ], [ -122.411488, 37.748344 ], [ -122.410551, 37.748367 ] ] ], [ [ [ -122.396408, 37.751179 ], [ -122.394587, 37.752427 ], [ -122.391231, 37.75263 ], [ -122.38789, 37.752819 ], [ -122.382266933582997, 37.753153656024097 ], [ -122.376561, 37.752073 ], [ -122.376241, 37.748523 ], [ -122.372992392797002, 37.745313639265902 ], [ -122.374763, 37.743843 ], [ -122.376847, 37.740192 ], [ -122.37911, 37.73768 ], [ -122.380887, 37.738828 ], [ -122.38099, 37.73872 ], [ -122.381558, 37.738123 ], [ -122.385282, 37.74024 ], [ -122.387143, 37.741297 ], [ -122.387705, 37.742697 ], [ -122.389425, 37.738803 ], [ -122.391268, 37.739853 ], [ -122.393524, 37.737351 ], [ -122.394093, 37.736729 ], [ -122.395945, 37.737784 ], [ -122.399982, 37.739949 ], [ -122.407009, 37.738002 ], [ -122.407114, 37.73906 ], [ -122.407062, 37.73957 ], [ -122.40459, 37.744126 ], [ -122.403561, 37.747762 ], [ -122.403784, 37.749433 ], [ -122.402861, 37.749543 ], [ -122.402605, 37.750558 ], [ -122.400217, 37.750753 ], [ -122.396408, 37.751179 ] ] ], [ [ [ -122.279564, 37.800449 ], [ -122.279687, 37.800256 ], [ -122.283322, 37.8017 ], [ -122.286832, 37.802685 ], [ -122.28867, 37.802755 ], [ -122.291101, 37.802526 ], [ -122.296858, 37.801922 ], [ -122.300389, 37.802657 ], [ -122.303339, 37.804684 ], [ -122.304825, 37.807566 ], [ -122.304866, 37.807896 ], [ -122.310768, 37.808798 ], [ -122.312214, 37.808657 ], [ -122.320197, 37.809318 ], [ -122.323932, 37.807979 ], [ -122.327803, 37.807658 ], [ -122.328660769126998, 37.810517286923101 ], [ -122.322785, 37.810132 ], [ -122.321896312126995, 37.811124306061799 ], [ -122.317296, 37.816261 ], [ -122.319057007843995, 37.818869180387203 ], [ -122.319198, 37.819078 ], [ -122.319427754398006, 37.819108891693197 ], [ -122.329389314606999, 37.820448276120302 ], [ -122.330369, 37.82058 ], [ -122.326826695243, 37.822258626712603 ], [ -122.316579917496995, 37.827114367825097 ], [ -122.316108, 37.827338 ], [ -122.306125, 37.826024 ], [ -122.305494983718006, 37.826185761832697 ], [ -122.298471648507004, 37.827989060586198 ], [ -122.296618, 37.828465 ], [ -122.297115883456001, 37.831217674031201 ], [ -122.294033, 37.830608 ], [ -122.293391, 37.830674 ], [ -122.293304, 37.830653 ], [ -122.291029, 37.830107 ], [ -122.290863, 37.830067 ], [ -122.290059, 37.829874 ], [ -122.288904, 37.829599 ], [ -122.288138, 37.829414 ], [ -122.287998, 37.829379 ], [ -122.2874, 37.829215 ], [ -122.282384, 37.828033 ], [ -122.28095, 37.827689 ], [ -122.283643, 37.824406 ], [ -122.284939, 37.822769 ], [ -122.286226, 37.821163 ], [ -122.276053, 37.81887 ], [ -122.276246, 37.819478 ], [ -122.276697, 37.820883 ], [ -122.277372, 37.822934 ], [ -122.277915, 37.824623 ], [ -122.278611, 37.826878 ], [ -122.275061, 37.826059 ], [ -122.271796, 37.825226 ], [ -122.268563, 37.824462 ], [ -122.261996, 37.823012 ], [ -122.260006, 37.822421 ], [ -122.261062, 37.820701 ], [ -122.262366, 37.818614 ], [ -122.263084, 37.817449 ], [ -122.263756, 37.816381 ], [ -122.264193, 37.81571 ], [ -122.266771, 37.811553 ], [ -122.271274, 37.804361 ], [ -122.268798, 37.803427 ], [ -122.26761, 37.80296 ], [ -122.266458, 37.802497 ], [ -122.267312, 37.801081 ], [ -122.263752, 37.7997 ], [ -122.265066, 37.797622 ], [ -122.266615, 37.795117 ], [ -122.27014, 37.796524 ], [ -122.272515, 37.797457 ], [ -122.274935, 37.798276 ], [ -122.275061, 37.798321 ], [ -122.278536, 37.799654 ], [ -122.279564, 37.800449 ] ], [ [ -122.278681, 37.814574 ], [ -122.280237, 37.814777 ], [ -122.284024, 37.815622 ], [ -122.285192, 37.812403 ], [ -122.286208, 37.809606 ], [ -122.281485, 37.808568 ], [ -122.280965, 37.808301 ], [ -122.279921, 37.811183 ], [ -122.278681, 37.814574 ] ] ], [ [ [ -122.228064, 37.471027 ], [ -122.228911, 37.471487 ], [ -122.231368, 37.469633 ], [ -122.232453, 37.470499 ], [ -122.23219, 37.470704 ], [ -122.234499, 37.47201 ], [ -122.236392, 37.473528 ], [ -122.232329, 37.476761 ], [ -122.228672, 37.479663 ], [ -122.231258, 37.481532 ], [ -122.231579, 37.481773 ], [ -122.232476, 37.482417 ], [ -122.231402, 37.483366 ], [ -122.23242, 37.484099 ], [ -122.233, 37.484509 ], [ -122.234927, 37.486202 ], [ -122.236303, 37.486136 ], [ -122.240718, 37.489666 ], [ -122.239737, 37.490529 ], [ -122.239441, 37.49084 ], [ -122.23858, 37.491624 ], [ -122.23467, 37.488203 ], [ -122.231769, 37.490316 ], [ -122.236161, 37.493531 ], [ -122.238164, 37.495688 ], [ -122.239452, 37.496948 ], [ -122.24054, 37.497775 ], [ -122.238135, 37.498146 ], [ -122.236817, 37.497464 ], [ -122.226267, 37.494232 ], [ -122.216185, 37.490042 ], [ -122.210344, 37.488213 ], [ -122.199117, 37.486632 ], [ -122.201425, 37.48267 ], [ -122.202086, 37.482932 ], [ -122.213408, 37.485225 ], [ -122.213282, 37.483411 ], [ -122.212072, 37.483156 ], [ -122.209403, 37.482605 ], [ -122.210044, 37.481687 ], [ -122.212843, 37.477654 ], [ -122.213375, 37.478013 ], [ -122.214751, 37.478923 ], [ -122.214969, 37.479067 ], [ -122.216117, 37.477454 ], [ -122.21721, 37.477639 ], [ -122.217246, 37.477545 ], [ -122.21764, 37.477094 ], [ -122.220535, 37.478874 ], [ -122.221923, 37.476424 ], [ -122.22248, 37.476843 ], [ -122.224718, 37.474952 ], [ -122.227752, 37.47245 ], [ -122.227027, 37.471867 ], [ -122.228064, 37.471027 ] ] ], [ [ [ -122.137219, 37.690063 ], [ -122.138871, 37.691216 ], [ -122.140728, 37.692493 ], [ -122.149038, 37.698212 ], [ -122.159155, 37.705182 ], [ -122.160971, 37.706465 ], [ -122.166672, 37.710422 ], [ -122.155593, 37.715082 ], [ -122.147152, 37.707695 ], [ -122.142381, 37.703541 ], [ -122.144077, 37.706209 ], [ -122.142377, 37.707679 ], [ -122.141893, 37.707302 ], [ -122.138846, 37.705201 ], [ -122.134664, 37.708903 ], [ -122.134547, 37.709007 ], [ -122.134312, 37.70922 ], [ -122.134228, 37.709296 ], [ -122.131444, 37.707353 ], [ -122.130093, 37.706408 ], [ -122.129285, 37.705855 ], [ -122.126469, 37.708011 ], [ -122.124259, 37.709833 ], [ -122.122551, 37.708533 ], [ -122.120937, 37.707318 ], [ -122.116647, 37.705303 ], [ -122.109474, 37.700945 ], [ -122.108362, 37.70009 ], [ -122.106223, 37.697824 ], [ -122.104167, 37.695511 ], [ -122.101234, 37.692224 ], [ -122.099501, 37.690967 ], [ -122.098449, 37.690353 ], [ -122.096728, 37.689985 ], [ -122.09581, 37.689915 ], [ -122.094008, 37.690053 ], [ -122.094553, 37.689466 ], [ -122.096161, 37.688149 ], [ -122.096288, 37.68804 ], [ -122.093001, 37.685631 ], [ -122.092159, 37.685027 ], [ -122.090246, 37.683647 ], [ -122.085341, 37.680022 ], [ -122.084346, 37.678926 ], [ -122.083088, 37.676868 ], [ -122.079701, 37.678189 ], [ -122.078725, 37.680345 ], [ -122.077051, 37.679626 ], [ -122.076913, 37.678923 ], [ -122.076227, 37.678123 ], [ -122.073895, 37.675209 ], [ -122.072224, 37.675764 ], [ -122.070581, 37.676333 ], [ -122.066756, 37.67763 ], [ -122.065, 37.677927 ], [ -122.065067, 37.676921 ], [ -122.064642, 37.67576 ], [ -122.07117, 37.673649 ], [ -122.07282, 37.673047 ], [ -122.066987, 37.672371 ], [ -122.064903, 37.671665 ], [ -122.065904, 37.668717 ], [ -122.060228, 37.66753 ], [ -122.059305, 37.666343 ], [ -122.060868, 37.665709 ], [ -122.065639, 37.664047 ], [ -122.061411, 37.66062 ], [ -122.060494, 37.660287 ], [ -122.058749, 37.660017 ], [ -122.063073, 37.65916 ], [ -122.059903, 37.658564 ], [ -122.059694, 37.656996 ], [ -122.057031, 37.65554 ], [ -122.055206, 37.652632 ], [ -122.061135, 37.654309 ], [ -122.065103, 37.65165 ], [ -122.066542, 37.651361 ], [ -122.066939, 37.651218 ], [ -122.064598, 37.648266 ], [ -122.063118, 37.648698 ], [ -122.062241, 37.649918 ], [ -122.059751, 37.649642 ], [ -122.055455, 37.650687 ], [ -122.050933, 37.647465 ], [ -122.050328, 37.647148 ], [ -122.049803, 37.646654 ], [ -122.049562, 37.646505 ], [ -122.049085, 37.646467 ], [ -122.048717, 37.646523 ], [ -122.044828, 37.647373 ], [ -122.04338, 37.647212 ], [ -122.039537, 37.646737 ], [ -122.037142, 37.645709 ], [ -122.035972, 37.645532 ], [ -122.031025, 37.645603 ], [ -122.02832, 37.647836 ], [ -122.025089, 37.647193 ], [ -122.022542, 37.647513 ], [ -122.019566, 37.646311 ], [ -122.016201, 37.642611 ], [ -122.01633, 37.642027 ], [ -122.017277, 37.641225 ], [ -122.01806, 37.640637 ], [ -122.018226, 37.640339 ], [ -122.018395, 37.640207 ], [ -122.018796, 37.639727 ], [ -122.019562, 37.638435 ], [ -122.019596, 37.637797 ], [ -122.019848, 37.637076 ], [ -122.019571, 37.636786 ], [ -122.018272, 37.63586 ], [ -122.015349, 37.63426 ], [ -122.012538, 37.634215 ], [ -122.011089, 37.633652 ], [ -122.013588, 37.631978 ], [ -122.014024, 37.631686 ], [ -122.017206, 37.632394 ], [ -122.018815, 37.633242 ], [ -122.020541, 37.633372 ], [ -122.022853, 37.632251 ], [ -122.025508, 37.628203 ], [ -122.030028, 37.628855 ], [ -122.031588, 37.628606 ], [ -122.032314, 37.628442 ], [ -122.034786, 37.628021 ], [ -122.036254, 37.629158 ], [ -122.039879, 37.629171 ], [ -122.040405, 37.628959 ], [ -122.04277, 37.627904 ], [ -122.044644, 37.627777 ], [ -122.046779, 37.629678 ], [ -122.046934, 37.629598 ], [ -122.05168, 37.625745 ], [ -122.052527, 37.625077 ], [ -122.050451, 37.623241 ], [ -122.039459, 37.613404 ], [ -122.0345, 37.60906 ], [ -122.030938, 37.605927 ], [ -122.034819, 37.605962 ], [ -122.041447, 37.61164 ], [ -122.043298, 37.612266 ], [ -122.043831, 37.60604 ], [ -122.051683, 37.606006 ], [ -122.05869, 37.606028 ], [ -122.059375, 37.603907 ], [ -122.06566, 37.605143 ], [ -122.068794, 37.605698 ], [ -122.067079, 37.610771 ], [ -122.066975, 37.611063 ], [ -122.066963, 37.611369 ], [ -122.06688, 37.611695 ], [ -122.066413, 37.613137 ], [ -122.066536, 37.61314 ], [ -122.071185, 37.613274 ], [ -122.07145, 37.613278 ], [ -122.072446, 37.614664 ], [ -122.074536, 37.617585 ], [ -122.074259, 37.617576 ], [ -122.073833, 37.617648 ], [ -122.072016, 37.622221 ], [ -122.071867, 37.624553 ], [ -122.072286, 37.63082 ], [ -122.073242, 37.631424 ], [ -122.074324, 37.632183 ], [ -122.075885, 37.636457 ], [ -122.074725, 37.636712 ], [ -122.072327, 37.634598 ], [ -122.072114, 37.634332 ], [ -122.068989, 37.635925 ], [ -122.0717, 37.638279 ], [ -122.071623, 37.638319 ], [ -122.069543, 37.639504 ], [ -122.072466, 37.642087 ], [ -122.072298, 37.642174 ], [ -122.079978, 37.648911 ], [ -122.076872, 37.649415 ], [ -122.080061, 37.653092 ], [ -122.082473, 37.655991 ], [ -122.083272, 37.656907 ], [ -122.086718, 37.658182 ], [ -122.087972, 37.655904 ], [ -122.092598, 37.659886 ], [ -122.100231, 37.666572 ], [ -122.098951, 37.667001 ], [ -122.099186, 37.667197 ], [ -122.101682, 37.669365 ], [ -122.098255, 37.670759 ], [ -122.099839, 37.673222 ], [ -122.095011, 37.675179 ], [ -122.097731, 37.677047 ], [ -122.099064, 37.677957 ], [ -122.094768, 37.679545 ], [ -122.096645, 37.681094 ], [ -122.098822, 37.682829 ], [ -122.099046, 37.683002 ], [ -122.099202, 37.684572 ], [ -122.100633, 37.685717 ], [ -122.106029, 37.685902 ], [ -122.108454, 37.684436 ], [ -122.110736, 37.684681 ], [ -122.113212, 37.686334 ], [ -122.116825, 37.685647 ], [ -122.117395, 37.686013 ], [ -122.122193, 37.685863 ], [ -122.125958, 37.685668 ], [ -122.129, 37.684386 ], [ -122.130022, 37.685112 ], [ -122.132347, 37.686709 ], [ -122.137219, 37.690063 ] ] ], [ [ [ -122.14508, 37.720682 ], [ -122.148636, 37.719698 ], [ -122.147968, 37.719211 ], [ -122.151638, 37.717692 ], [ -122.151151, 37.716942 ], [ -122.153984, 37.715744 ], [ -122.155593, 37.715082 ], [ -122.15892, 37.717986 ], [ -122.159808, 37.718776 ], [ -122.164245, 37.722651 ], [ -122.16724, 37.721836 ], [ -122.168104, 37.721626 ], [ -122.170496, 37.721032 ], [ -122.17306, 37.720345 ], [ -122.173941, 37.720025 ], [ -122.175295, 37.719472 ], [ -122.176864, 37.719098 ], [ -122.183312, 37.725566 ], [ -122.181916, 37.725372 ], [ -122.180226, 37.725738 ], [ -122.175802, 37.725231 ], [ -122.174341, 37.72665 ], [ -122.170401, 37.727756 ], [ -122.17043, 37.727836 ], [ -122.17404, 37.73119 ], [ -122.170497, 37.731869 ], [ -122.170097, 37.732056 ], [ -122.171556, 37.734996 ], [ -122.165472, 37.737689 ], [ -122.16416, 37.73594 ], [ -122.160502, 37.737607 ], [ -122.160074, 37.737691 ], [ -122.155119, 37.739082 ], [ -122.152439, 37.735476 ], [ -122.151063, 37.733566 ], [ -122.150195, 37.73237 ], [ -122.148736, 37.729135 ], [ -122.147888, 37.727156 ], [ -122.146731, 37.724493 ], [ -122.145496, 37.72167 ], [ -122.14508, 37.720682 ] ] ], [ [ [ -122.226443, 37.734387 ], [ -122.226492, 37.745037 ], [ -122.2266, 37.745501 ], [ -122.226508, 37.747884 ], [ -122.2265, 37.74808 ], [ -122.223377, 37.748036 ], [ -122.223481, 37.754702 ], [ -122.223647, 37.756926 ], [ -122.224213, 37.762813 ], [ -122.224904, 37.764563 ], [ -122.226583, 37.766934 ], [ -122.230205, 37.768977 ], [ -122.236488, 37.771696 ], [ -122.236566, 37.771731 ], [ -122.240498, 37.773732 ], [ -122.243536, 37.776278 ], [ -122.244817, 37.779123 ], [ -122.245219, 37.783033 ], [ -122.246591, 37.784679 ], [ -122.251332, 37.786881 ], [ -122.253958, 37.786779 ], [ -122.256889, 37.785677 ], [ -122.260056, 37.784489 ], [ -122.268544, 37.787934 ], [ -122.262963, 37.791175 ], [ -122.261327, 37.793807 ], [ -122.260806, 37.79528 ], [ -122.259577, 37.79632 ], [ -122.259551, 37.798132 ], [ -122.259554, 37.798301 ], [ -122.257805, 37.799704 ], [ -122.254505, 37.800561 ], [ -122.251935, 37.799731 ], [ -122.251017, 37.79918 ], [ -122.250162, 37.798427 ], [ -122.252043, 37.797093 ], [ -122.253855, 37.795785 ], [ -122.251356, 37.793563 ], [ -122.250515, 37.792834 ], [ -122.248014, 37.790626 ], [ -122.247175, 37.789913 ], [ -122.245238, 37.788992 ], [ -122.241044, 37.786487 ], [ -122.2359, 37.78341 ], [ -122.231481, 37.780769 ], [ -122.229935, 37.782402 ], [ -122.227537, 37.78495 ], [ -122.226792, 37.784511 ], [ -122.225307, 37.786098 ], [ -122.224369, 37.785646 ], [ -122.222249, 37.784938 ], [ -122.222729, 37.783749 ], [ -122.219322, 37.782476 ], [ -122.2191, 37.7822 ], [ -122.217565, 37.783713 ], [ -122.215271, 37.785099 ], [ -122.214028, 37.785834 ], [ -122.211978, 37.78704 ], [ -122.210377, 37.787975 ], [ -122.207444, 37.785373 ], [ -122.207372, 37.785311 ], [ -122.20414, 37.782517 ], [ -122.204379, 37.782306 ], [ -122.20469, 37.781988 ], [ -122.206385, 37.780182 ], [ -122.20681, 37.779734 ], [ -122.211133, 37.775171 ], [ -122.211734, 37.774681 ], [ -122.214794, 37.772376 ], [ -122.210778, 37.770479 ], [ -122.207008, 37.768703 ], [ -122.20368, 37.767126 ], [ -122.199502, 37.765149 ], [ -122.195455, 37.763258 ], [ -122.19433, 37.762714 ], [ -122.19283, 37.761996 ], [ -122.190299, 37.760786 ], [ -122.187862, 37.759708 ], [ -122.187054, 37.759264 ], [ -122.184368, 37.757975 ], [ -122.18268, 37.757174 ], [ -122.182446, 37.757065 ], [ -122.179475, 37.755647 ], [ -122.179117, 37.755471 ], [ -122.178484, 37.755174 ], [ -122.176501, 37.752609 ], [ -122.175823, 37.751696 ], [ -122.174969, 37.750546 ], [ -122.175107, 37.750479 ], [ -122.180062, 37.748161 ], [ -122.183321, 37.746462 ], [ -122.185952, 37.748986 ], [ -122.190731, 37.745815 ], [ -122.185813, 37.741504 ], [ -122.181561, 37.737835 ], [ -122.181786, 37.73765 ], [ -122.18335, 37.736426 ], [ -122.183593, 37.735921 ], [ -122.183825, 37.735389 ], [ -122.184187, 37.734824 ], [ -122.184816, 37.734289 ], [ -122.186815, 37.732855 ], [ -122.186936, 37.732769 ], [ -122.188784, 37.731729 ], [ -122.184167, 37.726529 ], [ -122.183312, 37.725566 ], [ -122.18442, 37.726116 ], [ -122.186459, 37.727589 ], [ -122.190299, 37.728858 ], [ -122.191927, 37.727288 ], [ -122.196137, 37.726007 ], [ -122.198055, 37.726227 ], [ -122.197746, 37.725171 ], [ -122.196747, 37.724133 ], [ -122.189138, 37.717812 ], [ -122.192905, 37.716726 ], [ -122.193401, 37.717829 ], [ -122.194714, 37.717538 ], [ -122.194265, 37.715912 ], [ -122.197028, 37.715829 ], [ -122.202097, 37.713021 ], [ -122.209726, 37.711087 ], [ -122.209187112470005, 37.710012817523598 ], [ -122.211578239822998, 37.7092563026549 ], [ -122.21248, 37.708971 ], [ -122.211767, 37.702013 ], [ -122.214744, 37.699247 ], [ -122.226503, 37.706526 ], [ -122.227129556354996, 37.706975761478901 ], [ -122.252172, 37.724952 ], [ -122.250214566731003, 37.726403475629503 ], [ -122.248369, 37.727772 ], [ -122.248462433745004, 37.7278688915301 ], [ -122.245039, 37.725798 ], [ -122.236181, 37.719851 ], [ -122.228343, 37.727729 ], [ -122.226768, 37.727657 ], [ -122.226443, 37.734387 ] ] ], [ [ [ -121.868117, 37.298987 ], [ -121.870268, 37.297486 ], [ -121.871144, 37.296703 ], [ -121.872074, 37.295707 ], [ -121.872864, 37.294715 ], [ -121.874729, 37.299143 ], [ -121.8767, 37.301874 ], [ -121.878612, 37.304342 ], [ -121.883232, 37.310156 ], [ -121.887901, 37.315414 ], [ -121.888061, 37.315323 ], [ -121.889345, 37.317119 ], [ -121.88984, 37.318589 ], [ -121.890521, 37.320957 ], [ -121.89217, 37.323753 ], [ -121.892324, 37.32374 ], [ -121.895186, 37.323148 ], [ -121.89778, 37.32246 ], [ -121.900177, 37.320835 ], [ -121.900468, 37.320585 ], [ -121.902233, 37.318704 ], [ -121.903259, 37.319778 ], [ -121.902625, 37.32136 ], [ -121.90248, 37.323481 ], [ -121.902069, 37.324069 ], [ -121.900883, 37.325601 ], [ -121.900194, 37.326611 ], [ -121.901331, 37.326434 ], [ -121.902733, 37.326291 ], [ -121.902876, 37.326281 ], [ -121.904864, 37.326176 ], [ -121.906205, 37.326222 ], [ -121.91158, 37.326009 ], [ -121.911829, 37.331553 ], [ -121.90473, 37.331862 ], [ -121.90381, 37.331903 ], [ -121.909255, 37.336841 ], [ -121.913401, 37.340642 ], [ -121.916314, 37.343185 ], [ -121.921909, 37.346027 ], [ -121.923773, 37.346992 ], [ -121.932135, 37.351219 ], [ -121.937553, 37.353984 ], [ -121.94383, 37.356683 ], [ -121.94647, 37.35582 ], [ -121.9512, 37.35413 ], [ -121.95518, 37.35341 ], [ -121.95452, 37.35228 ], [ -121.95713, 37.35228 ], [ -121.95935, 37.35228 ], [ -121.95944, 37.35576 ], [ -121.95948, 37.35903 ], [ -121.95945, 37.36102 ], [ -121.95946, 37.36349 ], [ -121.96528, 37.36602 ], [ -121.973317, 37.369449 ], [ -121.97681, 37.3703 ], [ -121.977816, 37.370412 ], [ -121.97826, 37.37046 ], [ -121.982571, 37.370478 ], [ -121.987296, 37.370442 ], [ -121.987271, 37.370929 ], [ -121.986926, 37.371817 ], [ -121.986896, 37.37407 ], [ -121.986969, 37.37758 ], [ -121.98697, 37.37778 ], [ -121.986976, 37.388448 ], [ -121.97699, 37.385598 ], [ -121.964048, 37.381894 ], [ -121.95376, 37.37902 ], [ -121.94752, 37.37775 ], [ -121.941725, 37.376648 ], [ -121.933017, 37.374874 ], [ -121.927392, 37.373543 ], [ -121.919455, 37.37203 ], [ -121.918321, 37.373022 ], [ -121.917202, 37.371741 ], [ -121.916876, 37.37166 ], [ -121.911177, 37.369861 ], [ -121.909589, 37.36907 ], [ -121.904766, 37.365267 ], [ -121.904164, 37.364941 ], [ -121.902359, 37.364215 ], [ -121.90178, 37.364029 ], [ -121.901351, 37.365026 ], [ -121.901014, 37.367246 ], [ -121.90103, 37.367954 ], [ -121.904309, 37.382367 ], [ -121.906507, 37.391399 ], [ -121.908851, 37.401491 ], [ -121.908901, 37.401725 ], [ -121.905633, 37.404322 ], [ -121.902863, 37.404407 ], [ -121.898682, 37.404091 ], [ -121.897746, 37.404132 ], [ -121.895821, 37.403741 ], [ -121.89226, 37.403411 ], [ -121.89058, 37.403313 ], [ -121.887006, 37.403023 ], [ -121.886293, 37.401704 ], [ -121.885363, 37.400003 ], [ -121.884713, 37.398664 ], [ -121.884349, 37.397497 ], [ -121.883925, 37.396317 ], [ -121.881464, 37.388614 ], [ -121.882751, 37.387909 ], [ -121.886054, 37.387353 ], [ -121.890276, 37.3848 ], [ -121.892198, 37.383633 ], [ -121.893676, 37.382886 ], [ -121.89586, 37.382745 ], [ -121.895446, 37.381868 ], [ -121.895593, 37.377681 ], [ -121.895367, 37.377706 ], [ -121.892496, 37.377829 ], [ -121.891003, 37.376922 ], [ -121.889422, 37.374891 ], [ -121.889051, 37.373484 ], [ -121.888289, 37.372555 ], [ -121.887964, 37.372258 ], [ -121.887121, 37.371493 ], [ -121.884572, 37.369751 ], [ -121.880698, 37.368007 ], [ -121.879355, 37.369396 ], [ -121.876828, 37.370961 ], [ -121.875763, 37.371864 ], [ -121.873062, 37.373791 ], [ -121.86899, 37.378029 ], [ -121.867357, 37.379768 ], [ -121.86496, 37.382444 ], [ -121.862864, 37.38467 ], [ -121.858345, 37.380359 ], [ -121.854757, 37.376782 ], [ -121.858728, 37.373994 ], [ -121.860394, 37.372864 ], [ -121.863251, 37.37094 ], [ -121.858789, 37.366822 ], [ -121.857626, 37.364946 ], [ -121.854807, 37.36209 ], [ -121.855429, 37.361666 ], [ -121.857702, 37.360126 ], [ -121.860698, 37.357988 ], [ -121.859056, 37.356314 ], [ -121.855465, 37.352735 ], [ -121.857274, 37.35197 ], [ -121.861728, 37.349762 ], [ -121.864846, 37.352835 ], [ -121.866232, 37.354069 ], [ -121.870724, 37.357913 ], [ -121.873804, 37.359704 ], [ -121.873623, 37.358425 ], [ -121.874177, 37.352766 ], [ -121.87549, 37.352123 ], [ -121.878291, 37.350792 ], [ -121.881089, 37.349463 ], [ -121.882957, 37.348576 ], [ -121.885876, 37.347191 ], [ -121.890661, 37.353617 ], [ -121.892914, 37.35255 ], [ -121.897038, 37.350591 ], [ -121.900228, 37.354875 ], [ -121.904626, 37.360777 ], [ -121.907021, 37.358395 ], [ -121.911248, 37.354176 ], [ -121.909196, 37.350484 ], [ -121.908475, 37.349528 ], [ -121.906608, 37.348114 ], [ -121.904481, 37.346965 ], [ -121.902978, 37.345685 ], [ -121.902368, 37.344917 ], [ -121.901106, 37.342599 ], [ -121.899211, 37.339888 ], [ -121.89824, 37.338462 ], [ -121.893828, 37.340548 ], [ -121.893293, 37.339833 ], [ -121.890566, 37.336168 ], [ -121.888124, 37.332891 ], [ -121.885984, 37.330023 ], [ -121.884891, 37.328588 ], [ -121.884094, 37.327403 ], [ -121.883228, 37.326315 ], [ -121.883049, 37.326078 ], [ -121.881544, 37.324057 ], [ -121.880289, 37.322706 ], [ -121.878607, 37.321015 ], [ -121.877622, 37.320026 ], [ -121.874022, 37.316377 ], [ -121.870667, 37.312961 ], [ -121.870205, 37.312496 ], [ -121.868563, 37.310812 ], [ -121.866038, 37.308323 ], [ -121.861287, 37.303522 ], [ -121.868117, 37.298987 ] ] ], [ [ [ -122.028333, 37.60513 ], [ -122.026204, 37.605945 ], [ -122.020977, 37.605895 ], [ -122.020037, 37.606243 ], [ -122.01735, 37.603848 ], [ -122.015637, 37.602313 ], [ -122.016057, 37.601974 ], [ -122.018634, 37.595312 ], [ -122.016672, 37.593434 ], [ -122.005866, 37.586484 ], [ -122.006973, 37.582933 ], [ -122.007028, 37.582753 ], [ -122.007772, 37.582879 ], [ -122.010752, 37.584106 ], [ -122.017502, 37.586023 ], [ -122.021514, 37.587181 ], [ -122.020334, 37.590605 ], [ -122.019662, 37.592519 ], [ -122.021013, 37.593736 ], [ -122.026398, 37.595455 ], [ -122.027409, 37.596419 ], [ -122.025389, 37.597919 ], [ -122.029415, 37.601381 ], [ -122.028333, 37.60513 ] ] ], [ [ [ -122.059718, 37.692469 ], [ -122.058916, 37.692232 ], [ -122.058884, 37.692192 ], [ -122.058796, 37.692063 ], [ -122.062164, 37.685893 ], [ -122.063217, 37.685948 ], [ -122.065115, 37.685553 ], [ -122.066592, 37.684018 ], [ -122.068051, 37.684787 ], [ -122.068282, 37.684915 ], [ -122.06851, 37.684899 ], [ -122.068634, 37.684728 ], [ -122.068793, 37.683871 ], [ -122.068918, 37.683734 ], [ -122.069257, 37.683778 ], [ -122.070003, 37.684162 ], [ -122.070383, 37.684168 ], [ -122.070553, 37.683892 ], [ -122.070923, 37.68353 ], [ -122.070139, 37.6818 ], [ -122.070107, 37.68169 ], [ -122.070134, 37.681547 ], [ -122.070245, 37.681371 ], [ -122.070369, 37.681294 ], [ -122.070763, 37.68119 ], [ -122.071137, 37.681146 ], [ -122.071395, 37.681176 ], [ -122.072011, 37.680988 ], [ -122.073035, 37.682974 ], [ -122.073895, 37.683098 ], [ -122.073651, 37.684209 ], [ -122.073811, 37.690948 ], [ -122.069372, 37.691192 ], [ -122.064943, 37.692213 ], [ -122.06251, 37.6929 ], [ -122.059972, 37.69359 ], [ -122.060137, 37.693204 ], [ -122.059718, 37.692469 ] ] ] ] } }
]
}
