{
"type": "FeatureCollection",
"name": "tier2_cutout",
"crs": { "type": "name", "properties": { "name": "urn:ogc:def:crs:OGC:1.3:CRS84" } },
"features": [
{ "type": "Feature", "properties": { }, "geometry": { "type": "MultiPolygon", "coordinates": [ [ [ [ -122.001431334595679, 37.396269008706042 ], [ -122.002299822008609, 37.396430801762889 ], [ -122.003144255286486, 37.396659726397104 ], [ -122.003956504050606, 37.396953578541897 ], [ -122.004543310623873, 37.397224055485474 ], [ -122.005007116633323, 37.396940284459227 ], [ -122.005764611040931, 37.396564707025156 ], [ -122.006564592465807, 37.396250169489363 ], [ -122.007399358167035, 37.395999700235905 ], [ -122.008260870768382, 37.395815710768915 ], [ -122.009140835590372, 37.395699972513427 ], [ -122.010030780449938, 37.395653599774597 ], [ -122.010922137161401, 37.395677039018643 ], [ -122.011806323957899, 37.39577006457796 ], [ -122.01267482804306, 37.395931780821954 ], [ -122.012675618611652, 37.395931995067393 ], [ -122.00976, 37.40436 ], [ -122.00974, 37.40445 ], [ -122.00945, 37.40574 ], [ -122.00964, 37.40689 ], [ -122.006109, 37.407689 ], [ -122.00479, 37.407976 ], [ -122.004686, 37.407999 ], [ -121.995782, 37.409928 ], [ -121.99576, 37.40933 ], [ -121.99571, 37.40333 ], [ -121.99566, 37.399719 ], [ -121.99566, 37.39936 ], [ -121.995619852143122, 37.396718271017583 ], [ -121.995733149431459, 37.396673737926697 ], [ -121.996567956197893, 37.396423345764191 ], [ -121.997429500372675, 37.396239435855726 ], [ -121.998309486972673, 37.396123778860293 ], [ -121.999199443605207, 37.396077488300861 ], [ -122.000090801971353, 37.396101009852245 ], [ -122.000974980288333, 37.396194117054527 ], [ -122.001306314808801, 37.396255844593242 ], [ -122.001431334595679, 37.396269008706042 ] ] ], [ [ [ -122.457416389744935, 37.705960493080426 ], [ -122.456373, 37.70678 ], [ -122.454392, 37.707463 ], [ -122.45247, 37.708148 ], [ -122.4523, 37.708138 ], [ -122.449751, 37.708213 ], [ -122.449188711496319, 37.707150936837031 ], [ -122.449411809598601, 37.707083320739791 ], [ -122.450275823214781, 37.706896093281657 ], [ -122.451158771726085, 37.706777044392872 ], [ -122.451892136005313, 37.706736226593932 ], [ -122.452500226635848, 37.70649527049811 ], [ -122.453336963736675, 37.70624163915663 ], [ -122.454200957687334, 37.706054382883067 ], [ -122.455083889917688, 37.705935304556853 ], [ -122.455977259678761, 37.705885550642002 ], [ -122.456872465818662, 37.705905600158282 ], [ -122.457416389744935, 37.705960493080426 ] ] ], [ [ [ -122.452884, 37.712829 ], [ -122.451993, 37.712086 ], [ -122.449309, 37.709946 ], [ -122.452665, 37.708806 ], [ -122.454356, 37.708232 ], [ -122.458509, 37.708231 ], [ -122.45905, 37.708231 ], [ -122.464896, 37.708186 ], [ -122.468939, 37.708232 ], [ -122.465994, 37.710154 ], [ -122.460858, 37.710586 ], [ -122.462556, 37.711254 ], [ -122.462581, 37.712274 ], [ -122.462589, 37.71403 ], [ -122.456061, 37.714077 ], [ -122.452174, 37.714104 ], [ -122.450378, 37.716169 ], [ -122.453378, 37.717768 ], [ -122.454189, 37.718239 ], [ -122.456108, 37.718235 ], [ -122.459187, 37.71823 ], [ -122.459198, 37.720024 ], [ -122.452506, 37.72003 ], [ -122.451646, 37.719686 ], [ -122.449546, 37.723011 ], [ -122.447878, 37.723005 ], [ -122.448582, 37.718411 ], [ -122.448727, 37.71745 ], [ -122.449627, 37.715739 ], [ -122.452884, 37.712829 ] ] ], [ [ [ -122.47724, 37.717709 ], [ -122.475818, 37.716891 ], [ -122.474383, 37.717507 ], [ -122.474661, 37.719151 ], [ -122.472921, 37.71735 ], [ -122.472672, 37.717248 ], [ -122.471472, 37.713427 ], [ -122.471355, 37.712802 ], [ -122.472269, 37.712838 ], [ -122.477016, 37.714593 ], [ -122.480973414657186, 37.714703207697198 ], [ -122.481187057325499, 37.71532464044104 ], [ -122.481274097808338, 37.715731266494032 ], [ -122.481543817831323, 37.715917355840688 ], [ -122.482159241907212, 37.71643432167297 ], [ -122.48270792399579, 37.71699671451065 ], [ -122.48316748773766, 37.717577518491105 ], [ -122.479981, 37.716942 ], [ -122.478674, 37.717903 ], [ -122.47724, 37.717709 ] ] ], [ [ [ -122.483143, 37.718517 ], [ -122.483202195778375, 37.717627153783127 ], [ -122.483584616464157, 37.718235735017721 ], [ -122.483728844520698, 37.718535730375436 ], [ -122.483143, 37.718517 ] ] ], [ [ [ -122.392781003251315, 37.747630000748757 ], [ -122.392281003928545, 37.747530000085931 ], [ -122.391186531906158, 37.747225978824545 ], [ -122.391186523638581, 37.747225980610708 ], [ -122.390481001014379, 37.747029997212159 ], [ -122.387280999610198, 37.747129998246599 ], [ -122.387081002619283, 37.7469299984553 ], [ -122.385581456005994, 37.747014936895091 ], [ -122.385581344577005, 37.747014907233023 ], [ -122.379984422065419, 37.747331798041515 ], [ -122.37998438792367, 37.747331754804506 ], [ -122.378499278012853, 37.747415830432331 ], [ -122.378627421055754, 37.746971997940321 ], [ -122.378912295248881, 37.746297396100807 ], [ -122.379110270240659, 37.745946978772679 ], [ -122.378970225562028, 37.745654814123533 ], [ -122.378735101344716, 37.744968229608816 ], [ -122.378585861845337, 37.74426665051967 ], [ -122.378523941946625, 37.743556833770143 ], [ -122.378549935480578, 37.742845615419647 ], [ -122.378663589605026, 37.7421398448326 ], [ -122.378863807335136, 37.741446318717557 ], [ -122.378924937589517, 37.741301547022061 ], [ -122.379051231238108, 37.740864074500863 ], [ -122.379336078171619, 37.740189470945467 ], [ -122.379601365630791, 37.739719866495491 ], [ -122.379738789849341, 37.739394394651235 ], [ -122.379751451715819, 37.739371980407917 ], [ -122.379817064947062, 37.738964477124242 ], [ -122.380017263359051, 37.738270948682278 ], [ -122.380103175630225, 37.738067469695537 ], [ -122.380222413845388, 37.737654394777408 ], [ -122.380507237846757, 37.736979788030943 ], [ -122.380624535932753, 37.73677213364369 ], [ -122.380653127278549, 37.736594543382864 ], [ -122.38085331150522, 37.735901013247869 ], [ -122.380956048839664, 37.735657669720752 ], [ -122.381056135920801, 37.735310914179188 ], [ -122.381340943374141, 37.734636305155924 ], [ -122.381660677431356, 37.734070244062188 ], [ -122.381760474594572, 37.733450286170104 ], [ -122.381960640020125, 37.732756753793971 ], [ -122.38202259640174, 37.732609992139636 ], [ -122.382150703831257, 37.732166116774664 ], [ -122.382435489299823, 37.731491504756519 ], [ -122.382583391824141, 37.731229636898668 ], [ -122.382613390083904, 37.731043262711758 ], [ -122.382813541069112, 37.730349728612623 ], [ -122.382907994882359, 37.73012597302256 ], [ -122.383015492225496, 37.729753480478863 ], [ -122.383300260601544, 37.729078866103983 ], [ -122.383314709192973, 37.729053282770373 ], [ -122.383378878833994, 37.728654568591196 ], [ -122.383579016244852, 37.727961032920909 ], [ -122.383696120546361, 37.727683602876027 ], [ -122.383785850337702, 37.727372655154788 ], [ -122.384070602601199, 37.726698038656131 ], [ -122.384344221229711, 37.726213531860509 ], [ -122.384436586062193, 37.725994700760587 ], [ -122.384803205701715, 37.72534549896988 ], [ -122.384844822905293, 37.725287740898395 ], [ -122.384906338024834, 37.724905451305339 ], [ -122.385067216588354, 37.724347890025093 ], [ -122.385481002310854, 37.724630999854583 ], [ -122.385481002544864, 37.724467806252584 ], [ -122.385481002544878, 37.724467806252569 ], [ -122.385481003057976, 37.72410999992389 ], [ -122.385481000669742, 37.723631000398733 ], [ -122.385385290829021, 37.723551244457141 ], [ -122.385391179261376, 37.723537292581753 ], [ -122.385477547913055, 37.723384344755949 ], [ -122.385677610806695, 37.722910315980528 ], [ -122.386044204396129, 37.722261110004141 ], [ -122.386173868913801, 37.722081144385854 ], [ -122.386484056759201, 37.721531814985894 ], [ -122.386531923699536, 37.72146537705494 ], [ -122.386570545499239, 37.721225313470455 ], [ -122.386770633132031, 37.720531771544501 ], [ -122.387055332105106, 37.719857147086429 ], [ -122.387421898606718, 37.719207936504283 ], [ -122.387618021799057, 37.718935709716405 ], [ -122.387858362678728, 37.718510041271237 ], [ -122.388303256999706, 37.717892494364278 ], [ -122.388592358960707, 37.717569414050836 ], [ -122.388603664198655, 37.7174991277709 ], [ -122.388803722835476, 37.716805581977887 ], [ -122.389088389089565, 37.716130952204516 ], [ -122.389454919464413, 37.71548173491005 ], [ -122.389899782401159, 37.714864181675551 ], [ -122.390418692353805, 37.714284239026178 ], [ -122.391006651110104, 37.713747491195342 ], [ -122.391657995958923, 37.713259106381457 ], [ -122.392366454238442, 37.712823787012802 ], [ -122.392514699003513, 37.71274992101548 ], [ -122.392501038333577, 37.71259359499895 ], [ -122.392526887333517, 37.711882369984338 ], [ -122.392640361442233, 37.711176582368829 ], [ -122.392840365410393, 37.710483029025234 ], [ -122.39312497082885, 37.709808388822147 ], [ -122.393491434787151, 37.709159158319316 ], [ -122.393936226366165, 37.708541589225057 ], [ -122.394152750860798, 37.70829955481404 ], [ -122.395107, 37.708339 ], [ -122.404682, 37.708331 ], [ -122.405292, 37.708262 ], [ -122.406958, 37.704639 ], [ -122.410718, 37.705691 ], [ -122.411042627457476, 37.703425414502462 ], [ -122.411421785351479, 37.703687448673158 ], [ -122.412036620493879, 37.70420478167383 ], [ -122.412584681797583, 37.70476750202954 ], [ -122.413060690502419, 37.705370191390273 ], [ -122.413460061291943, 37.706007046415955 ], [ -122.413778946494446, 37.706671934631835 ], [ -122.414014273196244, 37.707358453457132 ], [ -122.4141637729075, 37.708059991840216 ], [ -122.414226003492317, 37.70876979390755 ], [ -122.414200363148282, 37.709481024013812 ], [ -122.414087096297848, 37.710186832567686 ], [ -122.413887291330838, 37.710880421999441 ], [ -122.413602870215982, 37.711555112234656 ], [ -122.413236570078368, 37.712204405043416 ], [ -122.412791916916518, 37.71282204664481 ], [ -122.412273191709431, 37.713402087962443 ], [ -122.411685389237292, 37.713938941949955 ], [ -122.411119542231603, 37.714363397640554 ], [ -122.410905451685892, 37.714871181524011 ], [ -122.410539111651318, 37.715520465603269 ], [ -122.410094416245428, 37.716138096697165 ], [ -122.409848211242121, 37.716413375225684 ], [ -122.408561, 37.716412 ], [ -122.408315882979736, 37.71775613843139 ], [ -122.407628121046031, 37.718178861451328 ], [ -122.406869386794028, 37.718557017027386 ], [ -122.406714875932053, 37.718618157240513 ], [ -122.406715223613105, 37.718622126955125 ], [ -122.406689508013116, 37.71933335431136 ], [ -122.406576154839982, 37.720039154535037 ], [ -122.406376253314278, 37.720732730136589 ], [ -122.406091726334267, 37.721407401174581 ], [ -122.405725312044282, 37.722056669603994 ], [ -122.405280537542069, 37.722674281878653 ], [ -122.404991488574069, 37.722997399715339 ], [ -122.404980197683685, 37.723067690663399 ], [ -122.404780273122796, 37.723761263218243 ], [ -122.40449572006527, 37.724435930071976 ], [ -122.404454278693194, 37.724509356429294 ], [ -122.404247583707217, 37.724999414740054 ], [ -122.403881135603257, 37.725648677056824 ], [ -122.403618841790191, 37.726012862839944 ], [ -122.403606503557029, 37.726089661835786 ], [ -122.403406558050662, 37.726783231719722 ], [ -122.403121980956058, 37.727457894924662 ], [ -122.403092783251722, 37.727509623647613 ], [ -122.402855446771355, 37.728072279897269 ], [ -122.402488971358054, 37.728721537559494 ], [ -122.402300917268647, 37.728982625612375 ], [ -122.402029465249171, 37.729463524894278 ], [ -122.401987858573733, 37.729521288655029 ], [ -122.401926427977017, 37.729903587212988 ], [ -122.401726456533993, 37.730597153814109 ], [ -122.401616641452634, 37.730857471218286 ], [ -122.401541141370672, 37.731119324468949 ], [ -122.40125653074216, 37.731793982690064 ], [ -122.40100895245601, 37.732232558089429 ], [ -122.400869291038688, 37.732563610304098 ], [ -122.400854847162947, 37.732589196441666 ], [ -122.400790768518846, 37.732987919207702 ], [ -122.400590778180046, 37.733681483530098 ], [ -122.400496373084195, 37.733905253160131 ], [ -122.400388957347133, 37.734277761391226 ], [ -122.400104324165255, 37.734952416478563 ], [ -122.399956476052381, 37.73521430299202 ], [ -122.39992651951458, 37.735400684634506 ], [ -122.399726514618379, 37.736094247213835 ], [ -122.399664590292574, 37.736241018089743 ], [ -122.399536580440056, 37.736684912189354 ], [ -122.399251930301872, 37.737359564949045 ], [ -122.398932316070727, 37.737925672074738 ], [ -122.398832656153829, 37.738545645421667 ], [ -122.398632632585972, 37.739239205782482 ], [ -122.398529948180752, 37.739482564571787 ], [ -122.398429937012267, 37.739829334708688 ], [ -122.398145264784475, 37.740503984442384 ], [ -122.398028009803738, 37.740711653338202 ], [ -122.397999458355613, 37.740889250488848 ], [ -122.397799420704203, 37.741582809164335 ], [ -122.397713552822879, 37.741786300929469 ], [ -122.397594405201673, 37.74219939325414 ], [ -122.397309716310133, 37.742874040702198 ], [ -122.397297058490594, 37.742896457555261 ], [ -122.397231538291621, 37.743303969559882 ], [ -122.39703148697356, 37.743997526651377 ], [ -122.396921825231559, 37.744257389841721 ], [ -122.396826809253398, 37.744586792723965 ], [ -122.396542104247374, 37.745261438047343 ], [ -122.396334040026829, 37.745629898852833 ], [ -122.39615692776168, 37.746049577495363 ], [ -122.395987436208401, 37.746349722199859 ], [ -122.396230021891881, 37.746855531288183 ], [ -122.396465313717968, 37.747542080669241 ], [ -122.39661472859629, 37.748243636716992 ], [ -122.396676825205077, 37.748953443387258 ], [ -122.396651003029319, 37.749664664989979 ], [ -122.39653750824003, 37.750370452015432 ], [ -122.396337431419738, 37.751064007100915 ], [ -122.396240428924258, 37.751293842780079 ], [ -122.394587, 37.752427 ], [ -122.391231, 37.75263 ], [ -122.38789, 37.752819 ], [ -122.382266933582997, 37.753153656024097 ], [ -122.380152529708596, 37.752753205641874 ], [ -122.380781000905159, 37.750329999863538 ], [ -122.383281003460468, 37.748330000077694 ], [ -122.386181000379409, 37.748830001061222 ], [ -122.386381003389587, 37.748029998386237 ], [ -122.386569002540242, 37.747945998959729 ], [ -122.387281000509049, 37.747629998990945 ], [ -122.390281003630676, 37.747629996780837 ], [ -122.390330000249023, 37.747647999702082 ], [ -122.392181001044364, 37.748329998709728 ], [ -122.39248100264868, 37.74843000071175 ], [ -122.392781003251315, 37.747630000748757 ] ] ], [ [ [ -122.412834084439211, 37.741006951143483 ], [ -122.412936947470186, 37.740650047625266 ], [ -122.413221485977971, 37.739975362185497 ], [ -122.413587923122691, 37.73932607235156 ], [ -122.414032728241409, 37.738708430403655 ], [ -122.414551616342919, 37.738128383721694 ], [ -122.41513958942376, 37.737591517541361 ], [ -122.415608695156166, 37.737239709894915 ], [ -122.415652631723603, 37.737135516382224 ], [ -122.416019033627776, 37.736486218682558 ], [ -122.416463801547266, 37.735868567267524 ], [ -122.416982650849107, 37.735288509608189 ], [ -122.417570583903426, 37.734751631046016 ], [ -122.418221938244969, 37.734263101038671 ], [ -122.418930441119073, 37.733827623412878 ], [ -122.419689269886405, 37.733449391101892 ], [ -122.420491117704245, 37.733132045801717 ], [ -122.421328263853368, 37.73287864293404 ], [ -122.422192648034795, 37.732691622250698 ], [ -122.423075947922641, 37.732572784363093 ], [ -122.423969659229485, 37.732523273420313 ], [ -122.424863774371147, 37.732543534307275 ], [ -122.424856181458622, 37.732457100769913 ], [ -122.424881727764017, 37.73174587097688 ], [ -122.424994924962718, 37.731040054495466 ], [ -122.425194680470455, 37.7303464484771 ], [ -122.425479068268899, 37.729671732298385 ], [ -122.425845347541298, 37.72902240325142 ], [ -122.426289989144948, 37.728404713994152 ], [ -122.426808709663291, 37.72782461236212 ], [ -122.427396512706309, 37.72728768412027 ], [ -122.428047737060368, 37.726799099204669 ], [ -122.428756111222171, 37.726363561970764 ], [ -122.429514813791286, 37.725985265925743 ], [ -122.430316539139582, 37.725667853379264 ], [ -122.431153567726639, 37.72541438040043 ], [ -122.432017840384916, 37.725227287416089 ], [ -122.432254556469331, 37.725195416433309 ], [ -122.432322163334504, 37.725101479743238 ], [ -122.432840813726159, 37.724521351244988 ], [ -122.433428547076758, 37.723984392623777 ], [ -122.433599388834594, 37.723856195270137 ], [ -122.433848098437551, 37.723265899555102 ], [ -122.433882370932793, 37.723205122957744 ], [ -122.433928871153185, 37.723094756311234 ], [ -122.434295044207957, 37.722445400306377 ], [ -122.434739576258622, 37.721827678506308 ], [ -122.435258184943478, 37.721247539059988 ], [ -122.435845874949223, 37.720710568096543 ], [ -122.436141970822362, 37.720488360341832 ], [ -122.436154398804462, 37.720458859809355 ], [ -122.436520539435321, 37.719809496612221 ], [ -122.436540864494276, 37.719781250596853 ], [ -122.43665354352747, 37.719581407677254 ], [ -122.437098038854316, 37.718963676694138 ], [ -122.437616609154318, 37.718383526599567 ], [ -122.438204259483811, 37.717846543625228 ], [ -122.438344800453805, 37.71774106398049 ], [ -122.438555727201091, 37.717447914922751 ], [ -122.438563807920261, 37.717438874227383 ], [ -122.438631194772356, 37.717319349072184 ], [ -122.439075660141242, 37.716701610404108 ], [ -122.439395426739082, 37.716343846103221 ], [ -122.439417030449889, 37.716313819513005 ], [ -122.43951688009804, 37.716136708620738 ], [ -122.439961331037054, 37.715518966494706 ], [ -122.440479854964977, 37.714938803478042 ], [ -122.441067457384662, 37.714401805926876 ], [ -122.441718479014014, 37.713913144444682 ], [ -122.441721439509678, 37.713911323342792 ], [ -122.441916646538914, 37.713447817730135 ], [ -122.442282702311616, 37.71279843589992 ], [ -122.442727110312916, 37.712180683012043 ], [ -122.443245589375735, 37.711600507514873 ], [ -122.44373621672851, 37.711152086312502 ], [ -122.444097, 37.711689 ], [ -122.444571, 37.712783 ], [ -122.443706, 37.713592 ], [ -122.441896, 37.715308 ], [ -122.440999, 37.716488 ], [ -122.440418, 37.717245 ], [ -122.440141, 37.717692 ], [ -122.43715, 37.721575 ], [ -122.435977, 37.72313 ], [ -122.435385, 37.723909 ], [ -122.434798, 37.724683 ], [ -122.433982, 37.725762 ], [ -122.433624, 37.726236 ], [ -122.432447, 37.727637 ], [ -122.431801, 37.728249 ], [ -122.431294, 37.72873 ], [ -122.430199, 37.729872 ], [ -122.429304, 37.730742 ], [ -122.428038, 37.732016 ], [ -122.426158, 37.733971 ], [ -122.428573, 37.735082 ], [ -122.426722, 37.736372 ], [ -122.426545, 37.736269 ], [ -122.426209, 37.736074 ], [ -122.424595, 37.735944 ], [ -122.423264, 37.735965 ], [ -122.422688, 37.735205 ], [ -122.422399, 37.735166 ], [ -122.421676, 37.73513 ], [ -122.420163, 37.735777 ], [ -122.41676, 37.735605 ], [ -122.415955, 37.737211 ], [ -122.415899, 37.739002 ], [ -122.418584, 37.739297 ], [ -122.41777, 37.740564 ], [ -122.418752, 37.74118 ], [ -122.416103, 37.745253 ], [ -122.417819, 37.745965 ], [ -122.419121, 37.746775 ], [ -122.418206, 37.748203 ], [ -122.41587, 37.748267 ], [ -122.416108, 37.750771 ], [ -122.416413, 37.753968 ], [ -122.412047, 37.75423 ], [ -122.4119, 37.752629 ], [ -122.411746, 37.751034 ], [ -122.411488, 37.748344 ], [ -122.410551, 37.748367 ], [ -122.410619, 37.746941 ], [ -122.410441, 37.744918 ], [ -122.410359731002785, 37.744765477281796 ], [ -122.410422583874734, 37.744547435395937 ], [ -122.410707160132119, 37.743872756467468 ], [ -122.411073638461687, 37.743223474875073 ], [ -122.411518487803718, 37.742605842819565 ], [ -122.412037422741136, 37.742025807585527 ], [ -122.412088992819491, 37.741978725057344 ], [ -122.412117300132294, 37.741928571230808 ], [ -122.412562133049619, 37.741310935101978 ], [ -122.412834084439211, 37.741006951143483 ] ] ], [ [ [ -122.400217, 37.750753 ], [ -122.399317161276201, 37.750853638303056 ], [ -122.399502540746369, 37.750646515035235 ], [ -122.400090721597707, 37.750109725077117 ], [ -122.400742325467206, 37.749621292954537 ], [ -122.401451077198175, 37.749185921551671 ], [ -122.402210151755767, 37.748807802779034 ], [ -122.403012239931428, 37.748490577239522 ], [ -122.403633167161772, 37.748302768283992 ], [ -122.403784, 37.749433 ], [ -122.402861, 37.749543 ], [ -122.402605, 37.750558 ], [ -122.400217, 37.750753 ] ] ], [ [ [ -122.167785156571924, 37.726792801578064 ], [ -122.167827622272085, 37.726822294457797 ], [ -122.168440951335199, 37.727340895318044 ], [ -122.1689873372476, 37.727904745116568 ], [ -122.169461517371019, 37.72850841462467 ], [ -122.169502088111926, 37.728573514774865 ], [ -122.169563742163646, 37.728652004340766 ], [ -122.169961150424115, 37.729289680416883 ], [ -122.170277956292551, 37.729955223101335 ], [ -122.170454681335201, 37.730475960287393 ], [ -122.17088418641319, 37.730839092338854 ], [ -122.171430616575321, 37.731402930484826 ], [ -122.171904838859703, 37.732006589814347 ], [ -122.171961777136431, 37.73209794306176 ], [ -122.1721183247749, 37.732297216639147 ], [ -122.17251577444253, 37.732934883717952 ], [ -122.172832618723561, 37.733600419135364 ], [ -122.173065804349605, 37.734287414073783 ], [ -122.173167070043419, 37.734769982193221 ], [ -122.173338633311133, 37.734867308060075 ], [ -122.174013114895303, 37.735335630499499 ], [ -122.174626557371198, 37.735854198435909 ], [ -122.175173052795813, 37.736418018760546 ], [ -122.175647337476363, 37.737021662528505 ], [ -122.176044842687347, 37.737659317205875 ], [ -122.17636173871206, 37.738324842613487 ], [ -122.176403290090249, 37.738447232091808 ], [ -122.176883128428742, 37.738852822838375 ], [ -122.177429663022465, 37.739416632417004 ], [ -122.177903985168371, 37.740020266801508 ], [ -122.178301525780071, 37.740657913548375 ], [ -122.178514535735374, 37.741105212990519 ], [ -122.178590040737319, 37.741169030410248 ], [ -122.179136605314156, 37.741732831854634 ], [ -122.17961095610768, 37.742336459135167 ], [ -122.180008523755674, 37.742974099876697 ], [ -122.180325477940116, 37.743639614034322 ], [ -122.18051123516274, 37.744186629664704 ], [ -122.180688774454708, 37.744309870247704 ], [ -122.181302337592328, 37.744828402654583 ], [ -122.181848949660846, 37.745392191173316 ], [ -122.182323345844338, 37.745995807165279 ], [ -122.182720956343488, 37.746633438364043 ], [ -122.183037950427561, 37.747298944816535 ], [ -122.183085251017317, 37.747438212020732 ], [ -122.18347320389411, 37.747766049083701 ], [ -122.184019854041466, 37.748329827254182 ], [ -122.184494286613059, 37.748933434207977 ], [ -122.184891931459063, 37.749571057765678 ], [ -122.185003980710789, 37.749806271264816 ], [ -122.185274978532121, 37.749959932158767 ], [ -122.185949672331361, 37.750428185088637 ], [ -122.18651879393137, 37.750909064943386 ], [ -122.186994628698471, 37.750996499076429 ], [ -122.187843658511227, 37.751224084267101 ], [ -122.188660511701173, 37.751516644807481 ], [ -122.189437323190077, 37.751871363918532 ], [ -122.190166613123495, 37.752284826313399 ], [ -122.190841358857298, 37.752753051055478 ], [ -122.190942643689596, 37.752838620099375 ], [ -122.191608609546904, 37.753017106345332 ], [ -122.192425497270776, 37.753309640703122 ], [ -122.193202345477005, 37.753664334891454 ], [ -122.193931673957792, 37.754077773863358 ], [ -122.194598894744985, 37.75454072793201 ], [ -122.195080526884496, 37.75466979198395 ], [ -122.19589744644621, 37.754962302196382 ], [ -122.196674328504258, 37.755316973401001 ], [ -122.197403692525114, 37.755730390772115 ], [ -122.198078515151508, 37.756198573806699 ], [ -122.198301127419214, 37.756386606629405 ], [ -122.198411776582631, 37.75640692550536 ], [ -122.199260903182775, 37.756634428240467 ], [ -122.200077860801329, 37.756926909381043 ], [ -122.200854783355027, 37.757281552912552 ], [ -122.201584189920581, 37.757694944275762 ], [ -122.202259056731251, 37.75816310321806 ], [ -122.202690829086521, 37.75852776386639 ], [ -122.202915368677182, 37.758568986569657 ], [ -122.203764533774915, 37.758796456776942 ], [ -122.204581532893542, 37.759088906594279 ], [ -122.205358499550456, 37.759443520308778 ], [ -122.206087952397894, 37.759856883648268 ], [ -122.206762867223674, 37.760325016630013 ], [ -122.207376744566872, 37.760843411854189 ], [ -122.207394014944981, 37.760861210778543 ], [ -122.208074139433862, 37.760986037788449 ], [ -122.208923347949522, 37.761213470737104 ], [ -122.209740393951492, 37.76150588467609 ], [ -122.210517410505943, 37.76186046423787 ], [ -122.211246915784869, 37.762273795479189 ], [ -122.211777539664084, 37.762641792610026 ], [ -122.212241267592773, 37.762765969924459 ], [ -122.213058343726118, 37.763058360787404 ], [ -122.213835392351811, 37.763412918382954 ], [ -122.214564931333186, 37.763826228979276 ], [ -122.215239935629072, 37.764294313101445 ], [ -122.215504315443752, 37.764517518837557 ], [ -122.21556273763818, 37.764528236958796 ], [ -122.216412009564351, 37.764755615818672 ], [ -122.217229123993306, 37.765047977671514 ], [ -122.218006213332743, 37.765402507651366 ], [ -122.21873579505413, 37.765815792292273 ], [ -122.219410843704992, 37.76628385236927 ], [ -122.220024858536277, 37.766802181184573 ], [ -122.220435482874038, 37.767225219699036 ], [ -122.220761613550593, 37.767258771856412 ], [ -122.221634913094562, 37.767418933476009 ], [ -122.222484236649308, 37.767646268475275 ], [ -122.223301406766964, 37.767938588090715 ], [ -122.224078555319352, 37.768293077862936 ], [ -122.224808199208042, 37.768706324713207 ], [ -122.225483312382224, 37.769174349780407 ], [ -122.225934181003353, 37.769554892062466 ], [ -122.226176496659264, 37.769599321178852 ], [ -122.227025859038676, 37.769826623371607 ], [ -122.227843071010156, 37.770118911394022 ], [ -122.228620264042618, 37.770473371090965 ], [ -122.229349954609646, 37.770886589673211 ], [ -122.230022720102426, 37.771352927651435 ], [ -122.230463120012658, 37.771470768373241 ], [ -122.231280363594649, 37.771763032484557 ], [ -122.232057590228735, 37.772117469418916 ], [ -122.232787316065028, 37.772530666606329 ], [ -122.233462514264076, 37.772998645663868 ], [ -122.233814923327984, 37.773296019756877 ], [ -122.234272823841067, 37.773459757187062 ], [ -122.235050082505296, 37.773814174287402 ], [ -122.235779841654079, 37.774227352828611 ], [ -122.236455074127292, 37.774695314607293 ], [ -122.237069277406547, 37.775213553872248 ], [ -122.237616536225104, 37.775777080679738 ], [ -122.237662258009706, 37.775835155355999 ], [ -122.238112835475192, 37.775955679424506 ], [ -122.238930158494725, 37.776247890275862 ], [ -122.239707468553306, 37.776602276496739 ], [ -122.240437280998194, 37.777015426005413 ], [ -122.241112568156254, 37.777483360878001 ], [ -122.241726826982756, 37.778001575622383 ], [ -122.242274141676219, 37.778565080530988 ], [ -122.242469592987447, 37.778813301005918 ], [ -122.243217600598314, 37.779013339665063 ], [ -122.243879000863103, 37.779249761032261 ], [ -122.243879003956508, 37.780527997291067 ], [ -122.24358479536177, 37.780822207148255 ], [ -122.243584795901555, 37.780822208732758 ], [ -122.243179004766873, 37.781227999484408 ], [ -122.243979004735095, 37.782328000925908 ], [ -122.243889446910231, 37.782353588496711 ], [ -122.243889446934617, 37.782353588782051 ], [ -122.243279002603131, 37.782527998571453 ], [ -122.243379004567188, 37.783527998865068 ], [ -122.244279000640063, 37.783228000106512 ], [ -122.247280003781512, 37.786027997913337 ], [ -122.247380003887713, 37.786127999643682 ], [ -122.248080000471333, 37.786528000002697 ], [ -122.248679999199439, 37.786327999006126 ], [ -122.25378000289416, 37.788027999951971 ], [ -122.257531604495497, 37.786683120262452 ], [ -122.257759306087365, 37.786972162731281 ], [ -122.258083947998443, 37.787491433473164 ], [ -122.258273599240894, 37.787577845400278 ], [ -122.259003622801359, 37.787990879164845 ], [ -122.259679126715412, 37.788458706768942 ], [ -122.259789376806353, 37.788551668295689 ], [ -122.259820553032895, 37.788573259416061 ], [ -122.26005316906371, 37.78876939710954 ], [ -122.259280000844512, 37.789427999993727 ], [ -122.259880004183003, 37.789928001112301 ], [ -122.260848634598062, 37.789516971563799 ], [ -122.260982572457976, 37.78965479258278 ], [ -122.261457894362223, 37.79025808514622 ], [ -122.261747021046759, 37.790720481989787 ], [ -122.262026403195634, 37.790847761044013 ], [ -122.262756479769024, 37.791260771330165 ], [ -122.262863585058298, 37.791334938952673 ], [ -122.261327, 37.793807 ], [ -122.260806, 37.79528 ], [ -122.259577, 37.79632 ], [ -122.259551, 37.798132 ], [ -122.259554, 37.798301 ], [ -122.257805, 37.799704 ], [ -122.254505, 37.800561 ], [ -122.254468, 37.801838 ], [ -122.254073, 37.802521 ], [ -122.253447, 37.803608 ], [ -122.252124437733528, 37.804363948748097 ], [ -122.251976540048346, 37.804311113458503 ], [ -122.251198881377462, 37.803956809913188 ], [ -122.250468744265675, 37.803543729044812 ], [ -122.249793161153207, 37.803075849979571 ], [ -122.249178638615092, 37.802557679625103 ], [ -122.249138893559206, 37.802516778876026 ], [ -122.249040988525579, 37.80243422347845 ], [ -122.248493446551507, 37.801870752430212 ], [ -122.248339300331338, 37.801675076217883 ], [ -122.247719577728787, 37.801245853758111 ], [ -122.247105084804758, 37.800727672424124 ], [ -122.247093398571195, 37.800715645536783 ], [ -122.246964390070232, 37.800606855605473 ], [ -122.246416877327789, 37.8000433747263 ], [ -122.245941614991608, 37.79944002262858 ], [ -122.245543178994154, 37.798802610808693 ], [ -122.245378704444306, 37.798458245964262 ], [ -122.245345696361454, 37.798446450908962 ], [ -122.244568130745023, 37.798092103261332 ], [ -122.243838088182272, 37.797678980899043 ], [ -122.243162600202439, 37.797211063348072 ], [ -122.242548172463927, 37.79669285788669 ], [ -122.242498477565761, 37.796641706379255 ], [ -122.242410928138369, 37.796567866621061 ], [ -122.241863479725566, 37.796004364184789 ], [ -122.241699645678651, 37.795796340613563 ], [ -122.241640214335135, 37.795775100492278 ], [ -122.241503686831663, 37.795712875622314 ], [ -122.241457574835067, 37.795696395375984 ], [ -122.240680056566234, 37.795342021915424 ], [ -122.239950062668157, 37.794928875277485 ], [ -122.239274624201116, 37.79446093522197 ], [ -122.238660246346427, 37.793942709243936 ], [ -122.23811284574505, 37.79337918912654 ], [ -122.237644861100947, 37.792784904793493 ], [ -122.23739019568346, 37.79273825365344 ], [ -122.236540539550916, 37.792511027063924 ], [ -122.235723046952273, 37.79221880050347 ], [ -122.234945592456597, 37.791864389011799 ], [ -122.234215664644026, 37.791451206616621 ], [ -122.233540293938063, 37.790983233422203 ], [ -122.232925984867151, 37.790464977242756 ], [ -122.232378653409484, 37.789901430152383 ], [ -122.232183208701812, 37.789653193206561 ], [ -122.231435121599219, 37.789453085171615 ], [ -122.230617682749781, 37.789160823058182 ], [ -122.229840284629248, 37.788806377712589 ], [ -122.229110415274562, 37.788393163488692 ], [ -122.228435104545895, 37.7879251607973 ], [ -122.227820856393748, 37.787406877736764 ], [ -122.227273586209421, 37.786843306640108 ], [ -122.227227864925823, 37.786785225950823 ], [ -122.226777240273975, 37.786664662618961 ], [ -122.225959850444241, 37.786372368070616 ], [ -122.225182503739717, 37.786017891840586 ], [ -122.22445268770187, 37.78560464858019 ], [ -122.223777431677078, 37.785136618979998 ], [ -122.223425007849599, 37.784839213987681 ], [ -122.222967059871578, 37.78467543628792 ], [ -122.222189745210898, 37.784320940220667 ], [ -122.221459962498699, 37.783907678311621 ], [ -122.220787132721824, 37.783441289479065 ], [ -122.220346681518691, 37.783323415901137 ], [ -122.219529353767427, 37.783031076602938 ], [ -122.218752072723333, 37.782676557769669 ], [ -122.218022325295095, 37.782263274463133 ], [ -122.217347140167931, 37.781795207759572 ], [ -122.216896242163941, 37.78141463219859 ], [ -122.216653892593513, 37.781370185368694 ], [ -122.215804429958638, 37.781142808918524 ], [ -122.214987144080652, 37.780850438021858 ], [ -122.214209907536485, 37.7804958891087 ], [ -122.213480206805926, 37.780082577530656 ], [ -122.212805070124233, 37.779614484636234 ], [ -122.212190999764857, 37.779096119392655 ], [ -122.211780357274293, 37.778673051494472 ], [ -122.211454180025939, 37.778639476115728 ], [ -122.210580770520394, 37.778479239398223 ], [ -122.209731359538608, 37.778251819079252 ], [ -122.208914129375387, 37.777959405937857 ], [ -122.208136952070618, 37.777604816811014 ], [ -122.207407313533238, 37.77719146743766 ], [ -122.20673224139918, 37.776723339530385 ], [ -122.206467847713796, 37.776500114743939 ], [ -122.206409414204487, 37.776489391995995 ], [ -122.205560038748501, 37.776261941546174 ], [ -122.204742846898739, 37.77596949938966 ], [ -122.203965710325861, 37.775614882642941 ], [ -122.203236114546286, 37.77520150731096 ], [ -122.202705442759012, 37.774833470545268 ], [ -122.202241655947361, 37.774709257982231 ], [ -122.201424494243128, 37.774416792745726 ], [ -122.200647389755872, 37.774062154029423 ], [ -122.199917827692829, 37.773648758049916 ], [ -122.19924283495294, 37.773180586968742 ], [ -122.198628912422663, 37.772662150506171 ], [ -122.19861164034694, 37.772644348906994 ], [ -122.197931426078625, 37.772519468984271 ], [ -122.197082121976194, 37.77229195730083 ], [ -122.19626500717726, 37.771999456179778 ], [ -122.195487952609923, 37.771644783305639 ], [ -122.194758443000268, 37.771231355224018 ], [ -122.194083504741855, 37.770763154405707 ], [ -122.193651704762715, 37.770398461866399 ], [ -122.193427133321421, 37.770357222743627 ], [ -122.192577867734855, 37.770129678526239 ], [ -122.191760794455334, 37.769837146076561 ], [ -122.190983784010854, 37.769482443380888 ], [ -122.190254320702323, 37.769068987272092 ], [ -122.189579430477025, 37.768600760490912 ], [ -122.189356806150244, 37.76841271125577 ], [ -122.189246139117415, 37.768392384262356 ], [ -122.188396908799433, 37.768164809848599 ], [ -122.18757987359453, 37.767872248322064 ], [ -122.186802903663803, 37.767517517949074 ], [ -122.186073482917735, 37.767104035829178 ], [ -122.185406198348289, 37.766641031569492 ], [ -122.18492450948871, 37.766511931194238 ], [ -122.184107506136513, 37.766219345518174 ], [ -122.183330570072741, 37.765864592158003 ], [ -122.182601184881534, 37.765451088434659 ], [ -122.181926375757357, 37.764982817547498 ], [ -122.181825085052267, 37.764897239743455 ], [ -122.181159035911776, 37.76471869977766 ], [ -122.180342067109635, 37.764426087914494 ], [ -122.179565167779614, 37.764071309627809 ], [ -122.178835821151779, 37.763657782478596 ], [ -122.178161052049035, 37.763189489891943 ], [ -122.17759188885573, 37.762708568622834 ], [ -122.17711599176603, 37.76262109878023 ], [ -122.176266864579262, 37.762393436760185 ], [ -122.175449940614826, 37.762100790875614 ], [ -122.174673088961711, 37.761745980205561 ], [ -122.173943792390574, 37.761332422622992 ], [ -122.173269075241933, 37.760864101846074 ], [ -122.172655435746648, 37.760345529036911 ], [ -122.172108783431455, 37.75978169931907 ], [ -122.171634382213071, 37.759178043634044 ], [ -122.171236799728547, 37.758540376401569 ], [ -122.171124818989909, 37.758305227238466 ], [ -122.170853761208136, 37.758151502824354 ], [ -122.17017909242216, 37.757683164103973 ], [ -122.169565500764051, 37.757164574925206 ], [ -122.169018895299644, 37.756600730569275 ], [ -122.16854453949442, 37.755997062118702 ], [ -122.168147000547975, 37.75535938411609 ], [ -122.167830105452182, 37.75469383853325 ], [ -122.167782798539037, 37.754554473982765 ], [ -122.167394930439656, 37.754226631189042 ], [ -122.166848363058605, 37.753662776483942 ], [ -122.166374043642747, 37.753059098994932 ], [ -122.165976539041324, 37.752421413351755 ], [ -122.16565967591545, 37.751755861599705 ], [ -122.165474009213625, 37.751208821443413 ], [ -122.165296478564414, 37.75108555990974 ], [ -122.164682975461844, 37.75056694473033 ], [ -122.164136455577847, 37.750003077098306 ], [ -122.163662181553505, 37.749399388320342 ], [ -122.163264719800864, 37.748761693134902 ], [ -122.1630517810502, 37.748314366725488 ], [ -122.162976280778139, 37.748250539413121 ], [ -122.162429790880623, 37.747686663646036 ], [ -122.161955545504824, 37.747082967763852 ], [ -122.161558110786928, 37.746445266573403 ], [ -122.161241312715049, 37.745779702269715 ], [ -122.161199782281884, 37.745657305874047 ], [ -122.160719985537867, 37.745251653458688 ], [ -122.160173534813993, 37.744687766944537 ], [ -122.159699326904899, 37.744084061678613 ], [ -122.159301927585886, 37.743446352558109 ], [ -122.158985162504223, 37.742780781854442 ], [ -122.158752080394692, 37.742093760029491 ], [ -122.158650898624401, 37.741611178640369 ], [ -122.158479338725442, 37.741513832974512 ], [ -122.157804898967782, 37.741045422110496 ], [ -122.157191531028388, 37.740526767060487 ], [ -122.156645141818004, 37.739962863740281 ], [ -122.156170992719055, 37.739359143800264 ], [ -122.156114068290108, 37.73926778303364 ], [ -122.155957548883336, 37.739068488426511 ], [ -122.15556020849013, 37.738430766154806 ], [ -122.155243498294269, 37.737765184837365 ], [ -122.155066862608791, 37.73724442336372 ], [ -122.154637397693577, 37.736881236151682 ], [ -122.154529552603194, 37.736769923235052 ], [ -122.154522663811051, 37.736765138174576 ], [ -122.153909354101359, 37.736246465672536 ], [ -122.153363021260731, 37.735682546734118 ], [ -122.153254825846844, 37.735544766976759 ], [ -122.153248043056038, 37.73553776575244 ], [ -122.152773949781491, 37.734934031701428 ], [ -122.152376658807597, 37.734296298258926 ], [ -122.152059994738252, 37.733630707930466 ], [ -122.151961977473235, 37.733341675707642 ], [ -122.151396215993486, 37.732863166672793 ], [ -122.150849927089226, 37.73229923576838 ], [ -122.150375873950878, 37.731695491747246 ], [ -122.150304350249641, 37.731580669992432 ], [ -122.150278229616191, 37.731547402856819 ], [ -122.149880978157682, 37.730909660644784 ], [ -122.149564350864765, 37.730244063239418 ], [ -122.149331395145566, 37.729557021359696 ], [ -122.149184352317235, 37.728855152089814 ], [ -122.149128465160913, 37.728190736920155 ], [ -122.148854780344465, 37.727615377163573 ], [ -122.148621839422049, 37.726928333586187 ], [ -122.148474808493575, 37.726226463130068 ], [ -122.148415101169221, 37.725516525510706 ], [ -122.148443289972192, 37.724805357946813 ], [ -122.148559100920636, 37.724099809308846 ], [ -122.148761416262673, 37.723406674163144 ], [ -122.149048285334317, 37.722732627346261 ], [ -122.149416943432044, 37.722084159699307 ], [ -122.149863838515301, 37.721467515580521 ], [ -122.150384665478271, 37.720888632757259 ], [ -122.150974407658936, 37.720353085254665 ], [ -122.151555583303491, 37.719919586689919 ], [ -122.151577714732383, 37.719843750059553 ], [ -122.151864544519213, 37.719169695999085 ], [ -122.152233160381869, 37.718521219168679 ], [ -122.152680010686552, 37.717904564015072 ], [ -122.153200790758731, 37.717325668411831 ], [ -122.153790484387855, 37.71679010650719 ], [ -122.154443412167595, 37.716303035077772 ], [ -122.155153286204353, 37.715869143903568 ], [ -122.155913270667071, 37.71549261064068 ], [ -122.155944523006298, 37.715480326339566 ], [ -122.155953988616204, 37.71547563655669 ], [ -122.156016033494026, 37.715451248351876 ], [ -122.15892, 37.717986 ], [ -122.159808, 37.718776 ], [ -122.164245, 37.722651 ], [ -122.16724, 37.721836 ], [ -122.168104, 37.721626 ], [ -122.169491242955502, 37.721281509065399 ], [ -122.169524815620136, 37.721679376943207 ], [ -122.169496829687617, 37.722390549892353 ], [ -122.169381220132891, 37.723096119288307 ], [ -122.169179097909705, 37.723789289859546 ], [ -122.168892407308277, 37.724463385560959 ], [ -122.168523907317308, 37.725111913884263 ], [ -122.168077145130383, 37.725728628407623 ], [ -122.167569126722952, 37.726293463419445 ], [ -122.167589751696028, 37.726336798059947 ], [ -122.167722564016998, 37.726728206249646 ], [ -122.167785156571924, 37.726792801578064 ] ] ], [ [ [ -122.386681000718227, 37.773229002105047 ], [ -122.386581004134683, 37.77292899865521 ], [ -122.386781003215859, 37.772728999016202 ], [ -122.386670422053029, 37.772452553626358 ], [ -122.386670423543535, 37.772452553037297 ], [ -122.386643281890599, 37.772384699690846 ], [ -122.386643279285806, 37.772384698221074 ], [ -122.386497256707074, 37.772019640960295 ], [ -122.386257705540771, 37.771420769980899 ], [ -122.386257704996467, 37.771420769836062 ], [ -122.386252872915932, 37.771408689442097 ], [ -122.386252872836678, 37.771408689360754 ], [ -122.386238429668836, 37.771372580859222 ], [ -122.386231577145949, 37.771355449750416 ], [ -122.386231577277158, 37.771355449603909 ], [ -122.38598100065569, 37.770728997954187 ], [ -122.385794851398344, 37.770666950805243 ], [ -122.385216, 37.768773 ], [ -122.385706799990004, 37.767253171038703 ], [ -122.386154519884471, 37.765866745457309 ], [ -122.386381000681993, 37.765828999116486 ], [ -122.386581002053433, 37.765529001057423 ], [ -122.386287299997818, 37.765455573766893 ], [ -122.386756030236995, 37.764004086793904 ], [ -122.387917, 37.764379 ], [ -122.388164, 37.766958 ], [ -122.389099, 37.766903 ], [ -122.393001, 37.766671 ], [ -122.394473, 37.766582 ], [ -122.39351, 37.765585 ], [ -122.398703, 37.765014 ], [ -122.400633, 37.764898 ], [ -122.404497, 37.764664 ], [ -122.40509, 37.764628 ], [ -122.405105, 37.763852 ], [ -122.40648, 37.760731 ], [ -122.406262, 37.759452 ], [ -122.403689, 37.757015 ], [ -122.403396, 37.756471 ], [ -122.403127, 37.754478 ], [ -122.406453, 37.754277 ], [ -122.407449, 37.754506 ], [ -122.407602, 37.756109 ], [ -122.407754, 37.757705 ], [ -122.408064, 37.760601 ], [ -122.408424, 37.764427 ], [ -122.410364, 37.76431 ], [ -122.413003, 37.764091 ], [ -122.413588, 37.763823 ], [ -122.417332, 37.763572 ], [ -122.417179, 37.761968 ], [ -122.417026, 37.760367 ], [ -122.416872, 37.758764 ], [ -122.41672, 37.757167 ], [ -122.416567, 37.755568 ], [ -122.418748, 37.755437 ], [ -122.420964, 37.755295 ], [ -122.421118, 37.756902 ], [ -122.421272, 37.758499 ], [ -122.421425, 37.760101 ], [ -122.421578, 37.761701 ], [ -122.421732, 37.7633 ], [ -122.421853, 37.764571 ], [ -122.421886, 37.764917 ], [ -122.422044, 37.76654 ], [ -122.422199, 37.76814 ], [ -122.422308, 37.769278 ], [ -122.422439, 37.770664 ], [ -122.42262, 37.772503 ], [ -122.423665, 37.771781 ], [ -122.424929, 37.770778 ], [ -122.425512, 37.772734 ], [ -122.428802, 37.772316 ], [ -122.42899, 37.773248 ], [ -122.430825, 37.773973 ], [ -122.429178, 37.774181 ], [ -122.425888, 37.774599 ], [ -122.426263, 37.776464 ], [ -122.426641, 37.778329 ], [ -122.424998, 37.778538 ], [ -122.423354, 37.778747 ], [ -122.423541, 37.779674 ], [ -122.423918, 37.781536 ], [ -122.424108, 37.782477 ], [ -122.427396, 37.782057 ], [ -122.430696, 37.781635 ], [ -122.43032, 37.779772 ], [ -122.430115, 37.778842 ], [ -122.430018, 37.778356 ], [ -122.429929, 37.777909 ], [ -122.431575, 37.7777 ], [ -122.433219, 37.77749 ], [ -122.436507, 37.777068 ], [ -122.438244, 37.776848 ], [ -122.441488, 37.776435 ], [ -122.441641, 37.777191 ], [ -122.441866, 37.7783 ], [ -122.440958, 37.779364 ], [ -122.437072, 37.779867 ], [ -122.436697, 37.778006 ], [ -122.433407, 37.778422 ], [ -122.433596, 37.779355 ], [ -122.433973, 37.781219 ], [ -122.43435, 37.783083 ], [ -122.434562, 37.784152 ], [ -122.431291, 37.784621 ], [ -122.428009, 37.785058 ], [ -122.424704, 37.785418 ], [ -122.424678, 37.785291 ], [ -122.422838, 37.784547 ], [ -122.421256, 37.784745 ], [ -122.421675, 37.786605 ], [ -122.421858, 37.787535 ], [ -122.418465, 37.787966 ], [ -122.416827, 37.788178 ], [ -122.415185, 37.788388 ], [ -122.414995, 37.787454 ], [ -122.413354, 37.787664 ], [ -122.412531, 37.787767 ], [ -122.411699, 37.787872 ], [ -122.408402, 37.788293 ], [ -122.408595, 37.789226 ], [ -122.408786, 37.79016 ], [ -122.407149, 37.790366 ], [ -122.40734, 37.791296 ], [ -122.407536, 37.792249 ], [ -122.407903, 37.79406 ], [ -122.408253, 37.795824 ], [ -122.408431, 37.796704 ], [ -122.411719, 37.796291 ], [ -122.411911, 37.797245 ], [ -122.412096, 37.798165 ], [ -122.407869, 37.798697 ], [ -122.406668, 37.797865 ], [ -122.405513, 37.797065 ], [ -122.406828, 37.796902 ], [ -122.406652, 37.796025 ], [ -122.406601, 37.795774 ], [ -122.406305, 37.794264 ], [ -122.404796, 37.794453 ], [ -122.404613, 37.793565 ], [ -122.401315, 37.793987 ], [ -122.400149, 37.794134 ], [ -122.396586, 37.794588 ], [ -122.396315, 37.793337 ], [ -122.397428, 37.792442 ], [ -122.399195, 37.791058 ], [ -122.401402, 37.789297 ], [ -122.402914, 37.788112 ], [ -122.403456, 37.787776 ], [ -122.404743, 37.786778 ], [ -122.406062, 37.785757 ], [ -122.402708, 37.783259 ], [ -122.400468, 37.78503 ], [ -122.39893, 37.783785 ], [ -122.397386, 37.782554 ], [ -122.395843, 37.781321 ], [ -122.39275, 37.778852 ], [ -122.390527, 37.780607 ], [ -122.389168, 37.781649 ], [ -122.388423, 37.781798 ], [ -122.387669, 37.782791029411797 ], [ -122.387669, 37.782146999439057 ], [ -122.387681000540482, 37.782128998735701 ], [ -122.387669, 37.782129412653774 ], [ -122.387669, 37.781265003139509 ], [ -122.387681001574393, 37.781228998258491 ], [ -122.387669, 37.781228998409063 ], [ -122.387669, 37.776799 ], [ -122.386594091484, 37.773281993988 ], [ -122.386579527720187, 37.773234342635241 ], [ -122.386681000718227, 37.773229002105047 ] ], [ [ -122.419359, 37.775432 ], [ -122.419334, 37.77521 ], [ -122.418704, 37.775645 ], [ -122.417615, 37.7766 ], [ -122.416292, 37.777494 ], [ -122.414782, 37.778744 ], [ -122.413365, 37.779862 ], [ -122.412548, 37.780508 ], [ -122.411985, 37.780952 ], [ -122.413866, 37.781863 ], [ -122.415505, 37.781654 ], [ -122.417146, 37.781447 ], [ -122.417339, 37.782379 ], [ -122.418993, 37.782169 ], [ -122.420689, 37.781955 ], [ -122.420358, 37.780072 ], [ -122.419943, 37.778238 ], [ -122.419765, 37.777291 ], [ -122.419359, 37.775432 ] ], [ [ -122.410063, 37.774992 ], [ -122.411606, 37.776221 ], [ -122.413161, 37.774992 ], [ -122.415561, 37.773101 ], [ -122.414027, 37.771864 ], [ -122.41248, 37.77063 ], [ -122.408516, 37.77376 ], [ -122.410063, 37.774992 ] ] ], [ [ [ -122.425047, 37.78713 ], [ -122.428336, 37.786713 ], [ -122.428525, 37.787651 ], [ -122.428553, 37.787791 ], [ -122.428712, 37.788577 ], [ -122.428905, 37.789534 ], [ -122.425616, 37.789952 ], [ -122.425423, 37.788995 ], [ -122.425237, 37.78807 ], [ -122.425047, 37.78713 ] ] ], [ [ [ -122.415372, 37.78932 ], [ -122.417017, 37.78911 ], [ -122.422077, 37.788474 ], [ -122.422145, 37.788943 ], [ -122.422237, 37.789399 ], [ -122.42242, 37.790358 ], [ -122.419036, 37.790788 ], [ -122.41575, 37.791206 ], [ -122.415559, 37.790254 ], [ -122.415372, 37.78932 ] ] ], [ [ [ -122.28033717994208, 37.806026845569434 ], [ -122.280051181162634, 37.806701201601371 ], [ -122.279683244177392, 37.807350067810312 ], [ -122.279613366558209, 37.807446685488664 ], [ -122.279585816023967, 37.807495270888069 ], [ -122.279139480913642, 37.808112397214828 ], [ -122.278619046429142, 37.80869183986632 ], [ -122.278122627417474, 37.809143338750147 ], [ -122.277876864843293, 37.809722753456747 ], [ -122.277558825237833, 37.810283567141255 ], [ -122.277493955269435, 37.81050694772707 ], [ -122.277207913408688, 37.811181296297768 ], [ -122.276839929373338, 37.811830153091179 ], [ -122.276762786293801, 37.811936802453893 ], [ -122.276740700741044, 37.811975744799234 ], [ -122.276294315047323, 37.812592859839818 ], [ -122.275773826951124, 37.813172289448964 ], [ -122.275184248214956, 37.813708452471353 ], [ -122.274531256462325, 37.814196184387725 ], [ -122.273821140512368, 37.81463078708952 ], [ -122.273060739809253, 37.815008074162058 ], [ -122.272257378529872, 37.815324411238578 ], [ -122.271418795005985, 37.815576751035323 ], [ -122.270553067140952, 37.815762662728616 ], [ -122.269668534542916, 37.815880355390192 ], [ -122.268773718125928, 37.815928695253902 ], [ -122.267877237957606, 37.815907216646835 ], [ -122.266987730146965, 37.815816126479177 ], [ -122.266113763577437, 37.815656302249273 ], [ -122.265263757290143, 37.815429283583178 ], [ -122.264529646721698, 37.815167160425894 ], [ -122.266771, 37.811553 ], [ -122.271274, 37.804361 ], [ -122.268798, 37.803427 ], [ -122.26761, 37.80296 ], [ -122.266458, 37.802497 ], [ -122.267312, 37.801081 ], [ -122.263752, 37.7997 ], [ -122.265066, 37.797622 ], [ -122.266615, 37.795117 ], [ -122.27014, 37.796524 ], [ -122.272515, 37.797457 ], [ -122.274935, 37.798276 ], [ -122.275061, 37.798321 ], [ -122.278536, 37.799654 ], [ -122.279564, 37.800449 ], [ -122.279687, 37.800256 ], [ -122.280991797043853, 37.800774329279591 ], [ -122.281072982072814, 37.801158128354743 ], [ -122.281134018440554, 37.801867988695278 ], [ -122.281107071217917, 37.802579177756691 ], [ -122.280992397407388, 37.803284846340219 ], [ -122.280791098944277, 37.803978198221586 ], [ -122.280666669494835, 37.804271603122473 ], [ -122.280653169485788, 37.804627826854599 ], [ -122.280538488197649, 37.80533349472757 ], [ -122.28033717994208, 37.806026845569434 ] ] ], [ [ [ -121.808091651075458, 37.249137835845502 ], [ -121.807292410098029, 37.249451020929278 ], [ -121.806458611567606, 37.249700066994627 ], [ -121.80559828729335, 37.24988257494222 ], [ -121.804719724823315, 37.249996786629588 ], [ -121.804003055753782, 37.250032941435904 ], [ -121.803944, 37.245964 ], [ -121.803945, 37.245843 ], [ -121.804056, 37.243137 ], [ -121.804056, 37.24302 ], [ -121.80544, 37.243206 ], [ -121.812745371633426, 37.243330052355276 ], [ -121.81274224329168, 37.243401358999343 ], [ -121.81262401021894, 37.244106603139549 ], [ -121.812419878052609, 37.244799186119046 ], [ -121.812131810476913, 37.245472437542773 ], [ -121.811762579778602, 37.246119873024661 ], [ -121.811315740223833, 37.246735256659228 ], [ -121.810795593891157, 37.24731266110539 ], [ -121.810207149287407, 37.247846524703121 ], [ -121.809556073143455, 37.248331705071379 ], [ -121.808848635852343, 37.248763528669834 ], [ -121.808091651075458, 37.249137835845502 ] ] ], [ [ [ -121.821953478270714, 37.244314050289653 ], [ -121.822114111940621, 37.244032295651813 ], [ -121.823479, 37.244396 ], [ -121.829988, 37.247493 ], [ -121.829969, 37.248048 ], [ -121.830838, 37.251288 ], [ -121.825074, 37.251398 ], [ -121.822111870346802, 37.251423472859429 ], [ -121.821809122001127, 37.250929939192964 ], [ -121.821497447068182, 37.250263435249181 ], [ -121.8212690003256, 37.249575719069831 ], [ -121.821125979685732, 37.24887341422918 ], [ -121.821069760162189, 37.24816328462105 ], [ -121.82110088071822, 37.24745216930674 ], [ -121.821219039170558, 37.246746916646359 ], [ -121.821366595090311, 37.246246089925826 ], [ -121.821461447483415, 37.245679923908966 ], [ -121.821665498353781, 37.244987325175806 ], [ -121.821953478270714, 37.244314050289653 ] ] ], [ [ [ -121.851032625508694, 37.255424367143348 ], [ -121.849037, 37.255378 ], [ -121.848434, 37.255388 ], [ -121.848301, 37.25539 ], [ -121.844467, 37.254555 ], [ -121.83651, 37.250723 ], [ -121.839743, 37.250541 ], [ -121.84181, 37.250617 ], [ -121.846752, 37.250573 ], [ -121.849651, 37.250502 ], [ -121.850609479024484, 37.250464463753381 ], [ -121.850651487189509, 37.250532892854025 ], [ -121.850963422968704, 37.251199319145165 ], [ -121.851192147633213, 37.251886977324126 ], [ -121.851335456285753, 37.2525892453586 ], [ -121.851391966432772, 37.253299360338175 ], [ -121.851361131389112, 37.254010483592779 ], [ -121.85124324563732, 37.254715766548067 ], [ -121.851039442086957, 37.255408416683494 ], [ -121.851032625508694, 37.255424367143348 ] ] ], [ [ [ -121.868684919454154, 37.254471201175242 ], [ -121.868997032302786, 37.25513757935439 ], [ -121.869225934778981, 37.255825202236657 ], [ -121.869369420273273, 37.25652744812998 ], [ -121.86942610458911, 37.257237554337514 ], [ -121.869395439363814, 37.257948682274083 ], [ -121.869277717444206, 37.258653983320592 ], [ -121.869074070161489, 37.259346664782655 ], [ -121.868786456527971, 37.260020055317923 ], [ -121.868417644456159, 37.260667669201617 ], [ -121.867971184177648, 37.261283268811049 ], [ -121.867927629374819, 37.261331670940024 ], [ -121.867858355578264, 37.261453307796621 ], [ -121.867411886007588, 37.262068905263121 ], [ -121.866958716268456, 37.262572493294499 ], [ -121.867020645164246, 37.262652405191083 ], [ -121.867412996095197, 37.263291125878411 ], [ -121.867725134415466, 37.263957507327071 ], [ -121.86777703922931, 37.264113420615637 ], [ -121.86782550499278, 37.264216888231132 ], [ -121.868054424484399, 37.264904513273628 ], [ -121.868115229175871, 37.265202090490689 ], [ -121.866277, 37.265623 ], [ -121.865998, 37.265644 ], [ -121.858919, 37.266054 ], [ -121.858709, 37.26463 ], [ -121.858712, 37.259656 ], [ -121.858642, 37.258716 ], [ -121.858985, 37.255605 ], [ -121.858807, 37.255605 ], [ -121.851175740371403, 37.255427692330024 ], [ -121.851198796067862, 37.25537374280227 ], [ -121.85156773109891, 37.254726183098718 ], [ -121.852014287222687, 37.254110645965078 ], [ -121.852040972928933, 37.254080998116613 ], [ -121.852119218376359, 37.253943656041223 ], [ -121.852565765291246, 37.253328116794947 ], [ -121.853085630999772, 37.252750526873463 ], [ -121.853673808122352, 37.252216447844418 ], [ -121.854324631877418, 37.251731022198442 ], [ -121.85503183464813, 37.251298923861896 ], [ -121.855788606336631, 37.250924313222207 ], [ -121.85658765992379, 37.250610797098112 ], [ -121.85742130160466, 37.250361394037746 ], [ -121.857499811334549, 37.250344701997165 ], [ -121.858876, 37.250358 ], [ -121.863000703531085, 37.250385949515717 ], [ -121.863528986845878, 37.250530150606117 ], [ -121.864339099734039, 37.250824970934808 ], [ -121.864446504093848, 37.250874745542497 ], [ -121.864514990329738, 37.250899668939496 ], [ -121.865285061839487, 37.251256539102634 ], [ -121.86600767549227, 37.251672024322481 ], [ -121.866675872913007, 37.252142124188182 ], [ -121.867283219310565, 37.25266231236342 ], [ -121.86782386543625, 37.253227580139708 ], [ -121.868292603921802, 37.253832484635097 ], [ -121.868684919454154, 37.254471201175242 ] ] ], [ [ [ -121.850011876196575, 37.266268074848114 ], [ -121.850042729121441, 37.265556952130119 ], [ -121.850042901525683, 37.265555920926275 ], [ -121.850605, 37.265506 ], [ -121.851434, 37.265527 ], [ -121.852474, 37.265664 ], [ -121.85157, 37.267102 ], [ -121.851856696124045, 37.270687144651873 ], [ -121.851713762873942, 37.270537686295967 ], [ -121.851245053787338, 37.269932715648892 ], [ -121.85085280609394, 37.269293940891146 ], [ -121.850540795834291, 37.268627514556307 ], [ -121.850490166156987, 37.268475327969064 ], [ -121.850440469087275, 37.268369177855519 ], [ -121.85021170093033, 37.267681518443538 ], [ -121.850068373911924, 37.266979249253822 ], [ -121.850011865995654, 37.266269133837383 ], [ -121.85001189932909, 37.266268365549244 ], [ -121.850011876196575, 37.266268074848114 ] ] ], [ [ [ -121.868325072869681, 37.280781695739854 ], [ -121.867568061835712, 37.281156387160209 ], [ -121.866768727899498, 37.281469978009831 ], [ -121.865934770602578, 37.281719447453888 ], [ -121.865647077972099, 37.281780608400041 ], [ -121.864749, 37.279805 ], [ -121.861476, 37.280518 ], [ -121.858294, 37.280226 ], [ -121.85714953514146, 37.280222299914655 ], [ -121.856852508053834, 37.28001336923726 ], [ -121.856245012084699, 37.27949312727565 ], [ -121.855704263597715, 37.278927806369232 ], [ -121.855235469644541, 37.278322851823006 ], [ -121.85484314386035, 37.277684090566552 ], [ -121.854531063037612, 37.277017675003364 ], [ -121.854302230811953, 37.276330023729869 ], [ -121.854281393225492, 37.276227965117585 ], [ -121.854176006791505, 37.275911268952996 ], [ -121.854032626775165, 37.275209004756796 ], [ -121.854023556008187, 37.27509510521481 ], [ -121.85401660158729, 37.275061042587865 ], [ -121.853973911114963, 37.274524981313768 ], [ -121.857225, 37.274471 ], [ -121.860301, 37.274321 ], [ -121.862939, 37.27445 ], [ -121.863677, 37.274487 ], [ -121.870401, 37.275277 ], [ -121.872211122754251, 37.275447264556156 ], [ -121.872098359177187, 37.276122856248719 ], [ -121.871894690450702, 37.276815542335854 ], [ -121.871607035031801, 37.277488939524233 ], [ -121.871238161234359, 37.278136562025196 ], [ -121.870791619883619, 37.278752172133203 ], [ -121.870271710182422, 37.279329840326994 ], [ -121.869683438355082, 37.279864002407201 ], [ -121.869032469465097, 37.280349513118665 ], [ -121.868325072869681, 37.280781695739854 ] ] ], [ [ [ -121.880529571276682, 37.28981380711538 ], [ -121.880543686553608, 37.289836769300976 ], [ -121.88085605271111, 37.290503115279741 ], [ -121.88108517251348, 37.291190714366223 ], [ -121.881085416852756, 37.29119190870361 ], [ -121.881085454985495, 37.291192023140624 ], [ -121.881106438153154, 37.291294589325098 ], [ -121.881117252236635, 37.291312180605772 ], [ -121.880689, 37.292242 ], [ -121.881242, 37.296039 ], [ -121.88085, 37.297481 ], [ -121.880840781970107, 37.297729542850604 ], [ -121.880473164819364, 37.298236335107028 ], [ -121.879953194431963, 37.298814045944233 ], [ -121.879364838467552, 37.299348256341986 ], [ -121.87936403379554, 37.299348856462622 ], [ -121.879363854222305, 37.299349019508355 ], [ -121.87871277854093, 37.299834583740868 ], [ -121.878005253540792, 37.30026682457634 ], [ -121.877248093725328, 37.300641578343637 ], [ -121.876448592063738, 37.300955235072514 ], [ -121.875614449713296, 37.301204773293726 ], [ -121.874753701794504, 37.301387789167372 ], [ -121.873874639936489, 37.301502519658392 ], [ -121.872985732341292, 37.301547859534303 ], [ -121.872095542139789, 37.301523372021343 ], [ -121.871212644829427, 37.301429293015822 ], [ -121.870345545592016, 37.301266528809499 ], [ -121.869502597292154, 37.301036647351602 ], [ -121.868691919948972, 37.300741863131741 ], [ -121.867921322460361, 37.300385015829711 ], [ -121.867198227336246, 37.299969542939351 ], [ -121.86652959916843, 37.299499446630406 ], [ -121.8659218775272, 37.298979255169449 ], [ -121.865380914932842, 37.298413979272432 ], [ -121.864911920499139, 37.297809063810732 ], [ -121.864519409791853, 37.297170335337455 ], [ -121.864207161384016, 37.296503945940408 ], [ -121.863978180524526, 37.295816313964025 ], [ -121.863956495476117, 37.295710201402514 ], [ -121.863878553566295, 37.295583361498373 ], [ -121.863856467681828, 37.295536225025003 ], [ -121.863843750432821, 37.295515529353082 ], [ -121.863531514958012, 37.294849138120064 ], [ -121.863302545380321, 37.29416150478707 ], [ -121.863159044645897, 37.293459252131115 ], [ -121.863105188644141, 37.292784193237232 ], [ -121.865897, 37.293729 ], [ -121.869272, 37.295387 ], [ -121.871144, 37.296703 ], [ -121.872074, 37.295707 ], [ -121.872864, 37.294715 ], [ -121.872791, 37.294534 ], [ -121.87163, 37.291643 ], [ -121.871361, 37.290967 ], [ -121.870895, 37.289856 ], [ -121.870136, 37.288355 ], [ -121.868501021600295, 37.286017354728564 ], [ -121.868581549975275, 37.285985763403154 ], [ -121.869415546022495, 37.285736275142149 ], [ -121.870276126841389, 37.285553298402384 ], [ -121.87115500672337, 37.285438594857794 ], [ -121.872043723929323, 37.285393268851159 ], [ -121.872933722090181, 37.285417756770819 ], [ -121.873816432514886, 37.285511822852826 ], [ -121.874553970710792, 37.28565027318583 ], [ -121.876566, 37.287587 ], [ -121.879263091661571, 37.288125102183983 ], [ -121.879647496276959, 37.288526717876259 ], [ -121.880116551694897, 37.289131574509661 ], [ -121.880509153433678, 37.289770250871953 ], [ -121.880529571276682, 37.28981380711538 ] ] ], [ [ [ -121.929222, 37.297795 ], [ -121.931669, 37.297222 ], [ -121.931674, 37.29803 ], [ -121.928011, 37.301428 ], [ -121.921973, 37.306913 ], [ -121.921489, 37.305902 ], [ -121.922527, 37.30385 ], [ -121.922838, 37.303331 ], [ -121.922858, 37.301429 ], [ -121.922689, 37.299831 ], [ -121.925487, 37.299419 ], [ -121.929222, 37.297795 ] ] ], [ [ [ -121.923107571756603, 37.316549637441746 ], [ -121.922350473216596, 37.316924682456808 ], [ -121.921550986741508, 37.317238646775991 ], [ -121.920716813341144, 37.317488505967283 ], [ -121.91987381934581, 37.317668055292465 ], [ -121.919873347455777, 37.317679163720115 ], [ -121.919756007800331, 37.318384514179911 ], [ -121.919552665611505, 37.319077282115586 ], [ -121.919265276958726, 37.319750795353187 ], [ -121.918896607582951, 37.320398566987478 ], [ -121.918450206336985, 37.321014357877587 ], [ -121.918018202997303, 37.321494598513532 ], [ -121.917933649981933, 37.321611232350861 ], [ -121.917413806570366, 37.32218910893021 ], [ -121.916825534396679, 37.322723506975514 ], [ -121.916174498524882, 37.323209278959695 ], [ -121.915745394938298, 37.323471561998794 ], [ -121.913747, 37.323489 ], [ -121.913738, 37.321599 ], [ -121.913733, 37.320753 ], [ -121.913768, 37.317896 ], [ -121.914425, 37.316492 ], [ -121.915001, 37.315221 ], [ -121.915134, 37.314351 ], [ -121.914908, 37.313338 ], [ -121.917817, 37.310706 ], [ -121.921973, 37.306913 ], [ -121.922253, 37.308644 ], [ -121.92328, 37.310697 ], [ -121.927459800176123, 37.310692215430201 ], [ -121.927362087431661, 37.311280006768591 ], [ -121.927158835061604, 37.311972788086166 ], [ -121.926871542258311, 37.312646320157214 ], [ -121.926502973839817, 37.313294115895232 ], [ -121.926056677686617, 37.313909935927256 ], [ -121.92584298260293, 37.314147556479767 ], [ -121.925573811174317, 37.314518962767181 ], [ -121.925054076156201, 37.315096873396165 ], [ -121.92446591442615, 37.315631309941821 ], [ -121.92381498998418, 37.316117124506185 ], [ -121.923107571756603, 37.316549637441746 ] ] ], [ [ [ -121.901125043256044, 37.358893055892118 ], [ -121.901330804510948, 37.358531891362787 ], [ -121.901162019370986, 37.35852729383754 ], [ -121.900278411784186, 37.358433434118012 ], [ -121.899410587600414, 37.358270885440731 ], [ -121.898566906669984, 37.358041213678483 ], [ -121.897755496071625, 37.357746631300529 ], [ -121.89698417176848, 37.357389976042114 ], [ -121.896260363273441, 37.356974683546738 ], [ -121.895591042050995, 37.356504754246203 ], [ -121.894982654348013, 37.355984714798083 ], [ -121.894441059100586, 37.355419574453819 ], [ -121.893971471515783, 37.354814776779101 ], [ -121.893578412871463, 37.354176147192412 ], [ -121.89326566701645, 37.35350983682919 ], [ -121.89303624398849, 37.352822263272884 ], [ -121.892892351098084, 37.352120048724998 ], [ -121.89288334143788, 37.352007767821313 ], [ -121.892215567703417, 37.351624563354335 ], [ -121.891546319854399, 37.35115461083798 ], [ -121.890938003873345, 37.35063455026377 ], [ -121.890396478005457, 37.350069391086656 ], [ -121.889926956789509, 37.349464577053659 ], [ -121.889634671946638, 37.34898959680752 ], [ -121.889438397250032, 37.34878474711779 ], [ -121.888968891862945, 37.348179929210296 ], [ -121.888575910884214, 37.34754128264656 ], [ -121.88826323741479, 37.346874958725458 ], [ -121.888033880795447, 37.34618737516098 ], [ -121.888023802356301, 37.346138170278344 ], [ -121.887490636642013, 37.34594451758165 ], [ -121.886719483180713, 37.345587794587246 ], [ -121.885995846076185, 37.345172438484177 ], [ -121.885326695141671, 37.344702450316909 ], [ -121.884718474983359, 37.344182357310089 ], [ -121.884177042923341, 37.343617169231081 ], [ -121.883707612596737, 37.343012330105338 ], [ -121.883433515681077, 37.342566793103721 ], [ -121.883268846146706, 37.342394891034807 ], [ -121.882799430850767, 37.341790048237947 ], [ -121.882406536210652, 37.341151380803218 ], [ -121.882364349481676, 37.341061452862668 ], [ -121.88196738340433, 37.340647032588784 ], [ -121.881497989623625, 37.340042184531882 ], [ -121.881438202817719, 37.339944993555754 ], [ -121.881256536999743, 37.33971090014775 ], [ -121.881222515661136, 37.339655593608995 ], [ -121.880885864866471, 37.339221782251144 ], [ -121.880515948847304, 37.338620415758818 ], [ -121.880236190838161, 37.338328336782908 ], [ -121.879766825635883, 37.337723481730364 ], [ -121.879651769370653, 37.337536428473214 ], [ -121.879642813749271, 37.337527078119201 ], [ -121.879173458382979, 37.336922220668939 ], [ -121.878780620328044, 37.336283540941267 ], [ -121.878468081309052, 37.335617190554416 ], [ -121.878238849372167, 37.334929587477113 ], [ -121.878095129988225, 37.334227354195043 ], [ -121.878038304895682, 37.333517253913783 ], [ -121.87806891888448, 37.332806125413285 ], [ -121.878186674644098, 37.33210081718191 ], [ -121.878390435722167, 37.331408121464278 ], [ -121.878678237561445, 37.330734708858323 ], [ -121.878891587131605, 37.330360323050861 ], [ -121.878913925661308, 37.330284378431251 ], [ -121.879201718455775, 37.329610964507829 ], [ -121.879570777313219, 37.328963318060943 ], [ -121.880017546361728, 37.328347675533806 ], [ -121.880537721734996, 37.327769965041846 ], [ -121.881126293068192, 37.327235749314724 ], [ -121.881714453599145, 37.326797244967537 ], [ -121.882108577378062, 37.326254103771305 ], [ -121.882628722015866, 37.325676383948363 ], [ -121.883217261914993, 37.325142157673866 ], [ -121.883519580732397, 37.324916746800639 ], [ -121.883238850721895, 37.324676622262309 ], [ -121.882697571159198, 37.324111426871589 ], [ -121.882228275321012, 37.32350658131201 ], [ -121.881835481675822, 37.322867911463433 ], [ -121.881522971521179, 37.322201568849131 ], [ -121.88129375262605, 37.321513971363053 ], [ -121.881270625379983, 37.321400972089208 ], [ -121.881250450652985, 37.321340452338603 ], [ -121.881106729103962, 37.32063822235483 ], [ -121.881049885730761, 37.319928123136705 ], [ -121.881080465500261, 37.319216993454006 ], [ -121.881168399263629, 37.318690081119321 ], [ -121.8807957854428, 37.318554667482118 ], [ -121.880024946525353, 37.318197900028885 ], [ -121.879301611800997, 37.317782502115335 ], [ -121.879301557869226, 37.317782464216563 ], [ -121.87930136990326, 37.317782356269944 ], [ -121.878632506274954, 37.317312329342151 ], [ -121.878024555578733, 37.316792200999821 ], [ -121.87748337254132, 37.316226981350844 ], [ -121.877014168399782, 37.315622114724874 ], [ -121.876886324805113, 37.315414195224498 ], [ -121.876693521242814, 37.315212820773418 ], [ -121.876655107679312, 37.315163299405974 ], [ -121.876642848040561, 37.315150494710402 ], [ -121.87617365745804, 37.314545624694162 ], [ -121.875780962635261, 37.313906934331193 ], [ -121.875468543918174, 37.313240575342249 ], [ -121.875239408195398, 37.312552965779041 ], [ -121.875095760012343, 37.311850728189697 ], [ -121.875038980423199, 37.311140625821331 ], [ -121.875069613781093, 37.310429497473955 ], [ -121.875187362590438, 37.309724191634345 ], [ -121.87539109046736, 37.309031500524029 ], [ -121.875678833175698, 37.308358094696338 ], [ -121.876047817629356, 37.30771045881238 ], [ -121.876494488674041, 37.307094829213405 ], [ -121.877014543388071, 37.306517133890083 ], [ -121.877602972569335, 37.305982935425845 ], [ -121.878254109007045, 37.305497377462089 ], [ -121.878961682072074, 37.305065135199875 ], [ -121.879123130750401, 37.304985228178097 ], [ -121.883232, 37.310156 ], [ -121.887901, 37.315414 ], [ -121.888061, 37.315323 ], [ -121.889345, 37.317119 ], [ -121.88984, 37.318589 ], [ -121.890521, 37.320957 ], [ -121.89217, 37.323753 ], [ -121.892324, 37.32374 ], [ -121.895186, 37.323148 ], [ -121.89778, 37.32246 ], [ -121.899004415506127, 37.321629931081581 ], [ -121.898990912855695, 37.321675885908057 ], [ -121.899156407116649, 37.321792125701272 ], [ -121.899198229387267, 37.321771421407291 ], [ -121.899997858224623, 37.321457609665934 ], [ -121.900832145167954, 37.321207898018287 ], [ -121.901693057451581, 37.321024690673553 ], [ -121.902155837705024, 37.320964194062853 ], [ -121.901792708705457, 37.320374056285971 ], [ -121.901480031062007, 37.319707766844196 ], [ -121.901430483603875, 37.319559259683345 ], [ -121.902233, 37.318704 ], [ -121.903259, 37.319778 ], [ -121.902625, 37.32136 ], [ -121.90248, 37.323481 ], [ -121.902069, 37.324069 ], [ -121.900883, 37.325601 ], [ -121.900194, 37.326611 ], [ -121.901331, 37.326434 ], [ -121.902733, 37.326291 ], [ -121.902876, 37.326281 ], [ -121.904864, 37.326176 ], [ -121.906205, 37.326222 ], [ -121.91158, 37.326009 ], [ -121.911829, 37.331553 ], [ -121.90473, 37.331862 ], [ -121.90381, 37.331903 ], [ -121.907788231869091, 37.335510806973289 ], [ -121.907287693460489, 37.335707247798261 ], [ -121.906453266211528, 37.335957005255239 ], [ -121.905592193564843, 37.336140247457912 ], [ -121.904777441498396, 37.336246755110253 ], [ -121.904378173163863, 37.336444404674864 ], [ -121.903578402349737, 37.336758246109419 ], [ -121.902743950967619, 37.337007977146413 ], [ -121.901882857115027, 37.337191192088852 ], [ -121.90120421162554, 37.337279884642321 ], [ -121.901286487694648, 37.337681261275776 ], [ -121.901339774097636, 37.338344514929389 ], [ -121.901847416419898, 37.338579282154043 ], [ -121.902571077776514, 37.338994540518378 ], [ -121.90324028604762, 37.339464430358937 ], [ -121.903848596709722, 37.339984427361088 ], [ -121.904390151229251, 37.340549524656737 ], [ -121.904859733489999, 37.341154281005132 ], [ -121.905154677403488, 37.341633435822715 ], [ -121.905346578337429, 37.341833670227857 ], [ -121.90581617640953, 37.342438422709115 ], [ -121.906209277901596, 37.343077011617261 ], [ -121.906522095511889, 37.343743287775361 ], [ -121.906751614761305, 37.344430835230312 ], [ -121.906895623096347, 37.345133033016644 ], [ -121.906904617790246, 37.345244873469753 ], [ -121.907572416521745, 37.345627998859861 ], [ -121.908241715659443, 37.34609786000123 ], [ -121.908850115136715, 37.346617830886593 ], [ -121.909391755564897, 37.347182904899327 ], [ -121.909861420000524, 37.347787641022911 ], [ -121.910254584212339, 37.34842621620416 ], [ -121.91056746029453, 37.349092481398401 ], [ -121.910797033204702, 37.349780020758104 ], [ -121.91094108987248, 37.350482213395829 ], [ -121.910998240595376, 37.351192297128165 ], [ -121.910998238355063, 37.351192349694429 ], [ -121.910998269129152, 37.351192732051409 ], [ -121.910967961046893, 37.351903868510405 ], [ -121.910850483559855, 37.352609208995851 ], [ -121.910686817546818, 37.35316630915343 ], [ -121.909196, 37.350484 ], [ -121.908475, 37.349528 ], [ -121.906608, 37.348114 ], [ -121.904481, 37.346965 ], [ -121.902978, 37.345685 ], [ -121.902368, 37.344917 ], [ -121.901106, 37.342599 ], [ -121.899211, 37.339888 ], [ -121.89824, 37.338462 ], [ -121.893828, 37.340548 ], [ -121.894953, 37.342046 ], [ -121.895345, 37.342573 ], [ -121.896748, 37.34447 ], [ -121.896855, 37.344597 ], [ -121.897006, 37.344803 ], [ -121.893845, 37.346307 ], [ -121.897038, 37.350591 ], [ -121.900228, 37.354875 ], [ -121.904626, 37.360777 ], [ -121.907021, 37.358395 ], [ -121.911009415302829, 37.354414133152915 ], [ -121.91120600800987, 37.354434999887317 ], [ -121.912073813291883, 37.354597461282914 ], [ -121.912917496846291, 37.354827035883226 ], [ -121.913728935509511, 37.355121513363684 ], [ -121.914500316319575, 37.355478058490675 ], [ -121.915224211696412, 37.355893238397861 ], [ -121.915893650925923, 37.356363055613492 ], [ -121.916502187261173, 37.356882986522209 ], [ -121.917043959995837, 37.357448024892292 ], [ -121.917513750912491, 37.358052730050375 ], [ -121.917907034561807, 37.358691279241519 ], [ -121.91822002188772, 37.359357523671434 ], [ -121.91832514712398, 37.359672214144844 ], [ -121.918336011501538, 37.359695340333921 ], [ -121.918565688496173, 37.360382864115863 ], [ -121.918709838636531, 37.361085046833743 ], [ -121.918767071319365, 37.361795126399798 ], [ -121.91873683289441, 37.362506264486271 ], [ -121.918724456473598, 37.362580609764684 ], [ -121.919526257822895, 37.362871511649764 ], [ -121.920297746333645, 37.363228018489743 ], [ -121.921021749036143, 37.363643162434016 ], [ -121.921691294183077, 37.364112946357032 ], [ -121.922299934007825, 37.364632846964049 ], [ -121.922841806807725, 37.365197858315035 ], [ -121.923311693401828, 37.365802539996842 ], [ -121.923705067419462, 37.366441069480615 ], [ -121.924018138934088, 37.367107298161834 ], [ -121.924100060910547, 37.367352443788739 ], [ -121.924165750600267, 37.367492231620574 ], [ -121.924395505229711, 37.368179743699983 ], [ -121.924539725222758, 37.368881918960852 ], [ -121.924554894733291, 37.369069922883234 ], [ -121.924710786931229, 37.369141947512617 ], [ -121.925434871485407, 37.369557064075224 ], [ -121.92610449740134, 37.370026822648413 ], [ -121.9267132161349, 37.370546700181464 ], [ -121.92725516522367, 37.371111690956567 ], [ -121.927725124752101, 37.371716354758682 ], [ -121.928118567647161, 37.372354869231117 ], [ -121.928431703318992, 37.373021085913955 ], [ -121.928527070522975, 37.373306388536847 ], [ -121.928579000416221, 37.373416870792937 ], [ -121.928726734548619, 37.373858827854967 ], [ -121.927392, 37.373543 ], [ -121.919455, 37.37203 ], [ -121.918321, 37.373022 ], [ -121.917202, 37.371741 ], [ -121.916876, 37.37166 ], [ -121.911177, 37.369861 ], [ -121.909589, 37.36907 ], [ -121.904766, 37.365267 ], [ -121.904164, 37.364941 ], [ -121.902359, 37.364215 ], [ -121.90178, 37.364029 ], [ -121.901410937663869, 37.364886704310322 ], [ -121.901345052722178, 37.36477969417659 ], [ -121.901032193193799, 37.364113404894624 ], [ -121.900927134561542, 37.363798698992987 ], [ -121.900916274977078, 37.36377557119603 ], [ -121.900686749999565, 37.363088012971787 ], [ -121.900542765415878, 37.362385808180363 ], [ -121.900485705517141, 37.361675719753315 ], [ -121.900516117352851, 37.3609645863569 ], [ -121.900633705557411, 37.360259256527101 ], [ -121.900837335289978, 37.359566522717081 ], [ -121.901125043256044, 37.358893055892118 ] ] ], [ [ [ -121.863833651128587, 37.356070652797122 ], [ -121.863386582920569, 37.356686232834392 ], [ -121.86286607357502, 37.357263866421455 ], [ -121.862277135089883, 37.357797989692799 ], [ -121.861625438948693, 37.358283457767776 ], [ -121.860917261513165, 37.358715594336161 ], [ -121.860159423571915, 37.359090236731646 ], [ -121.859359224627454, 37.359403776057192 ], [ -121.85852437255528, 37.359653191974814 ], [ -121.85850061249657, 37.35965823636537 ], [ -121.858109814600766, 37.359774986329832 ], [ -121.857248348940502, 37.359957873130952 ], [ -121.856368570982681, 37.360072471977617 ], [ -121.85547895582971, 37.360117678905716 ], [ -121.854588073430691, 37.360093058422301 ], [ -121.853704505953033, 37.359998847704531 ], [ -121.852836765036244, 37.359835954312864 ], [ -121.852637801527806, 37.359781704195804 ], [ -121.852435970846571, 37.360466729300292 ], [ -121.852147817900033, 37.361140076496554 ], [ -121.851778362331899, 37.361787635582459 ], [ -121.85133116056727, 37.36240316946347 ], [ -121.850810518167322, 37.362980749352936 ], [ -121.850221448411858, 37.363514811902512 ], [ -121.849569624049153, 37.364000212816279 ], [ -121.848861322676456, 37.364432276430911 ], [ -121.848103366276732, 37.364806840782791 ], [ -121.847303055493967, 37.365120297726669 ], [ -121.846468099281552, 37.365369627718124 ], [ -121.846098442141468, 37.365448060603896 ], [ -121.846053644706117, 37.365461437375167 ], [ -121.845192083953521, 37.365644235534283 ], [ -121.844312220532089, 37.365758743876086 ], [ -121.843422530367917, 37.365803859308294 ], [ -121.842531584132871, 37.365779147219421 ], [ -121.841647964609564, 37.36568484566908 ], [ -121.840780183938861, 37.365521863092717 ], [ -121.839936601551003, 37.3652917695429 ], [ -121.839125343574239, 37.364996781551874 ], [ -121.838354224499824, 37.36463974076193 ], [ -121.837630671861646, 37.364224086530029 ], [ -121.836961654657458, 37.363753822771955 ], [ -121.836353616203212, 37.3632334793664 ], [ -121.83581241206835, 37.362668068492027 ], [ -121.835343253690212, 37.362063036319356 ], [ -121.834950658210133, 37.361424210524682 ], [ -121.834638405013663, 37.360757744132208 ], [ -121.834409499391597, 37.360070056227002 ], [ -121.834266143669524, 37.359367770110786 ], [ -121.834209716081361, 37.358657649496969 ], [ -121.834240757586826, 37.357946533360391 ], [ -121.834358966756724, 37.357241270069437 ], [ -121.834563202771136, 37.356548651435084 ], [ -121.834851496498402, 37.355875347312164 ], [ -121.835221069544616, 37.355227841381861 ], [ -121.83566836108659, 37.354612368733683 ], [ -121.836189062227248, 37.354034855846756 ], [ -121.836778157540067, 37.353500863547637 ], [ -121.837429973400788, 37.353015533492595 ], [ -121.83813823263948, 37.3525835386883 ], [ -121.838896114986525, 37.352209038526205 ], [ -121.839696322730347, 37.351895638761974 ], [ -121.840531150955684, 37.351646356824162 ], [ -121.840900745650643, 37.351567941435867 ], [ -121.840945535677804, 37.351554566623903 ], [ -121.841806944337748, 37.351371799538704 ], [ -121.842686642164111, 37.351257309913912 ], [ -121.843576159545123, 37.351212200032933 ], [ -121.844466932410114, 37.351236904203382 ], [ -121.845350384611493, 37.351331184579244 ], [ -121.846218010422263, 37.351494133448874 ], [ -121.846416947526464, 37.351548393222963 ], [ -121.846618808974171, 37.350863379436845 ], [ -121.846906972115221, 37.350190045485661 ], [ -121.84727641255445, 37.349542501376824 ], [ -121.847723570745458, 37.348926982567626 ], [ -121.848244139075106, 37.348349415981872 ], [ -121.848833103395421, 37.347815362963274 ], [ -121.849484791343045, 37.347329965752827 ], [ -121.850192926979332, 37.346897898003931 ], [ -121.850950691224213, 37.346523319810366 ], [ -121.851750787502795, 37.34620983767914 ], [ -121.852585511972563, 37.345960469831837 ], [ -121.852609268074616, 37.345955426636685 ], [ -121.853000002282329, 37.345838694928361 ], [ -121.853861315548755, 37.345655839217422 ], [ -121.854740927597192, 37.345541259104827 ], [ -121.855630369641389, 37.345496057745166 ], [ -121.856521078335774, 37.345520670326799 ], [ -121.857404478150414, 37.345614859885494 ], [ -121.858272063862572, 37.345777719583964 ], [ -121.859115482374619, 37.346007681435275 ], [ -121.859926613073256, 37.346302531386343 ], [ -121.860697645959846, 37.346659430617287 ], [ -121.861421156802265, 37.347074942852203 ], [ -121.862090178586712, 37.347545067419233 ], [ -121.8626982685836, 37.348065277743331 ], [ -121.863239570382291, 37.348630564901818 ], [ -121.863708870298083, 37.349235485825176 ], [ -121.864101647608067, 37.349874215680082 ], [ -121.864414118130426, 37.350540603931705 ], [ -121.864643270726916, 37.351228233546571 ], [ -121.864786896373687, 37.35193048276723 ], [ -121.864843609518289, 37.352640588864453 ], [ -121.864812861514125, 37.353351713253893 ], [ -121.864694945998906, 37.354057007350555 ], [ -121.864490996162218, 37.354749678527185 ], [ -121.864202973924549, 37.355423055540712 ], [ -121.863833651128587, 37.356070652797122 ] ] ], [ [ [ -121.89017287588598, 37.399985563352196 ], [ -121.890566146567238, 37.400624202704705 ], [ -121.890879065688168, 37.40129051849695 ], [ -121.890992821264049, 37.401631249825016 ], [ -121.891190128410869, 37.4016211702044 ], [ -121.892081518345535, 37.401645512499165 ], [ -121.892965627043836, 37.401739433762202 ], [ -121.893833942460276, 37.401902029739226 ], [ -121.894678104473911, 37.402131734982127 ], [ -121.89548998531528, 37.402426337908203 ], [ -121.89626176776531, 37.402783002075694 ], [ -121.896986020376659, 37.40319829347164 ], [ -121.896986741834581, 37.403198799678123 ], [ -121.897390774398104, 37.40343047074991 ], [ -121.898060527646862, 37.403900388510685 ], [ -121.898303110145335, 37.404107596670983 ], [ -121.897746, 37.404132 ], [ -121.895821, 37.403741 ], [ -121.89226, 37.403411 ], [ -121.89058, 37.403313 ], [ -121.887006, 37.403023 ], [ -121.886293, 37.401704 ], [ -121.885363, 37.400003 ], [ -121.884713, 37.398664 ], [ -121.884349, 37.397497 ], [ -121.883925, 37.396317 ], [ -121.883857156385005, 37.39610464755534 ], [ -121.884431552698842, 37.396212262670467 ], [ -121.885275621454042, 37.396442035655625 ], [ -121.886087403324609, 37.396736703760091 ], [ -121.88685908204404, 37.397093429914577 ], [ -121.88758322716329, 37.397508779509302 ], [ -121.88825286556262, 37.39797875343811 ], [ -121.888861548575832, 37.398498826576123 ], [ -121.889403414082423, 37.399063991321455 ], [ -121.889420814869652, 37.399086391701928 ], [ -121.88970304257856, 37.399380750102686 ], [ -121.89017287588598, 37.399985563352196 ] ] ] ] } }
]
}
