{
"type": "FeatureCollection",
"name": "tier1_cutout",
"crs": { "type": "name", "properties": { "name": "urn:ogc:def:crs:OGC:1.3:CRS84" } },
"features": [
{ "type": "Feature", "properties": { }, "geometry": { "type": "MultiPolygon", "coordinates": [ [ [ [ -122.422178284493754, 37.643408797481442 ], [ -122.421470661496528, 37.643844300589024 ], [ -122.420712755509371, 37.644222549497066 ], [ -122.419911866671626, 37.644539900573122 ], [ -122.419075709490684, 37.644793296764838 ], [ -122.418212338489084, 37.644980297071491 ], [ -122.417330070562997, 37.645099100077417 ], [ -122.416437404803006, 37.645148561319729 ], [ -122.415542940552186, 37.645128204322766 ], [ -122.414655294494068, 37.645038225192017 ], [ -122.413783017573294, 37.644879490723241 ], [ -122.412934512551729, 37.644653530045474 ], [ -122.41211795299867, 37.644362519877909 ], [ -122.411341204497859, 37.644009263544255 ], [ -122.410611748833475, 37.643597163946801 ], [ -122.409936611887645, 37.643130190761894 ], [ -122.409322295945557, 37.642612842174032 ], [ -122.409308808207854, 37.642598981111156 ], [ -122.409196689609587, 37.64250455882123 ], [ -122.40864911247229, 37.641941817572707 ], [ -122.408173545210275, 37.641339104788095 ], [ -122.4077745667051, 37.640702225809655 ], [ -122.407456017827329, 37.640037314918004 ], [ -122.407220964504674, 37.639350776225221 ], [ -122.407191661370064, 37.639213079654425 ], [ -122.407184087795827, 37.639190958633428 ], [ -122.407034792227066, 37.63848940432085 ], [ -122.406972688997257, 37.637779591153404 ], [ -122.406984645865265, 37.637448493249963 ], [ -122.406494852030391, 37.637171738587746 ], [ -122.406029623912005, 37.636849897807984 ], [ -122.405907006498879, 37.636780611749508 ], [ -122.405231960910925, 37.636313611142945 ], [ -122.404617733939403, 37.635796237518882 ], [ -122.404070240781763, 37.635233474453464 ], [ -122.403660206634399, 37.63471371162003 ], [ -122.403609, 37.634193 ], [ -122.402946, 37.631839 ], [ -122.402865, 37.631313 ], [ -122.402393, 37.627936 ], [ -122.401878724674475, 37.626359285105956 ], [ -122.401997066253244, 37.626078355725326 ], [ -122.402363040593698, 37.625429089760338 ], [ -122.40280725822717, 37.624811479699737 ], [ -122.403325439824741, 37.624231472615264 ], [ -122.403912594190047, 37.623694653360253 ], [ -122.404563066358733, 37.623206190820142 ], [ -122.405270592072384, 37.622770788170897 ], [ -122.406028358100954, 37.622392637622752 ], [ -122.40671870706629, 37.622119107272184 ], [ -122.407252, 37.622842 ], [ -122.409458, 37.626656 ], [ -122.411774, 37.630673 ], [ -122.412852, 37.632856 ], [ -122.412985, 37.634135 ], [ -122.413759, 37.634184 ], [ -122.416763, 37.639353 ], [ -122.418482, 37.642316 ], [ -122.423435, 37.640472 ], [ -122.424206012340434, 37.641555958450432 ], [ -122.424164572211225, 37.641613592488525 ], [ -122.423646432010656, 37.642193689981305 ], [ -122.423059274052704, 37.642730606368168 ], [ -122.422930049612816, 37.642827659077312 ], [ -122.422828809075995, 37.642920235262814 ], [ -122.422178284493754, 37.643408797481442 ] ] ], [ [ [ -122.415618497125905, 37.650865185382727 ], [ -122.416017597261785, 37.651502036872678 ], [ -122.416336271727033, 37.652166923534409 ], [ -122.416571449640301, 37.652853442802531 ], [ -122.416720863947987, 37.653554983621454 ], [ -122.416783073340071, 37.654264790094416 ], [ -122.416757476222031, 37.654976026533738 ], [ -122.416644316603609, 37.655681843287219 ], [ -122.416444681845462, 37.656375442706022 ], [ -122.416160492280397, 37.657050144619383 ], [ -122.415906579318175, 37.657500589862273 ], [ -122.415691, 37.657453 ], [ -122.412134, 37.656668 ], [ -122.41147, 37.658575 ], [ -122.409116, 37.65805 ], [ -122.406389, 37.657442 ], [ -122.404919, 37.660116 ], [ -122.404025, 37.661097 ], [ -122.402103850879413, 37.662365896791599 ], [ -122.401381334654914, 37.662108385233552 ], [ -122.400604451864098, 37.661755058921543 ], [ -122.399874881683886, 37.661342893804921 ], [ -122.399199651099096, 37.66087586019097 ], [ -122.398585263296312, 37.660358456846005 ], [ -122.398037635021396, 37.659795667632231 ], [ -122.397562039603571, 37.659192913472602 ], [ -122.397163056194572, 37.658556000107659 ], [ -122.396844525710918, 37.657891062148792 ], [ -122.396609513901993, 37.657204503968579 ], [ -122.396460281897134, 37.656502937997743 ], [ -122.396398264512911, 37.655793121024644 ], [ -122.396424056526115, 37.65508188911128 ], [ -122.396537407041194, 37.654376091753072 ], [ -122.396737222002741, 37.653682525916537 ], [ -122.396804168637317, 37.653523689542538 ], [ -122.396813472750992, 37.653465753218491 ], [ -122.397013282694616, 37.652772186824691 ], [ -122.397297629535089, 37.652097530745607 ], [ -122.397663772855239, 37.651448281693625 ], [ -122.39810818482627, 37.650830691555399 ], [ -122.39862658424704, 37.650250707210951 ], [ -122.399213977823052, 37.649713913294796 ], [ -122.399864708286259, 37.649225478448599 ], [ -122.400572508891088, 37.648790105581824 ], [ -122.40133056376078, 37.6484119866182 ], [ -122.40156887205039, 37.648317610071039 ], [ -122.402018146058637, 37.648093505805576 ], [ -122.402819149442422, 37.64777627665562 ], [ -122.403655395489196, 37.647522996067075 ], [ -122.40451883256469, 37.64733610261402 ], [ -122.405401147459699, 37.647217395682382 ], [ -122.40629384536777, 37.647168018160215 ], [ -122.407081262550648, 37.647186000678062 ], [ -122.407479655939355, 37.647163959589058 ], [ -122.408374142451862, 37.647184377860277 ], [ -122.409261806513953, 37.647274404336365 ], [ -122.410134101863108, 37.647433172260861 ], [ -122.410982630076319, 37.64765915304109 ], [ -122.411799221365015, 37.647950170952875 ], [ -122.412576013177599, 37.648303424071266 ], [ -122.413305525855904, 37.648715511226051 ], [ -122.413980734619642, 37.649182464724369 ], [ -122.414595137187121, 37.649699788525979 ], [ -122.415142816382257, 37.650262501504933 ], [ -122.415618497125905, 37.650865185382727 ] ] ], [ [ [ -122.466218453415365, 37.692013902972874 ], [ -122.465323411983306, 37.691993924443331 ], [ -122.464435146432294, 37.691904321374665 ], [ -122.46356221367671, 37.691745956939904 ], [ -122.462713022798553, 37.691520356703258 ], [ -122.461895753976364, 37.691229693911588 ], [ -122.46111827962865, 37.690876768542196 ], [ -122.460388088533819, 37.690464980309052 ], [ -122.459712213660126, 37.689998295889154 ], [ -122.459097164402493, 37.68948121068545 ], [ -122.458548863880125, 37.688918705496071 ], [ -122.458315048874283, 37.688622918256151 ], [ -122.45967, 37.688807 ], [ -122.461097, 37.689588 ], [ -122.461128, 37.688303 ], [ -122.461642, 37.688036 ], [ -122.465743, 37.687845 ], [ -122.465986, 37.688317 ], [ -122.466112, 37.689328 ], [ -122.466725, 37.68903 ], [ -122.46823, 37.687836 ], [ -122.471561, 37.685009 ], [ -122.471511, 37.686305 ], [ -122.471131, 37.687895 ], [ -122.470749, 37.68907 ], [ -122.47061, 37.689721 ], [ -122.470607443330991, 37.691030379765586 ], [ -122.470495877841756, 37.691086089187358 ], [ -122.46969469686907, 37.691403776831734 ], [ -122.468858182515191, 37.691657524947956 ], [ -122.46799439274298, 37.691844889145592 ], [ -122.467111648483026, 37.691964064503779 ], [ -122.466218453415365, 37.692013902972874 ] ] ], [ [ [ -122.466344, 37.701277 ], [ -122.463482, 37.701288 ], [ -122.462974, 37.703169 ], [ -122.462217, 37.703155 ], [ -122.462035, 37.704106 ], [ -122.459876, 37.704853 ], [ -122.459790377031794, 37.70463169224751 ], [ -122.459829578067115, 37.704495295359429 ], [ -122.460113552686337, 37.703820492847996 ], [ -122.460479402134851, 37.703171053504079 ], [ -122.460923601409249, 37.702553231048114 ], [ -122.461055169927945, 37.702405927652357 ], [ -122.46116812230315, 37.702248823092162 ], [ -122.461290606981564, 37.702111688610934 ], [ -122.461349810095712, 37.70202934275656 ], [ -122.461868073061098, 37.701449084384528 ], [ -122.462455414403792, 37.700911979028483 ], [ -122.463106177354916, 37.700423198330057 ], [ -122.463814094852793, 37.699987448529917 ], [ -122.46457234989262, 37.699608925181941 ], [ -122.465373641153789, 37.699291272784322 ], [ -122.4662102532738, 37.699037549715356 ], [ -122.467074131093256, 37.698850198809772 ], [ -122.467956957159714, 37.698731023858137 ], [ -122.468850231745904, 37.698681172254723 ], [ -122.469745354615924, 37.698701123959815 ], [ -122.470633707754587, 37.698790686882901 ], [ -122.471506738267237, 37.698948998730373 ], [ -122.471639777043592, 37.698984327854276 ], [ -122.4717, 37.700079 ], [ -122.471743, 37.701518 ], [ -122.469834, 37.701872 ], [ -122.466574, 37.701478 ], [ -122.466344, 37.701277 ] ] ], [ [ [ -122.468939, 37.708232 ], [ -122.465994, 37.710154 ], [ -122.4611026417235, 37.710565422658767 ], [ -122.460659635246685, 37.710005197834292 ], [ -122.46025983873534, 37.709368503318387 ], [ -122.45994052634471, 37.708703741297555 ], [ -122.459776242179515, 37.708225409699267 ], [ -122.464896, 37.708186 ], [ -122.468939, 37.708232 ] ] ], [ [ [ -122.41077692570029, 37.709360452407559 ], [ -122.410663626534301, 37.710066257682605 ], [ -122.41046378995415, 37.710759841320332 ], [ -122.410179338233149, 37.71143452330206 ], [ -122.409813008791247, 37.71208380547732 ], [ -122.409368327909377, 37.712701434167521 ], [ -122.408849576833532, 37.71328146042061 ], [ -122.408261750593311, 37.713818297335287 ], [ -122.407610509928546, 37.714306773901768 ], [ -122.406902126786861, 37.714742184839054 ], [ -122.406143423915921, 37.71512033594707 ], [ -122.405341709132216, 37.715437584535898 ], [ -122.404504704901015, 37.715690874540954 ], [ -122.403640473906449, 37.715877765984821 ], [ -122.402757341331466, 37.71599645850079 ], [ -122.401863814598485, 37.716045808690637 ], [ -122.401850355087774, 37.716045501046423 ], [ -122.401844783987912, 37.716045808720587 ], [ -122.400949470741637, 37.716025341033863 ], [ -122.400060995859377, 37.715935252786657 ], [ -122.399187918272148, 37.715776411825772 ], [ -122.398338648456686, 37.715550348305747 ], [ -122.397521367351004, 37.715259239936067 ], [ -122.396743947490393, 37.714905890985939 ], [ -122.396013877126322, 37.714493705249112 ], [ -122.395338188061672, 37.714026653231024 ], [ -122.394723387898736, 37.713509233874781 ], [ -122.394175397354218, 37.712946431196244 ], [ -122.393699493245038, 37.71234366624757 ], [ -122.393300257694108, 37.711706744872679 ], [ -122.392981534043827, 37.711041801759734 ], [ -122.392746389901106, 37.710355241330497 ], [ -122.39259708766653, 37.709653676037036 ], [ -122.392535850469827, 37.708952876430622 ], [ -122.393378981140003, 37.708267569990298 ], [ -122.395107, 37.708339 ], [ -122.404682, 37.708331 ], [ -122.405292, 37.708262 ], [ -122.406958, 37.704639 ], [ -122.409743213676606, 37.705418267230797 ], [ -122.410036784997189, 37.705886453231578 ], [ -122.410355639070076, 37.706551350727054 ], [ -122.41059093378135, 37.707237876403937 ], [ -122.410740400949209, 37.707939419144616 ], [ -122.410802598751076, 37.708649223033476 ], [ -122.41077692570029, 37.709360452407559 ] ] ], [ [ [ -122.462299793856573, 37.711687253553293 ], [ -122.461684547179104, 37.711170183598433 ], [ -122.461274802492312, 37.710749971769644 ], [ -122.462556, 37.711254 ], [ -122.462571210742169, 37.711874598280389 ], [ -122.462299793856573, 37.711687253553293 ] ] ], [ [ [ -122.472269, 37.712838 ], [ -122.472851946273437, 37.713053519424875 ], [ -122.472489748230416, 37.713197107875025 ], [ -122.471652998204647, 37.713450874984915 ], [ -122.471490561451176, 37.713486102754111 ], [ -122.471472, 37.713427 ], [ -122.471355, 37.712802 ], [ -122.472269, 37.712838 ] ] ], [ [ [ -122.439793020162156, 37.717095039734282 ], [ -122.439923975433857, 37.716913027445983 ], [ -122.440442509376581, 37.716332864722638 ], [ -122.441030123084587, 37.715795867476913 ], [ -122.441681157167011, 37.715307206309362 ], [ -122.442295310660171, 37.714929427020522 ], [ -122.441896, 37.715308 ], [ -122.440999, 37.716488 ], [ -122.440418, 37.717245 ], [ -122.440141, 37.717692 ], [ -122.438314848157432, 37.72006276148602 ], [ -122.438339556294977, 37.719908500432773 ], [ -122.438539157380788, 37.71921487054653 ], [ -122.438823381477349, 37.718540120950735 ], [ -122.439189489344585, 37.717890749259475 ], [ -122.439633953490585, 37.717273008541518 ], [ -122.439793020162156, 37.717095039734282 ] ] ], [ [ [ -122.456108, 37.718235 ], [ -122.456134998148315, 37.718234956157602 ], [ -122.45629407743391, 37.718566136803673 ], [ -122.456529834385037, 37.719252569327182 ], [ -122.456679759220123, 37.71995405235451 ], [ -122.456686131720815, 37.720026252123382 ], [ -122.452506, 37.72003 ], [ -122.451646, 37.719686 ], [ -122.449546, 37.723011 ], [ -122.447878, 37.723005 ], [ -122.448582, 37.718411 ], [ -122.448727, 37.71745 ], [ -122.449627, 37.715739 ], [ -122.451342886666666, 37.714205923487874 ], [ -122.451750708946932, 37.714350966560644 ], [ -122.451900192921386, 37.714418817158879 ], [ -122.450378, 37.716169 ], [ -122.453378, 37.717768 ], [ -122.454189, 37.718239 ], [ -122.456108, 37.718235 ] ] ], [ [ [ -122.433624, 37.726236 ], [ -122.432447, 37.727637 ], [ -122.431801, 37.728249 ], [ -122.431294, 37.72873 ], [ -122.430199, 37.729872 ], [ -122.429304, 37.730742 ], [ -122.428038, 37.732016 ], [ -122.426158, 37.733971 ], [ -122.428573, 37.735082 ], [ -122.426722, 37.736372 ], [ -122.426545, 37.736269 ], [ -122.426209, 37.736074 ], [ -122.425474495416978, 37.736014839159985 ], [ -122.425187772038143, 37.735417473912669 ], [ -122.424952253289561, 37.734730980514748 ], [ -122.424802598102033, 37.734029458839991 ], [ -122.424740245363168, 37.733319665250427 ], [ -122.424765793074442, 37.732608435583444 ], [ -122.424878992687724, 37.731902619313381 ], [ -122.42507875159545, 37.731209013589691 ], [ -122.425363143746523, 37.730534297786114 ], [ -122.425729428282168, 37.729884969191133 ], [ -122.426174076009048, 37.729267280458352 ], [ -122.42669280345153, 37.728687179418294 ], [ -122.42728061415292, 37.728150251830165 ], [ -122.427931846825871, 37.727661667623771 ], [ -122.428640229886938, 37.727226131147738 ], [ -122.429398941849982, 37.726847835901935 ], [ -122.430200676996506, 37.726530424188397 ], [ -122.431037715691716, 37.726276952068126 ], [ -122.431901998670796, 37.726089859959785 ], [ -122.432785204581819, 37.725970949162402 ], [ -122.433678830041828, 37.725921364527004 ], [ -122.433858570782022, 37.725925423042796 ], [ -122.433624, 37.726236 ] ] ], [ [ [ -122.412880807014005, 37.746425779100726 ], [ -122.413589457146486, 37.745990334472467 ], [ -122.414348437293285, 37.745612137322517 ], [ -122.415150439154402, 37.745294829008458 ], [ -122.415987740527882, 37.745041464595886 ], [ -122.416281965102542, 37.744977830176424 ], [ -122.416103, 37.745253 ], [ -122.417819, 37.745965 ], [ -122.419121, 37.746775 ], [ -122.418206, 37.748203 ], [ -122.41587, 37.748267 ], [ -122.416108, 37.750771 ], [ -122.416413, 37.753968 ], [ -122.412047, 37.75423 ], [ -122.4119, 37.752629 ], [ -122.411746, 37.751034 ], [ -122.411488, 37.748344 ], [ -122.410585642896947, 37.748366149640738 ], [ -122.410921233633928, 37.747991085830975 ], [ -122.411509310979099, 37.747454238651812 ], [ -122.412160816507097, 37.746965743185413 ], [ -122.41219788955766, 37.746942963650682 ], [ -122.412229310952938, 37.74691427859171 ], [ -122.412880807014005, 37.746425779100726 ] ] ], [ [ [ -122.393494829523718, 37.750384018472154 ], [ -122.394383708334033, 37.750474155726693 ], [ -122.395257183329477, 37.750633031382471 ], [ -122.396106844732444, 37.750859115809199 ], [ -122.396862531050147, 37.751128165075514 ], [ -122.396408, 37.751179 ], [ -122.394587, 37.752427 ], [ -122.391231, 37.75263 ], [ -122.38789, 37.752819 ], [ -122.385136365906561, 37.752982882154186 ], [ -122.385588784404277, 37.752570135661152 ], [ -122.386240505166342, 37.752081783922954 ], [ -122.386949365325393, 37.751646499912887 ], [ -122.38770853880321, 37.751268474699927 ], [ -122.388510715439295, 37.750951347986103 ], [ -122.389348171349951, 37.750698173088445 ], [ -122.390212843255014, 37.750511387563989 ], [ -122.391096406059532, 37.750392789760078 ], [ -122.391990352945854, 37.750343521514331 ], [ -122.392886077207393, 37.750364057170735 ], [ -122.392962629347551, 37.750371820659886 ], [ -122.393494829523718, 37.750384018472154 ] ] ], [ [ [ -122.425032620275431, 37.771125652244834 ], [ -122.424765956140291, 37.771289496957948 ], [ -122.424006766690823, 37.771667759518301 ], [ -122.423590633377785, 37.771832380575347 ], [ -122.423665, 37.771781 ], [ -122.424929, 37.770778 ], [ -122.425032620275431, 37.771125652244834 ] ] ], [ [ [ -122.419404941411472, 37.772685386675889 ], [ -122.420135713442576, 37.773097423411961 ], [ -122.420812095693123, 37.773564328550947 ], [ -122.421427574581585, 37.774081606517122 ], [ -122.421474610166328, 37.77412984465461 ], [ -122.421607577787469, 37.774241595457738 ], [ -122.422156228317277, 37.774804264711911 ], [ -122.42263276347397, 37.775406908349851 ], [ -122.423032592869532, 37.776043723471432 ], [ -122.423351864413121, 37.776708577985694 ], [ -122.423587501467225, 37.777395069636164 ], [ -122.4237372325493, 37.778096587632803 ], [ -122.423789528804051, 37.778691631678804 ], [ -122.423354, 37.778747 ], [ -122.423541, 37.779674 ], [ -122.423655754211836, 37.780240770139123 ], [ -122.423460853794907, 37.780917007042042 ], [ -122.423176251458017, 37.781591712419711 ], [ -122.422810537112113, 37.782239526105649 ], [ -122.422746327026829, 37.782391743520769 ], [ -122.422379757478822, 37.783041056986249 ], [ -122.421934756279981, 37.783658725694814 ], [ -122.421415607758192, 37.784238800309701 ], [ -122.42082731076836, 37.78477569346456 ], [ -122.420175530582654, 37.785264233608729 ], [ -122.419466544344118, 37.785699714849535 ], [ -122.418707180609118, 37.786077942310442 ], [ -122.41800176994326, 37.786356906606152 ], [ -122.417357102560317, 37.786677992089444 ], [ -122.416554663260186, 37.786995313124088 ], [ -122.416378837895124, 37.787048487794408 ], [ -122.416298958957071, 37.78715933945135 ], [ -122.416276651122729, 37.787212207052583 ], [ -122.415910001222002, 37.787861499838741 ], [ -122.415565681021846, 37.788339313633017 ], [ -122.415185, 37.788388 ], [ -122.414995, 37.787454 ], [ -122.413354, 37.787664 ], [ -122.412531, 37.787767 ], [ -122.411699, 37.787872 ], [ -122.408402, 37.788293 ], [ -122.408595, 37.789226 ], [ -122.408786, 37.79016 ], [ -122.407149, 37.790366 ], [ -122.40734, 37.791296 ], [ -122.407536, 37.792249 ], [ -122.407903, 37.79406 ], [ -122.408047246098945, 37.794787000338665 ], [ -122.407865830047186, 37.794989615086109 ], [ -122.407277349937033, 37.795526439584364 ], [ -122.406646703439336, 37.795998932613216 ], [ -122.406601, 37.795774 ], [ -122.406305, 37.794264 ], [ -122.404796, 37.794453 ], [ -122.404613, 37.793565 ], [ -122.401315, 37.793987 ], [ -122.400149, 37.794134 ], [ -122.396586, 37.794588 ], [ -122.396315, 37.793337 ], [ -122.397428, 37.792442 ], [ -122.399195, 37.791058 ], [ -122.401402, 37.789297 ], [ -122.402914, 37.788112 ], [ -122.403456, 37.787776 ], [ -122.404743, 37.786778 ], [ -122.406062, 37.785757 ], [ -122.402708, 37.783259 ], [ -122.400468, 37.78503 ], [ -122.39893, 37.783785 ], [ -122.397386, 37.782554 ], [ -122.395843, 37.781321 ], [ -122.39275, 37.778852 ], [ -122.390527, 37.780607 ], [ -122.389168, 37.781649 ], [ -122.388423, 37.781798 ], [ -122.388345176541264, 37.781900494673017 ], [ -122.387809709590911, 37.781450192975441 ], [ -122.38777382419201, 37.781413366419628 ], [ -122.387669, 37.781325213181859 ], [ -122.387669, 37.776799 ], [ -122.386594091484, 37.773281993988 ], [ -122.3864961116236, 37.772961412512444 ], [ -122.386894295017868, 37.772409133581142 ], [ -122.387413630397987, 37.771829209767859 ], [ -122.388002066315238, 37.771292482110205 ], [ -122.388653935462713, 37.770804118612801 ], [ -122.389362960129759, 37.77036882149919 ], [ -122.390122312653915, 37.76999078196468 ], [ -122.390924681150935, 37.769673639849309 ], [ -122.391762339889965, 37.769420448618575 ], [ -122.392627223638357, 37.769233645986915 ], [ -122.393511005262098, 37.769115030466416 ], [ -122.39440517583725, 37.769065744065387 ], [ -122.395301126504293, 37.769086261302583 ], [ -122.396190231280414, 37.769176384642627 ], [ -122.397063930035898, 37.769335246396139 ], [ -122.397913810839398, 37.769561317066582 ], [ -122.398731690882272, 37.7698524200637 ], [ -122.399509695206447, 37.770205752642305 ], [ -122.400240332480223, 37.770617912866214 ], [ -122.400916567094868, 37.771084932337871 ], [ -122.40126574370224, 37.771378533320984 ], [ -122.401441073486964, 37.77149961614667 ], [ -122.40205640036956, 37.772016995414013 ], [ -122.402604886369048, 37.772579755858402 ], [ -122.403081248633541, 37.773182478743031 ], [ -122.403480898439128, 37.773819360404424 ], [ -122.403799985423831, 37.774484268110562 ], [ -122.404035434726907, 37.775170799092443 ], [ -122.404184976673605, 37.775872342180854 ], [ -122.404247168716736, 37.776582141456529 ], [ -122.404224175114265, 37.777216999885667 ], [ -122.404397095075979, 37.777148633825746 ], [ -122.404504550815545, 37.776958380170129 ], [ -122.404949656802913, 37.776340776511333 ], [ -122.405468878702266, 37.775760773579762 ], [ -122.406057215295107, 37.775223956190089 ], [ -122.406678351217039, 37.774758462528965 ], [ -122.406957218693236, 37.774504006018844 ], [ -122.40760899139309, 37.77401553800231 ], [ -122.407681144998321, 37.773971223997243 ], [ -122.407897219555807, 37.773774057586984 ], [ -122.408548979670002, 37.773285584310941 ], [ -122.409257911424206, 37.772850167748864 ], [ -122.410017188049821, 37.772472000246317 ], [ -122.410277625722344, 37.772369008952843 ], [ -122.408516, 37.77376 ], [ -122.410063, 37.774992 ], [ -122.411606, 37.776221 ], [ -122.413161, 37.774992 ], [ -122.415561, 37.773101 ], [ -122.414027, 37.771864 ], [ -122.413672154086385, 37.771580949025591 ], [ -122.414299946429381, 37.771546240028997 ], [ -122.414789397405059, 37.771557365397314 ], [ -122.41440911543566, 37.771384730127984 ], [ -122.413678392016806, 37.770972657773179 ], [ -122.413002078201302, 37.770505711496611 ], [ -122.412386687609569, 37.769988389222412 ], [ -122.411838146645266, 37.769425674031012 ], [ -122.411361737426063, 37.768822986131617 ], [ -122.410962046938536, 37.768186130625793 ], [ -122.410642922904898, 37.76752124156716 ], [ -122.410407436785675, 37.766834722856807 ], [ -122.410257854272089, 37.766133186545098 ], [ -122.410195613549533, 37.765423389134725 ], [ -122.410221311538436, 37.764712166499386 ], [ -122.410285155791868, 37.764314755037297 ], [ -122.410364, 37.76431 ], [ -122.413003, 37.764091 ], [ -122.413588, 37.763823 ], [ -122.417332, 37.763572 ], [ -122.417179, 37.761968 ], [ -122.417026, 37.760367 ], [ -122.416872, 37.758764 ], [ -122.41672, 37.757167 ], [ -122.416567, 37.755568 ], [ -122.418748, 37.755437 ], [ -122.420964, 37.755295 ], [ -122.421118, 37.756902 ], [ -122.421272, 37.758499 ], [ -122.421425, 37.760101 ], [ -122.421578, 37.761701 ], [ -122.421732, 37.7633 ], [ -122.421853, 37.764571 ], [ -122.421886, 37.764917 ], [ -122.422044, 37.76654 ], [ -122.422199, 37.76814 ], [ -122.422308, 37.769278 ], [ -122.422439, 37.770664 ], [ -122.422587405948377, 37.77217183723247 ], [ -122.422366937490438, 37.772238541159744 ], [ -122.421502093584365, 37.772425561858434 ], [ -122.420618317308012, 37.772544387138744 ], [ -122.41972412228624, 37.772593872323696 ], [ -122.419175924454507, 37.772581432868321 ], [ -122.419404941411472, 37.772685386675889 ] ], [ [ -122.420358, 37.780072 ], [ -122.419943, 37.778238 ], [ -122.419765, 37.777291 ], [ -122.419359, 37.775432 ], [ -122.419334, 37.77521 ], [ -122.418704, 37.775645 ], [ -122.417615, 37.7766 ], [ -122.416292, 37.777494 ], [ -122.414782, 37.778744 ], [ -122.413365, 37.779862 ], [ -122.412548, 37.780508 ], [ -122.411985, 37.780952 ], [ -122.413866, 37.781863 ], [ -122.415505, 37.781654 ], [ -122.417146, 37.781447 ], [ -122.417339, 37.782379 ], [ -122.418993, 37.782169 ], [ -122.420689, 37.781955 ], [ -122.420358, 37.780072 ] ] ], [ [ [ -122.280670733677198, 37.805691900659433 ], [ -122.280640035046616, 37.805797634667783 ], [ -122.280354039900601, 37.806471991462907 ], [ -122.279986106697791, 37.80712085864441 ], [ -122.279903303582515, 37.807235349201122 ], [ -122.279824128930116, 37.807422030338365 ], [ -122.279456186388657, 37.808070895751477 ], [ -122.279009846740649, 37.808688021521121 ], [ -122.278644966475312, 37.809094268441861 ], [ -122.278600388241415, 37.809247786113978 ], [ -122.278314361280707, 37.809922137527408 ], [ -122.277946393155432, 37.810570997926284 ], [ -122.277500025928759, 37.811188117692808 ], [ -122.276979557089874, 37.811767552775535 ], [ -122.276723692370027, 37.81200024803956 ], [ -122.27666650432181, 37.812101084558073 ], [ -122.276220117257779, 37.812718199303276 ], [ -122.27569962770383, 37.813297628571313 ], [ -122.275110047436499, 37.813833791210151 ], [ -122.274457054094029, 37.814321522704191 ], [ -122.273746936510904, 37.814756124948985 ], [ -122.272986534146938, 37.815133411534241 ], [ -122.272183171195152, 37.815449748097919 ], [ -122.271344586003309, 37.815702087361153 ], [ -122.270756906976175, 37.815828289329438 ], [ -122.270644527879611, 37.815862104119986 ], [ -122.269778794748291, 37.816048010121079 ], [ -122.268894257523158, 37.816165696970728 ], [ -122.267999437162942, 37.816214030958719 ], [ -122.267102953773204, 37.816192546468763 ], [ -122.26621344349401, 37.816101450467769 ], [ -122.265339475232594, 37.815941620510209 ], [ -122.264489468046349, 37.815714596277353 ], [ -122.264244414144201, 37.815627095191083 ], [ -122.266771, 37.811553 ], [ -122.271274, 37.804361 ], [ -122.268798, 37.803427 ], [ -122.26761, 37.80296 ], [ -122.266458, 37.802497 ], [ -122.267312, 37.801081 ], [ -122.263752, 37.7997 ], [ -122.265066, 37.797622 ], [ -122.266615, 37.795117 ], [ -122.27014, 37.796524 ], [ -122.272515, 37.797457 ], [ -122.274935, 37.798276 ], [ -122.275061, 37.798321 ], [ -122.278536, 37.799654 ], [ -122.279564, 37.800449 ], [ -122.279687, 37.800256 ], [ -122.281417008257179, 37.80094324399542 ], [ -122.28156175819538, 37.80162751743574 ], [ -122.281622799621502, 37.802337377461491 ], [ -122.281595856909902, 37.803048566572549 ], [ -122.281481187019622, 37.803754235569684 ], [ -122.281279891848158, 37.804447588224654 ], [ -122.280993907713167, 37.805121946741203 ], [ -122.280670733677198, 37.805691900659433 ] ] ], [ [ [ -122.302460878230363, 37.809516006831331 ], [ -122.301871521265809, 37.810052303582623 ], [ -122.301218737003936, 37.810540183542884 ], [ -122.300508812264155, 37.810974947177748 ], [ -122.299748584647645, 37.811352406522481 ], [ -122.298945376663141, 37.811668925551004 ], [ -122.298106925164703, 37.811921455226873 ], [ -122.297241306783079, 37.812107562897303 ], [ -122.296356860071057, 37.812225455746201 ], [ -122.295462105114964, 37.812273998078894 ], [ -122.294565661389939, 37.812252722272113 ], [ -122.293676164653945, 37.812161833282353 ], [ -122.292802183683889, 37.812002206669987 ], [ -122.291952137659962, 37.811775380157421 ], [ -122.291134214997214, 37.811483538803444 ], [ -122.290356294409534, 37.811129493937067 ], [ -122.289625868969054, 37.810716656054481 ], [ -122.288949973894944, 37.810249001941536 ], [ -122.288335118768714, 37.809731036339222 ], [ -122.287787224830282, 37.809167748523059 ], [ -122.287311567959037, 37.808564564215885 ], [ -122.286912727888819, 37.807927293298498 ], [ -122.286594544144961, 37.80726207382326 ], [ -122.28636007912597, 37.806575312871189 ], [ -122.286211588683685, 37.805873624823143 ], [ -122.28615050048144, 37.805163767640423 ], [ -122.286177400336754, 37.804452577769851 ], [ -122.286292026675127, 37.803746904299693 ], [ -122.286493273146093, 37.803053543001461 ], [ -122.286668933349517, 37.802639239130841 ], [ -122.286832, 37.802685 ], [ -122.28867, 37.802755 ], [ -122.291101, 37.802526 ], [ -122.296858, 37.801922 ], [ -122.300389, 37.802657 ], [ -122.303339, 37.804684 ], [ -122.304274481021039, 37.806498304375936 ], [ -122.304170781022194, 37.806855882684658 ], [ -122.303884995520278, 37.807530296379376 ], [ -122.30351726272167, 37.808179236812329 ], [ -122.303467958950023, 37.808247447146485 ], [ -122.303427274299935, 37.808319242669782 ], [ -122.302981132411261, 37.808936459096131 ], [ -122.302460878230363, 37.809516006831331 ] ] ], [ [ [ -121.885723887253221, 37.319888462958147 ], [ -121.884834768188185, 37.319933892712164 ], [ -121.883944355130325, 37.319909495252482 ], [ -121.883061225724546, 37.319815505607814 ], [ -121.882193887389235, 37.319652829209076 ], [ -121.881350695292966, 37.319423033159573 ], [ -121.880539771804138, 37.319128331126031 ], [ -121.879768928192448, 37.318771561996535 ], [ -121.879045589339299, 37.318356162511733 ], [ -121.878376722184655, 37.317886134134248 ], [ -121.877768768601214, 37.317366004476177 ], [ -121.877227583343497, 37.316800783658145 ], [ -121.876758377669958, 37.316195916021016 ], [ -121.876365669180743, 37.315557227657308 ], [ -121.876053238353379, 37.314890870268492 ], [ -121.875824092193042, 37.314203261890846 ], [ -121.875680435345615, 37.313501025061164 ], [ -121.87562364894859, 37.312790923019158 ], [ -121.875654277420566, 37.312079794561747 ], [ -121.875772023312933, 37.311374488176824 ], [ -121.87597575026976, 37.310681796091089 ], [ -121.876263494063664, 37.310008388867367 ], [ -121.876632481597952, 37.309360751180186 ], [ -121.87707915768857, 37.308745119388192 ], [ -121.877599219365166, 37.308167421503221 ], [ -121.878187657358552, 37.307633220133376 ], [ -121.878838804372975, 37.307147658948033 ], [ -121.879546389677444, 37.306715413179298 ], [ -121.879606635211672, 37.306685595959848 ], [ -121.879632521213367, 37.306669782659988 ], [ -121.880227668001979, 37.30637522375833 ], [ -121.883232, 37.310156 ], [ -121.887901, 37.315414 ], [ -121.888061, 37.315323 ], [ -121.889345, 37.317119 ], [ -121.88984, 37.318589 ], [ -121.889857785702844, 37.318650845145832 ], [ -121.889855320996432, 37.318652350891306 ], [ -121.889098034352784, 37.319027180997942 ], [ -121.888298385759384, 37.31934091838815 ], [ -121.887464077788707, 37.319590540815781 ], [ -121.886603147156819, 37.319773643629951 ], [ -121.885723887253221, 37.319888462958147 ] ] ], [ [ [ -121.903679902242828, 37.337298391514999 ], [ -121.902790586955661, 37.33734395747959 ], [ -121.901899960593525, 37.337319696479099 ], [ -121.901016602856728, 37.337225842227696 ], [ -121.900149023364008, 37.337063298851952 ], [ -121.899305579607926, 37.336833632173708 ], [ -121.898494396381949, 37.336539054613326 ], [ -121.89772328745866, 37.336182403859837 ], [ -121.896999680275982, 37.335767115513505 ], [ -121.896330544359301, 37.335297189966361 ], [ -121.896171302234805, 37.33516103689626 ], [ -121.896116082002806, 37.335122255798602 ], [ -121.895507864730547, 37.334602218555304 ], [ -121.894966420482476, 37.33403708007436 ], [ -121.894496963011818, 37.333432283903655 ], [ -121.894104012344059, 37.332793655447347 ], [ -121.893791351289011, 37.332127345830237 ], [ -121.893561989068857, 37.331439772628606 ], [ -121.893418132409749, 37.330737558040767 ], [ -121.893361164372649, 37.330027465092535 ], [ -121.893391631124459, 37.329316332493562 ], [ -121.893509236772815, 37.328611008772086 ], [ -121.893712846311018, 37.327918286322145 ], [ -121.89379796988672, 37.327718995349372 ], [ -121.893812957510164, 37.327668003436735 ], [ -121.894100605974771, 37.326994552861251 ], [ -121.894469522795575, 37.326346859433841 ], [ -121.894916153468017, 37.325731160050282 ], [ -121.895436195457805, 37.325153383373717 ], [ -121.896024639684029, 37.32461909277125 ], [ -121.896675818789873, 37.324133432771923 ], [ -121.897383461734407, 37.323701079559541 ], [ -121.89798563855274, 37.323402983796868 ], [ -121.898517815389582, 37.32307782450161 ], [ -121.899275095829921, 37.32270293357881 ], [ -121.900074734310678, 37.322389121324491 ], [ -121.900909031395187, 37.322139409138693 ], [ -121.901769954220242, 37.321956201235793 ], [ -121.902591584024066, 37.32184879506859 ], [ -121.90248, 37.323481 ], [ -121.902069, 37.324069 ], [ -121.900883, 37.325601 ], [ -121.900194, 37.326611 ], [ -121.901331, 37.326434 ], [ -121.902733, 37.326291 ], [ -121.902876, 37.326281 ], [ -121.904864, 37.326176 ], [ -121.906205, 37.326222 ], [ -121.91158, 37.326009 ], [ -121.911829, 37.331553 ], [ -121.90473, 37.331862 ], [ -121.90381, 37.331903 ], [ -121.908160692559392, 37.335848586750828 ], [ -121.907812001423565, 37.33606164726131 ], [ -121.907054628435418, 37.336436593140682 ], [ -121.906254868946107, 37.336750452838579 ], [ -121.905420426596024, 37.337000202930874 ], [ -121.904559339395632, 37.337183437537014 ], [ -121.903679902242828, 37.337298391514999 ] ] ], [ [ [ -121.942366978238027, 37.359404842634852 ], [ -121.941659257507681, 37.359837466733197 ], [ -121.940901813401055, 37.360212630883915 ], [ -121.940101941623993, 37.360526721164433 ], [ -121.939267346897864, 37.360776711929773 ], [ -121.938406068700573, 37.360960194981182 ], [ -121.937526403769922, 37.361075402783435 ], [ -121.936636826118502, 37.361121225506231 ], [ -121.935745905333761, 37.361097221724506 ], [ -121.934862223953147, 37.361003622674545 ], [ -121.933994294714282, 37.3608413300244 ], [ -121.933150478480187, 37.360611907180569 ], [ -121.932338903633834, 37.360317564214498 ], [ -121.931567387721771, 37.359961136555235 ], [ -121.930843362103701, 37.359546057653979 ], [ -121.930173800337087, 37.359076325885319 ], [ -121.929565150987173, 37.358556466004281 ], [ -121.929023275511639, 37.357991485533098 ], [ -121.928553391818028, 37.357386826497901 ], [ -121.928160024037481, 37.356748312982312 ], [ -121.927846958997335, 37.356082095004382 ], [ -121.927617209810364, 37.355394589258324 ], [ -121.92747298692889, 37.3546924172933 ], [ -121.927415676939901, 37.353982341725271 ], [ -121.927445829302101, 37.353271201097215 ], [ -121.927454423112962, 37.353219534234547 ], [ -121.927464986078604, 37.352970403623324 ], [ -121.927582307272431, 37.352265046511903 ], [ -121.927785665332436, 37.351572265648961 ], [ -121.92807309958026, 37.35089873245343 ], [ -121.928113923687391, 37.350827013643794 ], [ -121.92818172388759, 37.350668137885776 ], [ -121.928550462123852, 37.350020337897575 ], [ -121.928875874686497, 37.349571508646235 ], [ -121.932135, 37.351219 ], [ -121.937553, 37.353984 ], [ -121.94383, 37.356683 ], [ -121.945051983725733, 37.356283540926022 ], [ -121.944941459386385, 37.356542666507877 ], [ -121.944572831096124, 37.35719051783645 ], [ -121.944126421663611, 37.357806405502025 ], [ -121.943606529015312, 37.358384397311745 ], [ -121.94301815920592, 37.358918925950817 ], [ -121.942366978238027, 37.359404842634852 ] ] ], [ [ [ -121.877632733186758, 37.360817267333026 ], [ -121.878444097766646, 37.361111988928343 ], [ -121.879215371967959, 37.361468766089814 ], [ -121.879939129235879, 37.361884163716844 ], [ -121.880608400184713, 37.362354182241077 ], [ -121.881216739686309, 37.362874296108473 ], [ -121.881278064752038, 37.362938300080984 ], [ -121.881645594893556, 37.363252522710866 ], [ -121.882187150122363, 37.363817721935611 ], [ -121.882656698887502, 37.364422566530337 ], [ -121.883049718069884, 37.365061232396918 ], [ -121.883362421158552, 37.365727569616844 ], [ -121.883591794775427, 37.366415161648327 ], [ -121.883654374440979, 37.366720691485078 ], [ -121.883668324941212, 37.36675041755003 ], [ -121.883897704515036, 37.367438008945705 ], [ -121.88404154235289, 37.368140233979922 ], [ -121.884098450858176, 37.368850330156739 ], [ -121.884069456979788, 37.369524764835504 ], [ -121.880698, 37.368007 ], [ -121.879355, 37.369396 ], [ -121.876828, 37.370961 ], [ -121.875763, 37.371864 ], [ -121.873062, 37.373791 ], [ -121.87096547114605, 37.375972996385805 ], [ -121.870732159696971, 37.375888248490483 ], [ -121.869960777115452, 37.375531415800879 ], [ -121.869236943100347, 37.375115956883732 ], [ -121.868567629360939, 37.374645873773567 ], [ -121.867959282070828, 37.374125694609127 ], [ -121.867417759775293, 37.373560429987236 ], [ -121.866948276977197, 37.372955524670118 ], [ -121.866653865904922, 37.372476943265958 ], [ -121.866497893404727, 37.372275975135565 ], [ -121.866104977797306, 37.371637254044977 ], [ -121.865792403930882, 37.370970871022941 ], [ -121.865673982946518, 37.370615632733958 ], [ -121.865593106978366, 37.370443207935089 ], [ -121.865363886686566, 37.369755580854957 ], [ -121.865220221339385, 37.36905333298359 ], [ -121.865163492152476, 37.368343227666671 ], [ -121.865194242989773, 37.367632103732383 ], [ -121.865199327397292, 37.367601696693619 ], [ -121.86522746105021, 37.366951082885393 ], [ -121.865345391892092, 37.366245788718857 ], [ -121.86554936519471, 37.365553116463694 ], [ -121.865837414355212, 37.36487973649173 ], [ -121.866206763333523, 37.364232133215197 ], [ -121.866653853462694, 37.363616542661582 ], [ -121.867174377783641, 37.363038892445914 ], [ -121.86776332257098, 37.36250474471759 ], [ -121.868415015648381, 37.362019242629913 ], [ -121.869123181026765, 37.361587060846375 ], [ -121.869880999338989, 37.36121236055903 ], [ -121.870681173488975, 37.36089874945062 ], [ -121.871515998884107, 37.36064924698475 ], [ -121.872377437576091, 37.360466255356748 ], [ -121.873257195598953, 37.360351536384243 ], [ -121.874146802761217, 37.36030619455881 ], [ -121.875037694128011, 37.36033066642117 ], [ -121.875921292411192, 37.360424716361926 ], [ -121.876789090477928, 37.360587438887997 ], [ -121.877632733186758, 37.360817267333026 ] ] ], [ [ [ -121.986572805608262, 37.370447510052507 ], [ -121.987296, 37.370442 ], [ -121.987271, 37.370929 ], [ -121.986926, 37.371817 ], [ -121.986917676177185, 37.372442119093684 ], [ -121.98681763887754, 37.372143591408083 ], [ -121.986672827133589, 37.371441493026289 ], [ -121.986670158568543, 37.371408759751297 ], [ -121.98662861818616, 37.371207354735454 ], [ -121.986570733155531, 37.37049730883696 ], [ -121.986572805608262, 37.370447510052507 ] ] ], [ [ [ -121.897746, 37.404132 ], [ -121.895821, 37.403741 ], [ -121.89226, 37.403411 ], [ -121.89058, 37.403313 ], [ -121.887006, 37.403023 ], [ -121.886825352335791, 37.402688814489345 ], [ -121.887009558599885, 37.402597747883313 ], [ -121.887810104341199, 37.40228402062835 ], [ -121.888645335239019, 37.402034396795102 ], [ -121.889507209441419, 37.401851279747682 ], [ -121.890387428790092, 37.401736432511484 ], [ -121.891277518653112, 37.401690960813085 ], [ -121.892168909449509, 37.401715302443691 ], [ -121.893053019084178, 37.401809223047678 ], [ -121.893921335502597, 37.401971818377085 ], [ -121.894765498574216, 37.402201522990055 ], [ -121.895577380519342, 37.40249612530998 ], [ -121.896349164108287, 37.402852788900894 ], [ -121.89707341788278, 37.403268079755414 ], [ -121.897743167677191, 37.40373799933294 ], [ -121.898182065645628, 37.404112898833894 ], [ -121.897746, 37.404132 ] ] ], [ [ [ -122.23467, 37.488203 ], [ -122.231769, 37.490316 ], [ -122.235761582222693, 37.49323862109425 ], [ -122.235210431719025, 37.493405001747654 ], [ -122.234348354130177, 37.493590656135723 ], [ -122.233467586200092, 37.493708082662607 ], [ -122.232576612567158, 37.493756150124916 ], [ -122.231684016269583, 37.493734395473496 ], [ -122.230798395990774, 37.49364302827793 ], [ -122.229928283153612, 37.493482928705994 ], [ -122.229082059665316, 37.493255639037407 ], [ -122.228267877108635, 37.492963348794291 ], [ -122.227493578161443, 37.492608873631831 ], [ -122.226766621003833, 37.492195628193407 ], [ -122.226555129619612, 37.492048463953452 ], [ -122.226485200519008, 37.492008711368712 ], [ -122.226215635940946, 37.491821135676396 ], [ -122.225514046878601, 37.491422295355449 ], [ -122.225099661585901, 37.491133937639859 ], [ -122.224967726923964, 37.491058933299861 ], [ -122.224295134906939, 37.490590887949367 ], [ -122.22423102199177, 37.490536568424368 ], [ -122.224224820555392, 37.490532252895754 ], [ -122.223613051363259, 37.490013926953118 ], [ -122.223067995544369, 37.489450313572242 ], [ -122.222594901647625, 37.488846841613785 ], [ -122.222198324730272, 37.488209323730942 ], [ -122.221882082532559, 37.48754390035598 ], [ -122.221649218768746, 37.48685698053459 ], [ -122.221501973886419, 37.486155180177882 ], [ -122.221441763572912, 37.485445258328504 ], [ -122.221469165211943, 37.484734052055082 ], [ -122.221583912418367, 37.484028410602285 ], [ -122.221784897699351, 37.483335129431204 ], [ -122.222070183212921, 37.482660884785126 ], [ -122.22243701951659, 37.482012169410211 ], [ -122.222881872122386, 37.481395230049841 ], [ -122.223400455599432, 37.480816007313486 ], [ -122.223435424368589, 37.480784098612617 ], [ -122.223499080069644, 37.480712998625073 ], [ -122.224086397843578, 37.480177069311743 ], [ -122.224736794869429, 37.47968959417522 ], [ -122.225444007621434, 37.479255266881097 ], [ -122.226201225890421, 37.478878269283008 ], [ -122.227001158345516, 37.478562231185734 ], [ -122.227836102711436, 37.478310195422367 ], [ -122.228698019887602, 37.4781245885803 ], [ -122.229578611297228, 37.478007197657178 ], [ -122.23046939872421, 37.477959152870142 ], [ -122.230808701496201, 37.477967427743515 ], [ -122.228672, 37.479663 ], [ -122.231258, 37.481532 ], [ -122.231579, 37.481773 ], [ -122.232476, 37.482417 ], [ -122.231402, 37.483366 ], [ -122.23242, 37.484099 ], [ -122.233, 37.484509 ], [ -122.234927, 37.486202 ], [ -122.236303, 37.486136 ], [ -122.240687063380946, 37.489641264719083 ], [ -122.240674995029565, 37.489662615773177 ], [ -122.240593793572714, 37.489775266204632 ], [ -122.239737, 37.490529 ], [ -122.239441, 37.49084 ], [ -122.23858, 37.491624 ], [ -122.23467, 37.488203 ] ] ], [ [ [ -122.02194478147014, 37.596979549921869 ], [ -122.021543674033595, 37.597177965254531 ], [ -122.020741597267943, 37.597492599073973 ], [ -122.019904617628242, 37.597743158586198 ], [ -122.019040797569517, 37.597927230115324 ], [ -122.01815845832067, 37.598043040458407 ], [ -122.01756564462309, 37.598073887280172 ], [ -122.018634, 37.595312 ], [ -122.016672, 37.593434 ], [ -122.008612489738383, 37.58825043565443 ], [ -122.008645170188913, 37.588173885762338 ], [ -122.009014384344937, 37.587525845888457 ], [ -122.009167711946688, 37.587314626094752 ], [ -122.009239798872557, 37.587188097691758 ], [ -122.00968704466932, 37.586571974286343 ], [ -122.010208017270514, 37.585993700833413 ], [ -122.010797698621516, 37.585458845487388 ], [ -122.011450409443057, 37.584972558218773 ], [ -122.012159863937995, 37.584539521254626 ], [ -122.012203128674585, 37.584518120543578 ], [ -122.017502, 37.586023 ], [ -122.021514, 37.587181 ], [ -122.020334, 37.590605 ], [ -122.019662, 37.592519 ], [ -122.021013, 37.593736 ], [ -122.024835740333288, 37.594956295382154 ], [ -122.024664807079247, 37.595146071372668 ], [ -122.024075148624704, 37.595680995618849 ], [ -122.02342242639034, 37.596167352323114 ], [ -122.022712926612144, 37.596600456619257 ], [ -122.021953482809451, 37.596976136522429 ], [ -122.02194478147014, 37.596979549921869 ] ] ], [ [ [ -122.058476351356887, 37.627371305063527 ], [ -122.059347659101363, 37.627532672087561 ], [ -122.060194889492536, 37.627761180842711 ], [ -122.061009885228103, 37.628054631265009 ], [ -122.061784799107485, 37.628410198008069 ], [ -122.062512169541222, 37.628824457624177 ], [ -122.063184992361769, 37.629293421501032 ], [ -122.06379678824652, 37.629812574238528 ], [ -122.064341665104578, 37.630376917096804 ], [ -122.064814374826909, 37.630981016099057 ], [ -122.065210363853524, 37.631619054327039 ], [ -122.065525817069101, 37.632284887907161 ], [ -122.065757694603221, 37.632972105149243 ], [ -122.065903761178404, 37.633674088269558 ], [ -122.065962607720294, 37.634384077104741 ], [ -122.065933665019188, 37.635095234203661 ], [ -122.065817209307184, 37.635800710670722 ], [ -122.065614359694152, 37.636493712127077 ], [ -122.065327067483139, 37.637167564153899 ], [ -122.064958097464768, 37.637815776587487 ], [ -122.064511001367322, 37.638432106046054 ], [ -122.063990083715211, 37.639010616085649 ], [ -122.063400360422392, 37.639545734403853 ], [ -122.062747510517383, 37.640032306540299 ], [ -122.062037821463875, 37.640465645554393 ], [ -122.061278128602709, 37.640841577201009 ], [ -122.06047574929903, 37.641156480167467 ], [ -122.059638412429436, 37.641407320982573 ], [ -122.058774183890051, 37.641591683260991 ], [ -122.057891388845221, 37.641707790999206 ], [ -122.056998531468025, 37.64175452569841 ], [ -122.056104212949151, 37.641731437148536 ], [ -122.055217048567414, 37.641638747768965 ], [ -122.054345584623377, 37.641477350464058 ], [ -122.053498216040936, 37.641248800014147 ], [ -122.05268310543299, 37.64095529808548 ], [ -122.051908104414537, 37.640599672003781 ], [ -122.051180677923853, 37.640185347497173 ], [ -122.050507832282648, 37.639716315671606 ], [ -122.049896047690552, 37.639197094538446 ], [ -122.04935121580445, 37.638632685465957 ], [ -122.04887858300512, 37.638028524975539 ], [ -122.048482699896496, 37.637390432348369 ], [ -122.048167377523512, 37.636724553548554 ], [ -122.047935650728348, 37.636037302004056 ], [ -122.04778974899574, 37.635335296816841 ], [ -122.047731075065158, 37.634625298998252 ], [ -122.047760191512992, 37.633914146344708 ], [ -122.047876815430172, 37.633208687580925 ], [ -122.048079821242737, 37.632515716405436 ], [ -122.048367251645018, 37.631841906073376 ], [ -122.048736336535796, 37.631193745146184 ], [ -122.049183519772271, 37.630577475026207 ], [ -122.049704493481343, 37.629999029877155 ], [ -122.050294239594834, 37.629463979507648 ], [ -122.050947078207187, 37.628977475766874 ], [ -122.051656722288755, 37.628544202966971 ], [ -122.052416338226905, 37.628168332808535 ], [ -122.053218611612593, 37.627853484241299 ], [ -122.054055817639593, 37.627602688645858 ], [ -122.05491989543998, 37.627418360669843 ], [ -122.055802525642264, 37.627302274998563 ], [ -122.056695210408165, 37.627255549282737 ], [ -122.057589355180269, 37.627278633387228 ], [ -122.058476351356887, 37.627371305063527 ] ] ], [ [ [ -122.089086042674126, 37.662602073844305 ], [ -122.089933763731665, 37.662830367357763 ], [ -122.090327351843783, 37.662971897920478 ], [ -122.090628129448348, 37.663052895039094 ], [ -122.091443631793666, 37.663346133226455 ], [ -122.092219058683739, 37.663701497791941 ], [ -122.092946943591087, 37.664115567234319 ], [ -122.093620277395843, 37.664584354772259 ], [ -122.094232575856253, 37.665103346703461 ], [ -122.094777942042782, 37.665667545836449 ], [ -122.095251123134986, 37.666271519578395 ], [ -122.095647561033616, 37.666909452217389 ], [ -122.095963436300352, 37.667575200896827 ], [ -122.096195704999516, 37.668262354744456 ], [ -122.096342128085183, 37.668964296587468 ], [ -122.096401293047947, 37.669674266660536 ], [ -122.096372627609355, 37.670385427693745 ], [ -122.096256405328859, 37.67109093075431 ], [ -122.096053743065539, 37.671783981207987 ], [ -122.095766590315293, 37.67245790416483 ], [ -122.095397710522761, 37.673106208778691 ], [ -122.094950654544562, 37.673722650780725 ], [ -122.094429726516054, 37.674301292643747 ], [ -122.093839942448881, 37.674836560796322 ], [ -122.093789721655199, 37.674873997407524 ], [ -122.093691704837894, 37.674962952990803 ], [ -122.093038742264383, 37.675449690698841 ], [ -122.092328891800676, 37.675883210179997 ], [ -122.091568990341145, 37.676259335451306 ], [ -122.090766357259454, 37.676574443335319 ], [ -122.089928723876341, 37.676825498387338 ], [ -122.089064158944325, 37.677010082158517 ], [ -122.088180990868551, 37.677126416511811 ], [ -122.087287727416339, 37.677173380765566 ], [ -122.086392973691346, 37.67715052249833 ], [ -122.085505349166056, 37.677058061911104 ], [ -122.084633404575214, 37.676896889704146 ], [ -122.083785539474505, 37.67666855848924 ], [ -122.082969921261423, 37.676375267820589 ], [ -122.082194406442326, 37.676019842988687 ], [ -122.081466464906185, 37.675605707782886 ], [ -122.081166445484129, 37.6753968064315 ], [ -122.080920269822144, 37.675256750550062 ], [ -122.080246919454865, 37.674787891105119 ], [ -122.079634638862743, 37.674268827169946 ], [ -122.079089324480933, 37.673704558598615 ], [ -122.07861622733779, 37.673100520559281 ], [ -122.078219902509488, 37.672462531153812 ], [ -122.077904165294854, 37.671796735352387 ], [ -122.077672054530453, 37.671109545783885 ], [ -122.077525803397606, 37.670407580953778 ], [ -122.077466817998996, 37.669697601485232 ], [ -122.077495663908451, 37.668986444998573 ], [ -122.077612060819874, 37.668280960256027 ], [ -122.07781488534286, 37.66758794120701 ], [ -122.078102181914772, 37.666914061568448 ], [ -122.078471181720403, 37.666265810569904 ], [ -122.078918329433648, 37.665649430481849 ], [ -122.079439317520922, 37.665070856527599 ], [ -122.080029127773315, 37.664535659756794 ], [ -122.080682079665706, 37.664048993428942 ], [ -122.081391885076016, 37.663615543422246 ], [ -122.082151708837031, 37.663239483144075 ], [ -122.082954234537908, 37.662924433375146 ], [ -122.083791734942622, 37.662673427433603 ], [ -122.084656146348905, 37.662488881992552 ], [ -122.085539146173801, 37.662372573831242 ], [ -122.086432233021029, 37.662325622742621 ], [ -122.087326808463061, 37.662348480761423 ], [ -122.088214259753073, 37.662440927815808 ], [ -122.089086042674126, 37.662602073844305 ] ] ], [ [ [ -122.066823398376897, 37.691779519136865 ], [ -122.066794134119746, 37.691426771270834 ], [ -122.066823090515584, 37.690715619698558 ], [ -122.066939622677339, 37.690010147785358 ], [ -122.067142605910817, 37.689317149356839 ], [ -122.067430083123853, 37.6886432979313 ], [ -122.067799283760763, 37.687995082466486 ], [ -122.068246650560752, 37.687378744890701 ], [ -122.06876787388012, 37.686800220017901 ], [ -122.069357933244575, 37.686265078425144 ], [ -122.070011145730319, 37.685778472840703 ], [ -122.07072122070629, 37.685345088558094 ], [ -122.071481320410058, 37.684969098351878 ], [ -122.072284125774544, 37.684654122328261 ], [ -122.073121906871705, 37.684403193095491 ], [ -122.073652921010478, 37.684289910560423 ], [ -122.073811, 37.690948 ], [ -122.069372, 37.691192 ], [ -122.066823398376897, 37.691779519136865 ] ] ], [ [ [ -122.136071821050848, 37.697449812696242 ], [ -122.135955933126908, 37.69815535202315 ], [ -122.135753567124993, 37.698848467937424 ], [ -122.135466669685329, 37.699522484919498 ], [ -122.135098001791022, 37.700170911218585 ], [ -122.134651112255114, 37.700787501394736 ], [ -122.134130303607378, 37.701366316494294 ], [ -122.133540590707057, 37.701901781278039 ], [ -122.132887652478331, 37.702388737949697 ], [ -122.132177777231988, 37.702822495865924 ], [ -122.131417802099449, 37.703198876747443 ], [ -122.130953582264183, 37.703381255717446 ], [ -122.130897770847554, 37.703408895838002 ], [ -122.130095011437788, 37.703724270491151 ], [ -122.129257205066537, 37.703975604269353 ], [ -122.128392422152189, 37.704160476039021 ], [ -122.127508993199783, 37.704277104888952 ], [ -122.127494444468624, 37.704277874455002 ], [ -122.127460026546018, 37.704282418107056 ], [ -122.126566461741291, 37.70432968014719 ], [ -122.125671369231554, 37.704307120454828 ], [ -122.124783371753935, 37.704214956354683 ], [ -122.123911023637334, 37.70405407569077 ], [ -122.123062728326019, 37.703826028266349 ], [ -122.12224665736349, 37.703533010901744 ], [ -122.121470671619079, 37.703177846254633 ], [ -122.120742245519835, 37.702763955608027 ], [ -122.120068395019118, 37.702295325888585 ], [ -122.11945560999817, 37.701776471234353 ], [ -122.11890979175206, 37.70121238948375 ], [ -122.118436196163216, 37.700608514005658 ], [ -122.118349199197851, 37.700468672771059 ], [ -122.1183448445165, 37.700463120097758 ], [ -122.117948033022003, 37.699825267106583 ], [ -122.117631823940201, 37.699159580639957 ], [ -122.117399260652007, 37.698472472274247 ], [ -122.117252580696274, 37.69777055973352 ], [ -122.11719319430442, 37.697060603138077 ], [ -122.117221670910496, 37.696349439888728 ], [ -122.117337733763037, 37.695643918813722 ], [ -122.117540262686475, 37.694950834213223 ], [ -122.117827304962347, 37.694276860436339 ], [ -122.118196094221673, 37.693628487620025 ], [ -122.118643077163227, 37.693011959208711 ], [ -122.119163947837521, 37.692433211854748 ], [ -122.119753689163758, 37.691897818278242 ], [ -122.120406621278264, 37.691410933634387 ], [ -122.121116456247435, 37.690977245904151 ], [ -122.121876358617769, 37.690600930784292 ], [ -122.122679011220285, 37.690285611509644 ], [ -122.123516685596272, 37.690034323993565 ], [ -122.124381316368002, 37.689849487620407 ], [ -122.125264578840429, 37.689732881970656 ], [ -122.125482581951999, 37.689721352207194 ], [ -122.125924840267103, 37.689662963119702 ], [ -122.126818229256088, 37.689615705841206 ], [ -122.127713145291509, 37.689638256869998 ], [ -122.128600972348366, 37.689730399089832 ], [ -122.129473162593257, 37.689891245374042 ], [ -122.130321318611436, 37.690119247119412 ], [ -122.131137274192014, 37.690412209143268 ], [ -122.13191317289612, 37.690767310801327 ], [ -122.132641543655268, 37.691181133123649 ], [ -122.133315372673138, 37.691649691708292 ], [ -122.133928170941203, 37.692168475057571 ], [ -122.134474036718501, 37.692732487988529 ], [ -122.134947712374796, 37.693336299701564 ], [ -122.135344635049066, 37.693974096045331 ], [ -122.135660980634924, 37.69463973547613 ], [ -122.135893700667268, 37.695326808174279 ], [ -122.136040551753112, 37.696028697749107 ], [ -122.136100117260114, 37.696738644939337 ], [ -122.136071821050848, 37.697449812696242 ] ] ], [ [ [ -122.168828876350474, 37.724834437436229 ], [ -122.168382118361464, 37.725451153143752 ], [ -122.16786139959865, 37.726030115090495 ], [ -122.167271734053429, 37.72656574662345 ], [ -122.166618800191884, 37.727052888340793 ], [ -122.165908886281017, 37.727486847817261 ], [ -122.165148829823337, 37.727863444832501 ], [ -122.164999895450393, 37.727921990704942 ], [ -122.16494254363154, 37.727950407226132 ], [ -122.164139663676181, 37.728266012649236 ], [ -122.163301695854841, 37.728517587579361 ], [ -122.162436712140817, 37.728702708560107 ], [ -122.161553044973388, 37.72881959227972 ], [ -122.160659206928486, 37.728867112764526 ], [ -122.159763808646318, 37.728844812234811 ], [ -122.158875475810532, 37.728752905518689 ], [ -122.158002765981735, 37.728592277980688 ], [ -122.157154086090031, 37.728364476985554 ], [ -122.156337611385084, 37.728071696979647 ], [ -122.155561206626885, 37.727716758334161 ], [ -122.154832350280273, 37.727303080154989 ], [ -122.154158062444409, 37.726834647322121 ], [ -122.153544837214326, 37.726315972077231 ], [ -122.152998580126265, 37.725752050530673 ], [ -122.152524551290284, 37.725148314508502 ], [ -122.152127314757337, 37.724510579204285 ], [ -122.152115546196583, 37.72448583981901 ], [ -122.152066909515327, 37.724407756149837 ], [ -122.151750290344225, 37.72374216391372 ], [ -122.15151733479756, 37.723055125629287 ], [ -122.151370284191302, 37.722353258346196 ], [ -122.151310552325455, 37.721643321749461 ], [ -122.151338711959824, 37.720932153048004 ], [ -122.151454489393714, 37.720226601123308 ], [ -122.151656767198247, 37.719533460573409 ], [ -122.151943595071074, 37.718859406286931 ], [ -122.152312208705595, 37.718210929176948 ], [ -122.152759056489501, 37.717594273692896 ], [ -122.153279833772515, 37.717015377711526 ], [ -122.153869524370961, 37.716479815384702 ], [ -122.15452244890767, 37.715992743493111 ], [ -122.155232319520294, 37.715558851821221 ], [ -122.155810898035398, 37.715272194137299 ], [ -122.15892, 37.717986 ], [ -122.159808, 37.718776 ], [ -122.164245, 37.722651 ], [ -122.16724, 37.721836 ], [ -122.168104, 37.721626 ], [ -122.169812868088485, 37.721201640616826 ], [ -122.169829766835235, 37.721401897750518 ], [ -122.169801783924655, 37.722113070803921 ], [ -122.169686177695979, 37.722818640530711 ], [ -122.169484059070967, 37.723511811656216 ], [ -122.169197372305206, 37.724185908129947 ], [ -122.168828876350474, 37.724834437436229 ] ] ], [ [ [ -122.204730012677928, 37.749760784783327 ], [ -122.204775867136362, 37.749808052913345 ], [ -122.205250477735632, 37.750411576149581 ], [ -122.205648308588096, 37.75104912950308 ], [ -122.205672076138327, 37.751098988302573 ], [ -122.205728321137002, 37.751189123955875 ], [ -122.206045540704821, 37.751854567992375 ], [ -122.206279090669597, 37.752541495059958 ], [ -122.206426719644185, 37.753243290171405 ], [ -122.206487003502332, 37.753953194976461 ], [ -122.20645935918516, 37.754664372835983 ], [ -122.206344050412042, 37.755369974657491 ], [ -122.206142185237539, 37.756063204858073 ], [ -122.205855705473397, 37.756737386819111 ], [ -122.205487368074927, 37.757386027202472 ], [ -122.205040718666979, 37.758002878507796 ], [ -122.204520057461494, 37.758581999267889 ], [ -122.203930397892961, 37.759117811300797 ], [ -122.203277418367662, 37.759605153466794 ], [ -122.202567407590536, 37.760039331410432 ], [ -122.201807203995642, 37.760416162807523 ], [ -122.201004129863506, 37.76073201767997 ], [ -122.200165920761265, 37.760983853388367 ], [ -122.199883968281753, 37.761044264633753 ], [ -122.199485864252765, 37.761163869110185 ], [ -122.198620590684342, 37.761349254688689 ], [ -122.197736592217467, 37.761466409120416 ], [ -122.196842384620041, 37.761514203823907 ], [ -122.195946582093242, 37.761492178377878 ], [ -122.195057814216128, 37.761400544960466 ], [ -122.194184642741646, 37.761240186303326 ], [ -122.193335479048642, 37.761012647180983 ], [ -122.19251850304893, 37.760720119516989 ], [ -122.191741584333258, 37.760365421251592 ], [ -122.19101220631886, 37.759951969175049 ], [ -122.190337394131447, 37.759483745989399 ], [ -122.18972364691804, 37.758965261916813 ], [ -122.189176875243689, 37.758401511226332 ], [ -122.188702344175525, 37.757797924098448 ], [ -122.188304622601976, 37.757160314292875 ], [ -122.187987539274502, 37.756494823124761 ], [ -122.187754145993111, 37.755807860290432 ], [ -122.187606688288483, 37.755106042113404 ], [ -122.187546583879694, 37.754396127806451 ], [ -122.187574409112415, 37.753684954364481 ], [ -122.1876898935041, 37.752979370715458 ], [ -122.187891922445374, 37.752286171763757 ], [ -122.187959773708243, 37.752126587849688 ], [ -122.187991951095768, 37.752016179397771 ], [ -122.188278574729196, 37.751342040320999 ], [ -122.18864703237945, 37.750693453052996 ], [ -122.189093773933465, 37.750076663104814 ], [ -122.189614495761262, 37.749497609648778 ], [ -122.19020418221065, 37.748961868353916 ], [ -122.190857153942247, 37.748474597724829 ], [ -122.191567122637295, 37.748040489460216 ], [ -122.19191654067771, 37.747867297699244 ], [ -122.191946933033748, 37.747848713985995 ], [ -122.192707058060947, 37.747471945370911 ], [ -122.193510024156225, 37.74715614630945 ], [ -122.194348099841122, 37.74690435733509 ], [ -122.195213215873466, 37.746719002660754 ], [ -122.196097042886237, 37.746601866857368 ], [ -122.196991071520443, 37.746554077686632 ], [ -122.197886694283397, 37.746576095252252 ], [ -122.198775288348088, 37.746667707574055 ], [ -122.199648298499085, 37.746828032626972 ], [ -122.200497319430625, 37.74705552682596 ], [ -122.201314176607482, 37.747347999874819 ], [ -122.202091004913399, 37.747702635836994 ], [ -122.20282032433245, 37.74811602022622 ], [ -122.203495111937031, 37.748584172857143 ], [ -122.204108869491151, 37.749102586140879 ], [ -122.204655686018924, 37.749666268457979 ], [ -122.204730012677928, 37.749760784783327 ] ] ], [ [ [ -122.230013200146686, 37.769181485112583 ], [ -122.230079559827558, 37.769227484214582 ], [ -122.230263192437803, 37.769331473254688 ], [ -122.230938345658913, 37.769799467031511 ], [ -122.231552469973749, 37.770317735482955 ], [ -122.232099650875767, 37.770881288384238 ], [ -122.232574618073002, 37.771484699365914 ], [ -122.232972796268655, 37.772122158136142 ], [ -122.233290349265886, 37.772787526402922 ], [ -122.233524216971077, 37.773474396959067 ], [ -122.233672144936619, 37.774176155362042 ], [ -122.233732706155934, 37.774886043615581 ], [ -122.233731646276937, 37.774913562375659 ], [ -122.233732711073714, 37.774926043616333 ], [ -122.233705319800848, 37.77563722523616 ], [ -122.233590237284133, 37.776342851099251 ], [ -122.23338856939732, 37.777036125391703 ], [ -122.233102256050287, 37.777710371070903 ], [ -122.232734052593685, 37.778359094185646 ], [ -122.232287503360268, 37.778976046439418 ], [ -122.231766907595386, 37.779555285393187 ], [ -122.23117727810137, 37.78009123172717 ], [ -122.230524292993252, 37.780578723008489 ], [ -122.229814241028393, 37.781013063445791 ], [ -122.229053961036428, 37.781390069150092 ], [ -122.228250776032937, 37.781706108464455 ], [ -122.227412422652492, 37.781958136973039 ], [ -122.226546976581943, 37.782143726850556 ], [ -122.226398065201693, 37.782163492904978 ], [ -122.226396962800692, 37.782163729302248 ], [ -122.225512760458386, 37.782281091594996 ], [ -122.224618320184405, 37.782329096820924 ], [ -122.223722258421887, 37.78230728253078 ], [ -122.222833207248058, 37.782215858868483 ], [ -122.222655694165823, 37.782183312327454 ], [ -122.222583184100728, 37.782175855491154 ], [ -122.221709709008024, 37.782015701314549 ], [ -122.22086022351472, 37.781788361313971 ], [ -122.220042910633737, 37.78149602549481 ], [ -122.219265643202206, 37.78114150994918 ], [ -122.218535907997691, 37.780728229707229 ], [ -122.21829585155912, 37.780561811977563 ], [ -122.218165897964937, 37.780488212175989 ], [ -122.217490728068313, 37.780020146145645 ], [ -122.216876621656326, 37.779501805343067 ], [ -122.21632949275471, 37.778938182657342 ], [ -122.21585460987194, 37.778334707036215 ], [ -122.215456545285335, 37.777697191165537 ], [ -122.215139131050037, 37.777031775456059 ], [ -122.214905422152853, 37.776344868877707 ], [ -122.214757667163468, 37.775643087212579 ], [ -122.214697286663196, 37.774933189322326 ], [ -122.214724859655419, 37.774222012044277 ], [ -122.214840118085334, 37.773516404343937 ], [ -122.215041949517982, 37.77282316135792 ], [ -122.21532840794508, 37.772148958962717 ], [ -122.215696732613068, 37.771500289499194 ], [ -122.216143374687604, 37.770883399270488 ], [ -122.216150634106754, 37.770875324079363 ], [ -122.216253384408503, 37.770733406338628 ], [ -122.216774039306685, 37.770154234982193 ], [ -122.2173636938345, 37.769618359735908 ], [ -122.218016668958285, 37.769130940394682 ], [ -122.218726676325318, 37.768696670089525 ], [ -122.219486878818074, 37.768319730127907 ], [ -122.220289956374856, 37.768003749761959 ], [ -122.221128176443415, 37.76775177127103 ], [ -122.221993468391233, 37.767566220692892 ], [ -122.222877501157598, 37.7674488844848 ], [ -122.223771763402823, 37.767400892337903 ], [ -122.224667645385722, 37.767422706310228 ], [ -122.225556521784284, 37.767514116381641 ], [ -122.226429834665765, 37.767674242474364 ], [ -122.227279175810864, 37.767901542918807 ], [ -122.228096367602561, 37.768193829284186 ], [ -122.228873541704033, 37.768548287431244 ], [ -122.229172916120959, 37.768717825622197 ], [ -122.229283522638511, 37.768768270511515 ], [ -122.230013200146686, 37.769181485112583 ] ] ], [ [ [ -122.256024992652755, 37.795411267037558 ], [ -122.256311166116802, 37.794736967873412 ], [ -122.256679244809149, 37.794088173073732 ], [ -122.257125682261716, 37.793471130149449 ], [ -122.257646177768436, 37.792891780710306 ], [ -122.257878545754792, 37.792680486378885 ], [ -122.257976188395872, 37.792571800847945 ], [ -122.258565723557567, 37.792035721733214 ], [ -122.259218625304882, 37.791548076191908 ], [ -122.259928605989558, 37.791113559533635 ], [ -122.260688828749352, 37.790736355438312 ], [ -122.261491973326017, 37.790420095701705 ], [ -122.262330306521022, 37.790167825293267 ], [ -122.263195756612049, 37.789981973061572 ], [ -122.264079991015578, 37.78986432836831 ], [ -122.26497449645079, 37.789816023874799 ], [ -122.265290116460591, 37.789823596228501 ], [ -122.262963, 37.791175 ], [ -122.261327, 37.793807 ], [ -122.260806, 37.79528 ], [ -122.259577, 37.79632 ], [ -122.259551, 37.798132 ], [ -122.259554, 37.798301 ], [ -122.257805, 37.799704 ], [ -122.256345802443789, 37.80008294918354 ], [ -122.256124526455196, 37.799619829760857 ], [ -122.25589036737135, 37.79893300730194 ], [ -122.255742180130824, 37.798231279936758 ], [ -122.255681389477033, 37.797521406004741 ], [ -122.255708578362146, 37.796810222113365 ], [ -122.255823482428795, 37.796104577292645 ], [ -122.256024992652755, 37.795411267037558 ] ] ], [ [ [ -122.269334429477979, 37.822088446820658 ], [ -122.2701845244613, 37.822315435866912 ], [ -122.271002484090602, 37.822607421873187 ], [ -122.271780432638536, 37.822961593591891 ], [ -122.272510879306452, 37.823374541006359 ], [ -122.273186790315961, 37.823842288138373 ], [ -122.273801656616428, 37.824360331303311 ], [ -122.274349556557581, 37.824923682445636 ], [ -122.274825212924043, 37.825526917138582 ], [ -122.275174592423454, 37.82608520625206 ], [ -122.275061, 37.826059 ], [ -122.271796, 37.825226 ], [ -122.268563, 37.824462 ], [ -122.261996, 37.823012 ], [ -122.261892921416504, 37.822981387214647 ], [ -122.262386758134724, 37.822736454572848 ], [ -122.263190241683404, 37.822420185164333 ], [ -122.264028930480023, 37.822167904191055 ], [ -122.264894749379124, 37.821982040603537 ], [ -122.265779362247272, 37.821864383872935 ], [ -122.266674252160826, 37.821816066776591 ], [ -122.267570803337065, 37.821837554501059 ], [ -122.268460384013167, 37.821928640167279 ], [ -122.269334429477979, 37.822088446820658 ] ] ] ] } }
]
}
