{
"type": "FeatureCollection",
"name": "ACTransit_PedAccessPoints_GTFS_v3",
"crs": { "type": "name", "properties": { "name": "urn:ogc:def:crs:OGC:1.3:CRS84" } },
"features": [
{ "type": "Feature", "properties": { "access_id": " ", "station_id": "52584", "acces_poin": "Pedestrian Access Point", "location_t": "2", "stop_lat": 37.80282, "stop_lon": -122.27151, "stop_name": "City Center NB" }, "geometry": { "type": "Point", "coordinates": [ -122.271486357009735, 37.802790751991665 ] } },
{ "type": "Feature", "properties": { "access_id": " ", "station_id": "52414", "acces_poin": "Pedestrian Access Point", "location_t": "2", "stop_lat": 37.72813, "stop_lon": -122.15834, "stop_name": "San Leandro Civic Center NB" }, "geometry": { "type": "Point", "coordinates": [ -122.158251716343614, 37.728017104305991 ] } },
{ "type": "Feature", "properties": { "access_id": " ", "station_id": "52414", "acces_poin": "Pedestrian Access Point", "location_t": "2", "stop_lat": 37.72813, "stop_lon": -122.15834, "stop_name": "San Leandro Civic Center NB" }, "geometry": { "type": "Point", "coordinates": [ -122.158349371925965, 37.728165186674062 ] } },
{ "type": "Feature", "properties": { "access_id": " ", "station_id": "52415", "acces_poin": "Pedestrian Access Point", "location_t": "2", "stop_lat": 37.72845, "stop_lon": -122.1588, "stop_name": "San Leandro Civic Center SB" }, "geometry": { "type": "Point", "coordinates": [ -122.1587962198696, 37.728423501643363 ] } },
{ "type": "Feature", "properties": { "access_id": " ", "station_id": "52415", "acces_poin": "Pedestrian Access Point", "location_t": "2", "stop_lat": 37.72845, "stop_lon": -122.1588, "stop_name": "San Leandro Civic Center SB" }, "geometry": { "type": "Point", "coordinates": [ -122.158902862377147, 37.728564446092378 ] } },
{ "type": "Feature", "properties": { "access_id": " ", "station_id": "52426", "acces_poin": "Pedestrian Access Point", "location_t": "2", "stop_lat": 37.73151, "stop_lon": -122.16086, "stop_name": "Georgia Way NB" }, "geometry": { "type": "Point", "coordinates": [ -122.160747681260432, 37.731403566221672 ] } },
{ "type": "Feature", "properties": { "access_id": " ", "station_id": "52426", "acces_poin": "Pedestrian Access Point", "location_t": "2", "stop_lat": 37.73151, "stop_lon": -122.16086, "stop_name": "Georgia Way NB" }, "geometry": { "type": "Point", "coordinates": [ -122.160862667677918, 37.731548339983931 ] } },
{ "type": "Feature", "properties": { "access_id": " ", "station_id": "52427", "acces_poin": "Pedestrian Access Point", "location_t": "2", "stop_lat": 37.73203, "stop_lon": -122.16148, "stop_name": "Georgia Way SB" }, "geometry": { "type": "Point", "coordinates": [ -122.161590724632219, 37.732183067994242 ] } },
{ "type": "Feature", "properties": { "access_id": " ", "station_id": "52427", "acces_poin": "Pedestrian Access Point", "location_t": "2", "stop_lat": 37.73203, "stop_lon": -122.16148, "stop_name": "Georgia Way SB" }, "geometry": { "type": "Point", "coordinates": [ -122.161488510386391, 37.732039471444523 ] } },
{ "type": "Feature", "properties": { "access_id": " ", "station_id": "52429", "acces_poin": "Pedestrian Access Point", "location_t": "2", "stop_lat": 37.73562, "stop_lon": -122.16401, "stop_name": "Durant Avenue" }, "geometry": { "type": "Point", "coordinates": [ -122.163931572683907, 37.73553780992205 ] } },
{ "type": "Feature", "properties": { "access_id": " ", "station_id": "52428", "acces_poin": "Pedestrian Access Point", "location_t": "2", "stop_lat": 37.73571, "stop_lon": -122.16405, "stop_name": "Durant Avenue" }, "geometry": { "type": "Point", "coordinates": [ -122.164145037563401, 37.735828451022257 ] } },
{ "type": "Feature", "properties": { "access_id": " ", "station_id": "52437", "acces_poin": "Pedestrian Access Point", "location_t": "2", "stop_lat": 37.74064, "stop_lon": -122.16776, "stop_name": "103rd Avenue" }, "geometry": { "type": "Point", "coordinates": [ -122.167673711072894, 37.740553132920809 ] } },
{ "type": "Feature", "properties": { "access_id": " ", "station_id": "52435", "acces_poin": "Pedestrian Access Point", "location_t": "2", "stop_lat": 37.74073, "stop_lon": -122.16778, "stop_name": "103rd Avenue" }, "geometry": { "type": "Point", "coordinates": [ -122.167673711072894, 37.740553132920809 ] } },
{ "type": "Feature", "properties": { "access_id": " ", "station_id": "52464", "acces_poin": "Pedestrian Access Point", "location_t": "2", "stop_lat": 37.74334, "stop_lon": -122.16979, "stop_name": "98th Avenue" }, "geometry": { "type": "Point", "coordinates": [ -122.169930144260718, 37.743551888109209 ] } },
{ "type": "Feature", "properties": { "access_id": " ", "station_id": "52462", "acces_poin": "Pedestrian Access Point", "location_t": "2", "stop_lat": 37.74344, "stop_lon": -122.16982, "stop_name": "98th Avenue" }, "geometry": { "type": "Point", "coordinates": [ -122.169930144260718, 37.743551888109209 ] } },
{ "type": "Feature", "properties": { "access_id": " ", "station_id": "52472", "acces_poin": "Pedestrian Access Point", "location_t": "2", "stop_lat": 37.74598, "stop_lon": -122.17173, "stop_name": "95th Avenue" }, "geometry": { "type": "Point", "coordinates": [ -122.171636947786851, 37.745868194561581 ] } },
{ "type": "Feature", "properties": { "access_id": " ", "station_id": "52467", "acces_poin": "Pedestrian Access Point", "location_t": "2", "stop_lat": 37.74607, "stop_lon": -122.17176, "stop_name": "95th Avenue" }, "geometry": { "type": "Point", "coordinates": [ -122.171636947786851, 37.745868194561581 ] } },
{ "type": "Feature", "properties": { "access_id": " ", "station_id": "52475", "acces_poin": "Pedestrian Access Point", "location_t": "2", "stop_lat": 37.7493, "stop_lon": -122.1742, "stop_name": "90th Avenue" }, "geometry": { "type": "Point", "coordinates": [ -122.174349073750705, 37.749527723925382 ] } },
{ "type": "Feature", "properties": { "access_id": " ", "station_id": "52474", "acces_poin": "Pedestrian Access Point", "location_t": "2", "stop_lat": 37.7494, "stop_lon": -122.17423, "stop_name": "90th Avenue" }, "geometry": { "type": "Point", "coordinates": [ -122.174349073750705, 37.749527723925382 ] } },
{ "type": "Feature", "properties": { "access_id": " ", "station_id": "52476", "acces_poin": "Pedestrian Access Point", "location_t": "2", "stop_lat": 37.75235, "stop_lon": -122.17641, "stop_name": "86th Avenue" }, "geometry": { "type": "Point", "coordinates": [ -122.176519802446876, 37.752465496085847 ] } },
{ "type": "Feature", "properties": { "access_id": " ", "station_id": "52478", "acces_poin": "Pedestrian Access Point", "location_t": "2", "stop_lat": 37.75226, "stop_lon": -122.17639, "stop_name": "86th Avenue" }, "geometry": { "type": "Point", "coordinates": [ -122.176519781762465, 37.752465541951267 ] } },
{ "type": "Feature", "properties": { "access_id": " ", "station_id": "52484", "acces_poin": "Pedestrian Access Point", "location_t": "2", "stop_lat": 37.7557, "stop_lon": -122.17974, "stop_name": "82nd Avenue" }, "geometry": { "type": "Point", "coordinates": [ -122.179609819037864, 37.755646316324487 ] } },
{ "type": "Feature", "properties": { "access_id": " ", "station_id": "52482", "acces_poin": "Pedestrian Access Point", "location_t": "2", "stop_lat": 37.75576, "stop_lon": -122.17982, "stop_name": "82nd Avenue" }, "geometry": { "type": "Point", "coordinates": [ -122.179609819037864, 37.755646316324487 ] } },
{ "type": "Feature", "properties": { "access_id": " ", "station_id": "52487", "acces_poin": "Pedestrian Access Point", "location_t": "2", "stop_lat": 37.75803, "stop_lon": -122.18465, "stop_name": "77th Avenue" }, "geometry": { "type": "Point", "coordinates": [ -122.184501650730567, 37.757971443327506 ] } },
{ "type": "Feature", "properties": { "access_id": " ", "station_id": "52485", "acces_poin": "Pedestrian Access Point", "location_t": "2", "stop_lat": 37.7581, "stop_lon": -122.18474, "stop_name": "77th Avenue" }, "geometry": { "type": "Point", "coordinates": [ -122.184501650730567, 37.757971443327506 ] } },
{ "type": "Feature", "properties": { "access_id": " ", "station_id": "52492", "acces_poin": "Pedestrian Access Point", "location_t": "2", "stop_lat": 37.75981, "stop_lon": -122.18838, "stop_name": "73rd Avenue" }, "geometry": { "type": "Point", "coordinates": [ -122.188266863025262, 37.759764570078914 ] } },
{ "type": "Feature", "properties": { "access_id": " ", "station_id": "52489", "acces_poin": "Pedestrian Access Point", "location_t": "2", "stop_lat": 37.7599, "stop_lon": -122.18852, "stop_name": "73rd Avenue" }, "geometry": { "type": "Point", "coordinates": [ -122.188266863025262, 37.759764570078914 ] } },
{ "type": "Feature", "properties": { "access_id": " ", "station_id": "52494", "acces_poin": "Pedestrian Access Point", "location_t": "2", "stop_lat": 37.76137, "stop_lon": -122.19159, "stop_name": "67th Avenue" }, "geometry": { "type": "Point", "coordinates": [ -122.191739021338719, 37.761417352229103 ] } },
{ "type": "Feature", "properties": { "access_id": " ", "station_id": "52495", "acces_poin": "Pedestrian Access Point", "location_t": "2", "stop_lat": 37.7613, "stop_lon": -122.19151, "stop_name": "67th Avenue" }, "geometry": { "type": "Point", "coordinates": [ -122.191739021338719, 37.761417352229103 ] } },
{ "type": "Feature", "properties": { "access_id": " ", "station_id": "52503", "acces_poin": "Pedestrian Access Point", "location_t": "2", "stop_lat": 37.76344, "stop_lon": -122.19605, "stop_name": "63rd Avenue" }, "geometry": { "type": "Point", "coordinates": [ -122.195919688942467, 37.76338210470044 ] } },
{ "type": "Feature", "properties": { "access_id": " ", "station_id": "52498", "acces_poin": "Pedestrian Access Point", "location_t": "2", "stop_lat": 37.7635, "stop_lon": -122.19613, "stop_name": "63rd Avenue" }, "geometry": { "type": "Point", "coordinates": [ -122.195919688942467, 37.76338210470044 ] } },
{ "type": "Feature", "properties": { "access_id": " ", "station_id": "52541", "acces_poin": "Pedestrian Access Point", "location_t": "2", "stop_lat": 37.72157, "stop_lon": -122.16017, "stop_name": "San Leandro BART" }, "geometry": { "type": "Point", "coordinates": [ -122.16035781256295, 37.721825336769939 ] } },
{ "type": "Feature", "properties": { "access_id": " ", "station_id": "52541", "acces_poin": "Pedestrian Access Point", "location_t": "2", "stop_lat": 37.72157, "stop_lon": -122.16017, "stop_name": "San Leandro BART" }, "geometry": { "type": "Point", "coordinates": [ -122.160398532965871, 37.721808361167007 ] } },
{ "type": "Feature", "properties": { "access_id": " ", "station_id": "52404", "acces_poin": "Pedestrian Access Point", "location_t": "2", "stop_lat": 37.72538, "stop_lon": -122.15757, "stop_name": "Downtown San Leandro NB" }, "geometry": { "type": "Point", "coordinates": [ -122.1575418598689, 37.725388469602251 ] } },
{ "type": "Feature", "properties": { "access_id": " ", "station_id": "52404", "acces_poin": "Pedestrian Access Point", "location_t": "2", "stop_lat": 37.72538, "stop_lon": -122.15757, "stop_name": "Downtown San Leandro NB" }, "geometry": { "type": "Point", "coordinates": [ -122.157729629318908, 37.725312609989032 ] } },
{ "type": "Feature", "properties": { "access_id": " ", "station_id": "52405", "acces_poin": "Pedestrian Access Point", "location_t": "2", "stop_lat": 37.72544, "stop_lon": -122.15793, "stop_name": "Downtown San Leandro SB" }, "geometry": { "type": "Point", "coordinates": [ -122.157964076281075, 37.725436279360849 ] } },
{ "type": "Feature", "properties": { "access_id": " ", "station_id": "52405", "acces_poin": "Pedestrian Access Point", "location_t": "2", "stop_lat": 37.72544, "stop_lon": -122.15793, "stop_name": "Downtown San Leandro SB" }, "geometry": { "type": "Point", "coordinates": [ -122.157779606443626, 37.725509210781524 ] } },
{ "type": "Feature", "properties": { "access_id": " ", "station_id": "52506", "acces_poin": "Pedestrian Access Point", "location_t": "2", "stop_lat": 37.76559, "stop_lon": -122.20055, "stop_name": "Seminary" }, "geometry": { "type": "Point", "coordinates": [ -122.200423631345473, 37.765544258360876 ] } },
{ "type": "Feature", "properties": { "access_id": " ", "station_id": "52504", "acces_poin": "Pedestrian Access Point", "location_t": "2", "stop_lat": 37.76566, "stop_lon": -122.20064, "stop_name": "Seminary" }, "geometry": { "type": "Point", "coordinates": [ -122.200423631345473, 37.765544258360876 ] } },
{ "type": "Feature", "properties": { "access_id": " ", "station_id": "52615", "acces_poin": "Pedestrian Access Point", "location_t": "2", "stop_lat": 37.76801, "stop_lon": -122.20574, "stop_name": "54th Avenue" }, "geometry": { "type": "Point", "coordinates": [ -122.205582805402116, 37.767961415686841 ] } },
{ "type": "Feature", "properties": { "access_id": " ", "station_id": "52606", "acces_poin": "Pedestrian Access Point", "location_t": "2", "stop_lat": 37.76808, "stop_lon": -122.20583, "stop_name": "54th Avenue" }, "geometry": { "type": "Point", "coordinates": [ -122.205582805402116, 37.767961415686841 ] } },
{ "type": "Feature", "properties": { "access_id": " ", "station_id": "52508", "acces_poin": "Pedestrian Access Point", "location_t": "2", "stop_lat": 37.76957, "stop_lon": -122.20905, "stop_name": "48th Avenue" }, "geometry": { "type": "Point", "coordinates": [ -122.208900956613832, 37.769514007065823 ] } },
{ "type": "Feature", "properties": { "access_id": " ", "station_id": "52507", "acces_poin": "Pedestrian Access Point", "location_t": "2", "stop_lat": 37.76964, "stop_lon": -122.20913, "stop_name": "48th Avenue" }, "geometry": { "type": "Point", "coordinates": [ -122.208900956613832, 37.769514007065823 ] } },
{ "type": "Feature", "properties": { "access_id": " ", "station_id": "52513", "acces_poin": "Pedestrian Access Point", "location_t": "2", "stop_lat": 37.77154, "stop_lon": -122.21318, "stop_name": "High Street" }, "geometry": { "type": "Point", "coordinates": [ -122.213071987981834, 37.77150376878393 ] } },
{ "type": "Feature", "properties": { "access_id": " ", "station_id": "52509", "acces_poin": "Pedestrian Access Point", "location_t": "2", "stop_lat": 37.77164, "stop_lon": -122.21333, "stop_name": "High Street" }, "geometry": { "type": "Point", "coordinates": [ -122.213071987981834, 37.77150376878393 ] } },
{ "type": "Feature", "properties": { "access_id": " ", "station_id": "52605", "acces_poin": "Pedestrian Access Point", "location_t": "2", "stop_lat": 37.77445, "stop_lon": -122.21928, "stop_name": "39th Avenue" }, "geometry": { "type": "Point", "coordinates": [ -122.219144636715555, 37.774394590038355 ] } },
{ "type": "Feature", "properties": { "access_id": " ", "station_id": "52602", "acces_poin": "Pedestrian Access Point", "location_t": "2", "stop_lat": 37.7745, "stop_lon": -122.21935, "stop_name": "39th Avenue" }, "geometry": { "type": "Point", "coordinates": [ -122.219144636715555, 37.774394590038355 ] } },
{ "type": "Feature", "properties": { "access_id": " ", "station_id": "52601", "acces_poin": "Pedestrian Access Point", "location_t": "2", "stop_lat": 37.77644, "stop_lon": -122.22344, "stop_name": "Fruitvale" }, "geometry": { "type": "Point", "coordinates": [ -122.223686573676389, 37.776575070982801 ] } },
{ "type": "Feature", "properties": { "access_id": " ", "station_id": "52594", "acces_poin": "Pedestrian Access Point", "location_t": "2", "stop_lat": 37.77813, "stop_lon": -122.22693, "stop_name": "31st  Avenue" }, "geometry": { "type": "Point", "coordinates": [ -122.227124073017535, 37.778219311372197 ] } },
{ "type": "Feature", "properties": { "access_id": " ", "station_id": "52596", "acces_poin": "Pedestrian Access Point", "location_t": "2", "stop_lat": 37.77807, "stop_lon": -122.22684, "stop_name": "31st  Avenue" }, "geometry": { "type": "Point", "coordinates": [ -122.227124073017535, 37.778219311372197 ] } },
{ "type": "Feature", "properties": { "access_id": " ", "station_id": "52516", "acces_poin": "Pedestrian Access Point", "location_t": "2", "stop_lat": 37.77996, "stop_lon": -122.2302, "stop_name": "28th Avenue" }, "geometry": { "type": "Point", "coordinates": [ -122.230116698426855, 37.779916139618194 ] } },
{ "type": "Feature", "properties": { "access_id": " ", "station_id": "52514", "acces_poin": "Pedestrian Access Point", "location_t": "2", "stop_lat": 37.78007, "stop_lon": -122.23033, "stop_name": "28th Avenue" }, "geometry": { "type": "Point", "coordinates": [ -122.230116698426855, 37.779916139618194 ] } },
{ "type": "Feature", "properties": { "access_id": " ", "station_id": "52517", "acces_poin": "Pedestrian Access Point", "location_t": "2", "stop_lat": 37.78262, "stop_lon": -122.2346, "stop_name": "24th Avenue" }, "geometry": { "type": "Point", "coordinates": [ -122.234774281907562, 37.78270443366273 ] } },
{ "type": "Feature", "properties": { "access_id": " ", "station_id": "52518", "acces_poin": "Pedestrian Access Point", "location_t": "2", "stop_lat": 37.78255, "stop_lon": -122.23453, "stop_name": "24th Avenue" }, "geometry": { "type": "Point", "coordinates": [ -122.234774281907562, 37.78270443366273 ] } },
{ "type": "Feature", "properties": { "access_id": " ", "station_id": "52531", "acces_poin": "Pedestrian Access Point", "location_t": "2", "stop_lat": 37.78562, "stop_lon": -122.23967, "stop_name": "20th Avenue" }, "geometry": { "type": "Point", "coordinates": [ -122.239879373434292, 37.785762234739366 ] } },
{ "type": "Feature", "properties": { "access_id": " ", "station_id": "52519", "acces_poin": "Pedestrian Access Point", "location_t": "2", "stop_lat": 37.7857, "stop_lon": -122.23974, "stop_name": "20th Avenue" }, "geometry": { "type": "Point", "coordinates": [ -122.239879373434292, 37.785762234739366 ] } },
{ "type": "Feature", "properties": { "access_id": " ", "station_id": "52536", "acces_poin": "Pedestrian Access Point", "location_t": "2", "stop_lat": 37.78931, "stop_lon": -122.24578, "stop_name": "14th Avenue NB" }, "geometry": { "type": "Point", "coordinates": [ -122.245796225415461, 37.789318330376716 ] } },
{ "type": "Feature", "properties": { "access_id": " ", "station_id": "52536", "acces_poin": "Pedestrian Access Point", "location_t": "2", "stop_lat": 37.78931, "stop_lon": -122.24578, "stop_name": "14th Avenue NB" }, "geometry": { "type": "Point", "coordinates": [ -122.245613597389593, 37.789239631603778 ] } },
{ "type": "Feature", "properties": { "access_id": " ", "station_id": "52538", "acces_poin": "Pedestrian Access Point", "location_t": "2", "stop_lat": 37.79196, "stop_lon": -122.24948, "stop_name": "10th Avenue NB" }, "geometry": { "type": "Point", "coordinates": [ -122.249501534768001, 37.791989553375231 ] } },
{ "type": "Feature", "properties": { "access_id": " ", "station_id": "52538", "acces_poin": "Pedestrian Access Point", "location_t": "2", "stop_lat": 37.79196, "stop_lon": -122.24948, "stop_name": "10th Avenue NB" }, "geometry": { "type": "Point", "coordinates": [ -122.249364287431888, 37.791864570093878 ] } },
{ "type": "Feature", "properties": { "access_id": " ", "station_id": "52547", "acces_poin": "Pedestrian Access Point", "location_t": "2", "stop_lat": 37.796, "stop_lon": -122.25403, "stop_name": "5th Avenue NB" }, "geometry": { "type": "Point", "coordinates": [ -122.254058536272396, 37.7960241027302 ] } },
{ "type": "Feature", "properties": { "access_id": " ", "station_id": "52547", "acces_poin": "Pedestrian Access Point", "location_t": "2", "stop_lat": 37.796, "stop_lon": -122.25403, "stop_name": "5th Avenue NB" }, "geometry": { "type": "Point", "coordinates": [ -122.253917839136932, 37.795903294101777 ] } },
{ "type": "Feature", "properties": { "access_id": " ", "station_id": "52549", "acces_poin": "Pedestrian Access Point", "location_t": "2", "stop_lat": 37.79783, "stop_lon": -122.25611, "stop_name": "2nd Avenue NB" }, "geometry": { "type": "Point", "coordinates": [ -122.256132130093704, 37.797853989270266 ] } },
{ "type": "Feature", "properties": { "access_id": " ", "station_id": "52549", "acces_poin": "Pedestrian Access Point", "location_t": "2", "stop_lat": 37.79783, "stop_lon": -122.25611, "stop_name": "2nd Avenue NB" }, "geometry": { "type": "Point", "coordinates": [ -122.25599447716337, 37.797730541131614 ] } },
{ "type": "Feature", "properties": { "access_id": " ", "station_id": "52548", "acces_poin": "Pedestrian Access Point", "location_t": "2", "stop_lat": 37.79697, "stop_lon": -122.2571, "stop_name": "2nd Avenue SB" }, "geometry": { "type": "Point", "coordinates": [ -122.257236053301199, 37.797072562948472 ] } },
{ "type": "Feature", "properties": { "access_id": " ", "station_id": "52548", "acces_poin": "Pedestrian Access Point", "location_t": "2", "stop_lat": 37.79697, "stop_lon": -122.2571, "stop_name": "2nd Avenue SB" }, "geometry": { "type": "Point", "coordinates": [ -122.257094104309431, 37.796950836112273 ] } },
{ "type": "Feature", "properties": { "access_id": " ", "station_id": "52546", "acces_poin": "Pedestrian Access Point", "location_t": "2", "stop_lat": 37.79369, "stop_lon": -122.25336, "stop_name": "5th Avenue SB" }, "geometry": { "type": "Point", "coordinates": [ -122.253341209129474, 37.793680767153717 ] } },
{ "type": "Feature", "properties": { "access_id": " ", "station_id": "52546", "acces_poin": "Pedestrian Access Point", "location_t": "2", "stop_lat": 37.79369, "stop_lon": -122.25336, "stop_name": "5th Avenue SB" }, "geometry": { "type": "Point", "coordinates": [ -122.253482635615114, 37.793795327292571 ] } },
{ "type": "Feature", "properties": { "access_id": " ", "station_id": "52539", "acces_poin": "Pedestrian Access Point", "location_t": "2", "stop_lat": 37.79042, "stop_lon": -122.24967, "stop_name": "10th Avenue SB" }, "geometry": { "type": "Point", "coordinates": [ -122.249643854280407, 37.790383751808747 ] } },
{ "type": "Feature", "properties": { "access_id": " ", "station_id": "52539", "acces_poin": "Pedestrian Access Point", "location_t": "2", "stop_lat": 37.79042, "stop_lon": -122.24967, "stop_name": "10th Avenue SB" }, "geometry": { "type": "Point", "coordinates": [ -122.249784224062637, 37.790509156872133 ] } },
{ "type": "Feature", "properties": { "access_id": " ", "station_id": "52537", "acces_poin": "Pedestrian Access Point", "location_t": "2", "stop_lat": 37.78878, "stop_lon": -122.24642, "stop_name": "14th Avenue SB" }, "geometry": { "type": "Point", "coordinates": [ -122.246406783246414, 37.788806378711456 ] } },
{ "type": "Feature", "properties": { "access_id": " ", "station_id": "52537", "acces_poin": "Pedestrian Access Point", "location_t": "2", "stop_lat": 37.78878, "stop_lon": -122.24642, "stop_name": "14th Avenue SB" }, "geometry": { "type": "Point", "coordinates": [ -122.246492104626896, 37.78865935034878 ] } },
{ "type": "Feature", "properties": { "access_id": " ", "station_id": "52571", "acces_poin": "Pedestrian Access Point", "location_t": "2", "stop_lat": 37.8001, "stop_lon": -122.26464, "stop_name": "Madison NB" }, "geometry": { "type": "Point", "coordinates": [ -122.264683453378609, 37.800117025280542 ] } },
{ "type": "Feature", "properties": { "access_id": " ", "station_id": "52571", "acces_poin": "Pedestrian Access Point", "location_t": "2", "stop_lat": 37.8001, "stop_lon": -122.26464, "stop_name": "Madison NB" }, "geometry": { "type": "Point", "coordinates": [ -122.264500587032444, 37.800044904149047 ] } },
{ "type": "Feature", "properties": { "access_id": " ", "station_id": "52573", "acces_poin": "Pedestrian Access Point", "location_t": "2", "stop_lat": 37.79951, "stop_lon": -122.26564, "stop_name": "Madison SB" }, "geometry": { "type": "Point", "coordinates": [ -122.26561840116824, 37.799471707753185 ] } },
{ "type": "Feature", "properties": { "access_id": " ", "station_id": "52573", "acces_poin": "Pedestrian Access Point", "location_t": "2", "stop_lat": 37.79951, "stop_lon": -122.26564, "stop_name": "Madison SB" }, "geometry": { "type": "Point", "coordinates": [ -122.26561840116824, 37.799471707753185 ] } },
{ "type": "Feature", "properties": { "access_id": " ", "station_id": "52591", "acces_poin": "Pedestrian Access Point", "location_t": "2", "stop_lat": 37.80043, "stop_lon": -122.26799, "stop_name": "Harrison SB" }, "geometry": { "type": "Point", "coordinates": [ -122.267977000937833, 37.800426535056602 ] } },
{ "type": "Feature", "properties": { "access_id": " ", "station_id": "52591", "acces_poin": "Pedestrian Access Point", "location_t": "2", "stop_lat": 37.80043, "stop_lon": -122.26799, "stop_name": "Harrison SB" }, "geometry": { "type": "Point", "coordinates": [ -122.268161727981351, 37.800499200277898 ] } },
{ "type": "Feature", "properties": { "access_id": " ", "station_id": "52593", "acces_poin": "Pedestrian Access Point", "location_t": "2", "stop_lat": 37.80193, "stop_lon": -122.26941, "stop_name": "Harrison NB" }, "geometry": { "type": "Point", "coordinates": [ -122.269380946073795, 37.801964652746562 ] } },
{ "type": "Feature", "properties": { "access_id": " ", "station_id": "52593", "acces_poin": "Pedestrian Access Point", "location_t": "2", "stop_lat": 37.80193, "stop_lon": -122.26941, "stop_name": "Harrison NB" }, "geometry": { "type": "Point", "coordinates": [ -122.269194168576007, 37.801889655583182 ] } },
{ "type": "Feature", "properties": { "access_id": " ", "station_id": "52586", "acces_poin": "Pedestrian Access Point", "location_t": "2", "stop_lat": 37.80189, "stop_lon": -122.2718, "stop_name": "City Center SB" }, "geometry": { "type": "Point", "coordinates": [ -122.271806610986289, 37.801933614444806 ] } },
{ "type": "Feature", "properties": { "access_id": " ", "station_id": "52586", "acces_poin": "Pedestrian Access Point", "location_t": "2", "stop_lat": 37.80189, "stop_lon": -122.2718, "stop_name": "City Center SB" }, "geometry": { "type": "Point", "coordinates": [ -122.271998080247158, 37.802005615966436 ] } },
{ "type": "Feature", "properties": { "access_id": " ", "station_id": "52584", "acces_poin": "Pedestrian Access Point", "location_t": "2", "stop_lat": 37.80282, "stop_lon": -122.27151, "stop_name": "City Center NB" }, "geometry": { "type": "Point", "coordinates": [ -122.271297975121399, 37.802720085063925 ] } },
{ "type": "Feature", "properties": { "access_id": " ", "station_id": "52583", "acces_poin": "Pedestrian Access Point", "location_t": "2", "stop_lat": 37.80409, "stop_lon": -122.27149, "stop_name": "14th Street SB" }, "geometry": { "type": "Point", "coordinates": [ -122.271446490962774, 37.804199426662251 ] } },
{ "type": "Feature", "properties": { "access_id": " ", "station_id": "52583", "acces_poin": "Pedestrian Access Point", "location_t": "2", "stop_lat": 37.80409, "stop_lon": -122.27149, "stop_name": "14th Street SB" }, "geometry": { "type": "Point", "coordinates": [ -122.271543930707821, 37.804054230218583 ] } },
{ "type": "Feature", "properties": { "access_id": " ", "station_id": "52581", "acces_poin": "Pedestrian Access Point", "location_t": "2", "stop_lat": 37.80458, "stop_lon": -122.27089, "stop_name": "14th Street NB" }, "geometry": { "type": "Point", "coordinates": [ -122.270909031826307, 37.804616664427556 ] } },
{ "type": "Feature", "properties": { "access_id": " ", "station_id": "52581", "acces_poin": "Pedestrian Access Point", "location_t": "2", "stop_lat": 37.80458, "stop_lon": -122.27089, "stop_name": "14th Street NB" }, "geometry": { "type": "Point", "coordinates": [ -122.270999446966869, 37.804466180869611 ] } },
{ "type": "Feature", "properties": { "access_id": " ", "station_id": "52574", "acces_poin": "Pedestrian Access Point", "location_t": "2", "stop_lat": 37.80737, "stop_lon": -122.26919, "stop_name": "Uptown Oakland NB" }, "geometry": { "type": "Point", "coordinates": [ -122.269286937242327, 37.807206714618246 ] } },
{ "type": "Feature", "properties": { "access_id": " ", "station_id": "52574", "acces_poin": "Pedestrian Access Point", "location_t": "2", "stop_lat": 37.80737, "stop_lon": -122.26919, "stop_name": "Uptown Oakland NB" }, "geometry": { "type": "Point", "coordinates": [ -122.269369345718701, 37.807075626738822 ] } },
{ "type": "Feature", "properties": { "access_id": " ", "station_id": "52579", "acces_poin": "Pedestrian Access Point", "location_t": "2", "stop_lat": 37.80854, "stop_lon": -122.26868, "stop_name": "Uptown Oakland SB" }, "geometry": { "type": "Point", "coordinates": [ -122.268601010827979, 37.808679707002909 ] } },
{ "type": "Feature", "properties": { "access_id": " ", "station_id": "52579", "acces_poin": "Pedestrian Access Point", "location_t": "2", "stop_lat": 37.80854, "stop_lon": -122.26868, "stop_name": "Uptown Oakland SB" }, "geometry": { "type": "Point", "coordinates": [ -122.26870025101573, 37.808534122052151 ] } },
{ "type": "Feature", "properties": { "access_id": " ", "station_id": "52597", "acces_poin": "Pedestrian Access Point", "location_t": "2", "stop_lat": 37.77654, "stop_lon": -122.22358, "stop_name": "Fruitvale" }, "geometry": { "type": "Point", "coordinates": [ -122.223686573676389, 37.776575070982801 ] } }
]
}
