{
"type": "FeatureCollection",
"name": "Caltrain_PedAccessPoints_GTFS_v3",
"crs": { "type": "name", "properties": { "name": "urn:ogc:def:crs:OGC:1.3:CRS84" } },
"features": [
{ "type": "Feature", "properties": { "parent_sta": "mtc:palo-alto-station", "stop_id": 0, "stop_name": "Palo Alto Station", "location_t": 2 }, "geometry": { "type": "Point", "coordinates": [ -122.164006393580166, 37.442764632981493 ] } },
{ "type": "Feature", "properties": { "parent_sta": "mtc:millbrae-bart", "stop_id": 0, "stop_name": "Millbrae BART", "location_t": 2 }, "geometry": { "type": "Point", "coordinates": [ -122.386832032971938, 37.599779323956682 ] } },
{ "type": "Feature", "properties": { "parent_sta": "bayshore", "stop_id": 0, "stop_name": "Bayshore", "location_t": 2 }, "geometry": { "type": "Point", "coordinates": [ -122.401659334510668, 37.708796896959257 ] } },
{ "type": "Feature", "properties": { "parent_sta": "bayshore", "stop_id": 0, "stop_name": "Bayshore", "location_t": 2 }, "geometry": { "type": "Point", "coordinates": [ -122.40167836326583, 37.708796896959257 ] } },
{ "type": "Feature", "properties": { "parent_sta": "burlingame", "stop_id": 0, "stop_name": "Burlingame", "location_t": 2 }, "geometry": { "type": "Point", "coordinates": [ -122.345402043369575, 37.580244771179309 ] } },
{ "type": "Feature", "properties": { "parent_sta": "hayward_park", "stop_id": 0, "stop_name": "Hayward Park", "location_t": 2 }, "geometry": { "type": "Point", "coordinates": [ -122.309238936927386, 37.552714429727189 ] } },
{ "type": "Feature", "properties": { "parent_sta": "hillsdale", "stop_id": 0, "stop_name": "Hillsdale", "location_t": 2 }, "geometry": { "type": "Point", "coordinates": [ -122.301684804410172, 37.542475814607201 ] } },
{ "type": "Feature", "properties": { "parent_sta": "hillsdale", "stop_id": 0, "stop_name": "Hillsdale", "location_t": 2 }, "geometry": { "type": "Point", "coordinates": [ -122.301537526935306, 37.542317420612505 ] } },
{ "type": "Feature", "properties": { "parent_sta": "menlo_park", "stop_id": 0, "stop_name": "Menlo Park", "location_t": 2 }, "geometry": { "type": "Point", "coordinates": [ -122.18141420709992, 37.454299359128186 ] } },
{ "type": "Feature", "properties": { "parent_sta": "mtc:caltrain-4th-&-king", "stop_id": 0, "stop_name": "Caltrain 4th & King", "location_t": 2 }, "geometry": { "type": "Point", "coordinates": [ -122.394752438674061, 37.776738316819944 ] } },
{ "type": "Feature", "properties": { "parent_sta": "mtc:caltrain-4th-&-king", "stop_id": 0, "stop_name": "Caltrain 4th & King", "location_t": 2 }, "geometry": { "type": "Point", "coordinates": [ -122.39511457587696, 37.776729305613003 ] } },
{ "type": "Feature", "properties": { "parent_sta": "mtc:caltrain-4th-&-king", "stop_id": 0, "stop_name": "Caltrain 4th & King", "location_t": 2 }, "geometry": { "type": "Point", "coordinates": [ -122.394592423201743, 37.776597113366165 ] } },
{ "type": "Feature", "properties": { "parent_sta": "mtc:caltrain-4th-&-king", "stop_id": 0, "stop_name": "Caltrain 4th & King", "location_t": 2 }, "geometry": { "type": "Point", "coordinates": [ -122.394731308203291, 37.776487893401622 ] } },
{ "type": "Feature", "properties": { "parent_sta": "mtc:caltrain-4th-&-king", "stop_id": 0, "stop_name": "Caltrain 4th & King", "location_t": 2 }, "geometry": { "type": "Point", "coordinates": [ -122.394590067877289, 37.776314594043356 ] } },
{ "type": "Feature", "properties": { "parent_sta": "mtc:caltrain-4th-&-king", "stop_id": 0, "stop_name": "Caltrain 4th & King", "location_t": 2 }, "geometry": { "type": "Point", "coordinates": [ -122.394936607238606, 37.776868508075268 ] } },
{ "type": "Feature", "properties": { "parent_sta": "22nd_street", "stop_id": 0, "stop_name": "22nd Street", "location_t": 2 }, "geometry": { "type": "Point", "coordinates": [ -122.392783774151837, 37.75761236381959 ] } },
{ "type": "Feature", "properties": { "parent_sta": "22nd_street", "stop_id": 0, "stop_name": "22nd Street", "location_t": 2 }, "geometry": { "type": "Point", "coordinates": [ -122.392174962804233, 37.757592398870145 ] } },
{ "type": "Feature", "properties": { "parent_sta": "south_sf", "stop_id": 0, "stop_name": "South San Francisco Caltrain Station", "location_t": 2 }, "geometry": { "type": "Point", "coordinates": [ -122.405516010555402, 37.655645855172111 ] } },
{ "type": "Feature", "properties": { "parent_sta": "south_sf", "stop_id": 0, "stop_name": "South San Francisco Caltrain Station", "location_t": 2 }, "geometry": { "type": "Point", "coordinates": [ -122.40579197112254, 37.654735495746593 ] } },
{ "type": "Feature", "properties": { "parent_sta": "south_sf", "stop_id": 0, "stop_name": "South San Francisco Caltrain Station", "location_t": 2 }, "geometry": { "type": "Point", "coordinates": [ -122.407665518848603, 37.654412928713725 ] } },
{ "type": "Feature", "properties": { "parent_sta": "san_bruno", "stop_id": 0, "stop_name": "San Bruno Caltrain Station", "location_t": 2 }, "geometry": { "type": "Point", "coordinates": [ -122.412047395370962, 37.631022421147861 ] } },
{ "type": "Feature", "properties": { "parent_sta": "san_bruno", "stop_id": 0, "stop_name": "San Bruno Caltrain Station", "location_t": 2 }, "geometry": { "type": "Point", "coordinates": [ -122.411545811989583, 37.631083264780898 ] } },
{ "type": "Feature", "properties": { "parent_sta": "san_bruno", "stop_id": 0, "stop_name": "San Bruno Caltrain Station", "location_t": 2 }, "geometry": { "type": "Point", "coordinates": [ -122.411929755054132, 37.631170914506129 ] } },
{ "type": "Feature", "properties": { "parent_sta": "san_bruno", "stop_id": 0, "stop_name": "San Bruno Caltrain Station", "location_t": 2 }, "geometry": { "type": "Point", "coordinates": [ -122.411990661639663, 37.630833789248015 ] } },
{ "type": "Feature", "properties": { "parent_sta": "PS_TAMN", "stop_id": 0, "stop_name": "Tamien Station", "location_t": 2 }, "geometry": { "type": "Point", "coordinates": [ -121.884786579037382, 37.312638361771008 ] } },
{ "type": "Feature", "properties": { "parent_sta": "PS_TAMN", "stop_id": 0, "stop_name": "Tamien Station", "location_t": 2 }, "geometry": { "type": "Point", "coordinates": [ -121.884700443770441, 37.312683996069609 ] } },
{ "type": "Feature", "properties": { "parent_sta": "mtc:san-jose-diridon-station", "stop_id": 0, "stop_name": "San Jose Diridon Station", "location_t": 2 }, "geometry": { "type": "Point", "coordinates": [ -121.902440027085561, 37.329919164038245 ] } },
{ "type": "Feature", "properties": { "parent_sta": "mtc:san-jose-diridon-station", "stop_id": 0, "stop_name": "San Jose Diridon Station", "location_t": 2 }, "geometry": { "type": "Point", "coordinates": [ -121.902654489313193, 37.33009408667283 ] } },
{ "type": "Feature", "properties": { "parent_sta": "mtc:san-jose-diridon-station", "stop_id": 0, "stop_name": "San Jose Diridon Station", "location_t": 2 }, "geometry": { "type": "Point", "coordinates": [ -121.903674512968394, 37.329045568897925 ] } },
{ "type": "Feature", "properties": { "parent_sta": "mtc:san-jose-diridon-station", "stop_id": 0, "stop_name": "San Jose Diridon Station", "location_t": 2 }, "geometry": { "type": "Point", "coordinates": [ -121.902540111736755, 37.329668873719584 ] } },
{ "type": "Feature", "properties": { "parent_sta": "mtc:santa-clara-caltrain", "stop_id": 0, "stop_name": "Santa Clara Caltrain", "location_t": 2 }, "geometry": { "type": "Point", "coordinates": [ -121.936516521120495, 37.353570603600531 ] } },
{ "type": "Feature", "properties": { "parent_sta": "mtc:santa-clara-caltrain", "stop_id": 0, "stop_name": "Santa Clara Caltrain", "location_t": 2 }, "geometry": { "type": "Point", "coordinates": [ -121.936625123250792, 37.353340001240099 ] } },
{ "type": "Feature", "properties": { "parent_sta": "mtc:santa-clara-caltrain", "stop_id": 0, "stop_name": "Santa Clara Caltrain", "location_t": 2 }, "geometry": { "type": "Point", "coordinates": [ -121.936516521120495, 37.353570603600531 ] } },
{ "type": "Feature", "properties": { "parent_sta": "mtc:santa-clara-caltrain", "stop_id": 0, "stop_name": "Santa Clara Caltrain", "location_t": 2 }, "geometry": { "type": "Point", "coordinates": [ -121.936625123250792, 37.353340001240099 ] } },
{ "type": "Feature", "properties": { "parent_sta": "lawrence", "stop_id": 0, "stop_name": "Lawrence", "location_t": 2 }, "geometry": { "type": "Point", "coordinates": [ -121.996744061888933, 37.370437459621144 ] } },
{ "type": "Feature", "properties": { "parent_sta": "lawrence", "stop_id": 0, "stop_name": "Lawrence", "location_t": 2 }, "geometry": { "type": "Point", "coordinates": [ -121.996193735252632, 37.370396607017824 ] } },
{ "type": "Feature", "properties": { "parent_sta": "lawrence", "stop_id": 0, "stop_name": "Lawrence", "location_t": 2 }, "geometry": { "type": "Point", "coordinates": [ -121.995698611701528, 37.37061592198728 ] } },
{ "type": "Feature", "properties": { "parent_sta": "lawrence", "stop_id": 0, "stop_name": "Lawrence", "location_t": 2 }, "geometry": { "type": "Point", "coordinates": [ -121.995919406955011, 37.370687872247572 ] } },
{ "type": "Feature", "properties": { "parent_sta": "lawrence", "stop_id": 0, "stop_name": "Lawrence", "location_t": 2 }, "geometry": { "type": "Point", "coordinates": [ -121.996069478623497, 37.370694368950012 ] } },
{ "type": "Feature", "properties": { "parent_sta": "lawrence", "stop_id": 0, "stop_name": "Lawrence", "location_t": 2 }, "geometry": { "type": "Point", "coordinates": [ -121.996737713574589, 37.370691260893011 ] } },
{ "type": "Feature", "properties": { "parent_sta": "lawrence", "stop_id": 0, "stop_name": "Lawrence", "location_t": 2 }, "geometry": { "type": "Point", "coordinates": [ -121.996658491396204, 37.370680388988831 ] } },
{ "type": "Feature", "properties": { "parent_sta": "lawrence", "stop_id": 0, "stop_name": "Lawrence", "location_t": 2 }, "geometry": { "type": "Point", "coordinates": [ -121.996737713574589, 37.370691260893011 ] } },
{ "type": "Feature", "properties": { "parent_sta": "lawrence", "stop_id": 0, "stop_name": "Lawrence", "location_t": 2 }, "geometry": { "type": "Point", "coordinates": [ -121.99704126714073, 37.370701353984373 ] } },
{ "type": "Feature", "properties": { "parent_sta": "lawrence", "stop_id": 0, "stop_name": "Lawrence", "location_t": 2 }, "geometry": { "type": "Point", "coordinates": [ -121.997825534420826, 37.370727108769131 ] } },
{ "type": "Feature", "properties": { "parent_sta": "lawrence", "stop_id": 0, "stop_name": "Lawrence", "location_t": 2 }, "geometry": { "type": "Point", "coordinates": [ -121.998093401089534, 37.370713346443836 ] } },
{ "type": "Feature", "properties": { "parent_sta": "lawrence", "stop_id": 0, "stop_name": "Lawrence", "location_t": 2 }, "geometry": { "type": "Point", "coordinates": [ -121.99700697059518, 37.370462771040081 ] } },
{ "type": "Feature", "properties": { "parent_sta": "lawrence", "stop_id": 0, "stop_name": "Lawrence", "location_t": 2 }, "geometry": { "type": "Point", "coordinates": [ -121.995654374949424, 37.370381787089855 ] } },
{ "type": "Feature", "properties": { "parent_sta": "lawrence", "stop_id": 0, "stop_name": "Lawrence", "location_t": 2 }, "geometry": { "type": "Point", "coordinates": [ -121.995698611701528, 37.37061592198728 ] } },
{ "type": "Feature", "properties": { "parent_sta": "sunnyvale", "stop_id": 0, "stop_name": "Sunnyvale", "location_t": 2 }, "geometry": { "type": "Point", "coordinates": [ -122.030857846312529, 37.378765767226412 ] } },
{ "type": "Feature", "properties": { "parent_sta": "sunnyvale", "stop_id": 0, "stop_name": "Sunnyvale", "location_t": 2 }, "geometry": { "type": "Point", "coordinates": [ -122.030627036208728, 37.378689393201 ] } },
{ "type": "Feature", "properties": { "parent_sta": "sunnyvale", "stop_id": 0, "stop_name": "Sunnyvale", "location_t": 2 }, "geometry": { "type": "Point", "coordinates": [ -122.032401111721867, 37.379261163272133 ] } },
{ "type": "Feature", "properties": { "parent_sta": "sunnyvale", "stop_id": 0, "stop_name": "Sunnyvale", "location_t": 2 }, "geometry": { "type": "Point", "coordinates": [ -122.032637767418976, 37.379170375812237 ] } },
{ "type": "Feature", "properties": { "parent_sta": "sunnyvale", "stop_id": 0, "stop_name": "Sunnyvale", "location_t": 2 }, "geometry": { "type": "Point", "coordinates": [ -122.031276548174105, 37.378723547653635 ] } },
{ "type": "Feature", "properties": { "parent_sta": "sunnyvale", "stop_id": 0, "stop_name": "Sunnyvale", "location_t": 2 }, "geometry": { "type": "Point", "coordinates": [ -122.031088111427152, 37.378592754751878 ] } },
{ "type": "Feature", "properties": { "parent_sta": "sunnyvale", "stop_id": 0, "stop_name": "Sunnyvale", "location_t": 2 }, "geometry": { "type": "Point", "coordinates": [ -122.030474282761929, 37.378472192537686 ] } },
{ "type": "Feature", "properties": { "parent_sta": "sunnyvale", "stop_id": 0, "stop_name": "Sunnyvale", "location_t": 2 }, "geometry": { "type": "Point", "coordinates": [ -122.031276548174105, 37.378723547653635 ] } },
{ "type": "Feature", "properties": { "parent_sta": "sunnyvale", "stop_id": 0, "stop_name": "Sunnyvale", "location_t": 2 }, "geometry": { "type": "Point", "coordinates": [ -122.030728994147751, 37.378542878351197 ] } },
{ "type": "Feature", "properties": { "parent_sta": "sunnyvale", "stop_id": 0, "stop_name": "Sunnyvale", "location_t": 2 }, "geometry": { "type": "Point", "coordinates": [ -122.030739712267859, 37.378470576455982 ] } },
{ "type": "Feature", "properties": { "parent_sta": "sunnyvale", "stop_id": 0, "stop_name": "Sunnyvale", "location_t": 2 }, "geometry": { "type": "Point", "coordinates": [ -122.032505135403653, 37.379118522701731 ] } },
{ "type": "Feature", "properties": { "parent_sta": "sunnyvale", "stop_id": 0, "stop_name": "Sunnyvale", "location_t": 2 }, "geometry": { "type": "Point", "coordinates": [ -122.030857846312529, 37.378765767226412 ] } },
{ "type": "Feature", "properties": { "parent_sta": "sunnyvale", "stop_id": 0, "stop_name": "Sunnyvale", "location_t": 2 }, "geometry": { "type": "Point", "coordinates": [ -122.030627036208728, 37.378689393201 ] } },
{ "type": "Feature", "properties": { "parent_sta": "sunnyvale", "stop_id": 0, "stop_name": "Sunnyvale", "location_t": 2 }, "geometry": { "type": "Point", "coordinates": [ -122.030414681092623, 37.378591081113541 ] } },
{ "type": "Feature", "properties": { "parent_sta": "mtc:mountain-view-station", "stop_id": 0, "stop_name": "Mountain View Station", "location_t": 2 }, "geometry": { "type": "Point", "coordinates": [ -122.07597446095258, 37.394347929113678 ] } },
{ "type": "Feature", "properties": { "parent_sta": "mtc:mountain-view-station", "stop_id": 0, "stop_name": "Mountain View Station", "location_t": 2 }, "geometry": { "type": "Point", "coordinates": [ -122.076698374730199, 37.394648734351676 ] } },
{ "type": "Feature", "properties": { "parent_sta": "mtc:mountain-view-station", "stop_id": 0, "stop_name": "Mountain View Station", "location_t": 2 }, "geometry": { "type": "Point", "coordinates": [ -122.075836087665266, 37.394301143682867 ] } },
{ "type": "Feature", "properties": { "parent_sta": "mtc:mountain-view-station", "stop_id": 0, "stop_name": "Mountain View Station", "location_t": 2 }, "geometry": { "type": "Point", "coordinates": [ -122.076767418381621, 37.394942788379012 ] } },
{ "type": "Feature", "properties": { "parent_sta": "mtc:mountain-view-station", "stop_id": 0, "stop_name": "Mountain View Station", "location_t": 2 }, "geometry": { "type": "Point", "coordinates": [ -122.074917813306399, 37.393937119702343 ] } },
{ "type": "Feature", "properties": { "parent_sta": "mtc:mountain-view-station", "stop_id": 0, "stop_name": "Mountain View Station", "location_t": 2 }, "geometry": { "type": "Point", "coordinates": [ -122.074582516370015, 37.393960795254543 ] } },
{ "type": "Feature", "properties": { "parent_sta": "mtc:mountain-view-station", "stop_id": 0, "stop_name": "Mountain View Station", "location_t": 2 }, "geometry": { "type": "Point", "coordinates": [ -122.076614982395483, 37.394776258217803 ] } },
{ "type": "Feature", "properties": { "parent_sta": "mtc:mountain-view-station", "stop_id": 0, "stop_name": "Mountain View Station", "location_t": 2 }, "geometry": { "type": "Point", "coordinates": [ -122.0746589902202, 37.393837815662721 ] } },
{ "type": "Feature", "properties": { "parent_sta": "san_antonio", "stop_id": 0, "stop_name": "San Antonio", "location_t": 2 }, "geometry": { "type": "Point", "coordinates": [ -122.106678519797811, 37.406974680437202 ] } },
{ "type": "Feature", "properties": { "parent_sta": "san_antonio", "stop_id": 0, "stop_name": "San Antonio", "location_t": 2 }, "geometry": { "type": "Point", "coordinates": [ -122.107142435075275, 37.40723738050076 ] } },
{ "type": "Feature", "properties": { "parent_sta": "san_antonio", "stop_id": 0, "stop_name": "San Antonio", "location_t": 2 }, "geometry": { "type": "Point", "coordinates": [ -122.107310814242624, 37.407341363713044 ] } },
{ "type": "Feature", "properties": { "parent_sta": "san_antonio", "stop_id": 0, "stop_name": "San Antonio", "location_t": 2 }, "geometry": { "type": "Point", "coordinates": [ -122.107740009393865, 37.407624224778203 ] } },
{ "type": "Feature", "properties": { "parent_sta": "san_antonio", "stop_id": 0, "stop_name": "San Antonio", "location_t": 2 }, "geometry": { "type": "Point", "coordinates": [ -122.108086382380634, 37.407840804009936 ] } },
{ "type": "Feature", "properties": { "parent_sta": "san_antonio", "stop_id": 0, "stop_name": "San Antonio", "location_t": 2 }, "geometry": { "type": "Point", "coordinates": [ -122.106418952972263, 37.407001025177237 ] } },
{ "type": "Feature", "properties": { "parent_sta": "san_antonio", "stop_id": 0, "stop_name": "San Antonio", "location_t": 2 }, "geometry": { "type": "Point", "coordinates": [ -122.108261624274519, 37.408117751133375 ] } },
{ "type": "Feature", "properties": { "parent_sta": "san_antonio", "stop_id": 0, "stop_name": "San Antonio", "location_t": 2 }, "geometry": { "type": "Point", "coordinates": [ -122.106588791739341, 37.407062460564134 ] } },
{ "type": "Feature", "properties": { "parent_sta": "california_ave", "stop_id": 0, "stop_name": "California Avenue", "location_t": 2 }, "geometry": { "type": "Point", "coordinates": [ -122.142017582845142, 37.429213715840376 ] } },
{ "type": "Feature", "properties": { "parent_sta": "california_ave", "stop_id": 0, "stop_name": "California Avenue", "location_t": 2 }, "geometry": { "type": "Point", "coordinates": [ -122.141435556905378, 37.428857760577216 ] } },
{ "type": "Feature", "properties": { "parent_sta": "california_ave", "stop_id": 0, "stop_name": "California Avenue", "location_t": 2 }, "geometry": { "type": "Point", "coordinates": [ -122.141126950947978, 37.428704742729735 ] } },
{ "type": "Feature", "properties": { "parent_sta": "california_ave", "stop_id": 0, "stop_name": "California Avenue", "location_t": 2 }, "geometry": { "type": "Point", "coordinates": [ -122.140891226049234, 37.428571975816055 ] } },
{ "type": "Feature", "properties": { "parent_sta": "california_ave", "stop_id": 0, "stop_name": "California Avenue", "location_t": 2 }, "geometry": { "type": "Point", "coordinates": [ -122.141357979587042, 37.42906170793151 ] } },
{ "type": "Feature", "properties": { "parent_sta": "california_ave", "stop_id": 0, "stop_name": "California Avenue", "location_t": 2 }, "geometry": { "type": "Point", "coordinates": [ -122.140891226049234, 37.428571975816055 ] } },
{ "type": "Feature", "properties": { "parent_sta": "california_ave", "stop_id": 0, "stop_name": "California Avenue", "location_t": 2 }, "geometry": { "type": "Point", "coordinates": [ -122.140668074571977, 37.428626892017519 ] } },
{ "type": "Feature", "properties": { "parent_sta": "california_ave", "stop_id": 0, "stop_name": "California Avenue", "location_t": 2 }, "geometry": { "type": "Point", "coordinates": [ -122.140668074571977, 37.428626892017519 ] } },
{ "type": "Feature", "properties": { "parent_sta": "mtc:palo-alto-station", "stop_id": 0, "stop_name": "Palo Alto Station", "location_t": 2 }, "geometry": { "type": "Point", "coordinates": [ -122.165435529625938, 37.443708021807822 ] } },
{ "type": "Feature", "properties": { "parent_sta": "mtc:palo-alto-station", "stop_id": 0, "stop_name": "Palo Alto Station", "location_t": 2 }, "geometry": { "type": "Point", "coordinates": [ -122.164905432339822, 37.443303388940308 ] } },
{ "type": "Feature", "properties": { "parent_sta": "mtc:palo-alto-station", "stop_id": 0, "stop_name": "Palo Alto Station", "location_t": 2 }, "geometry": { "type": "Point", "coordinates": [ -122.165403025429271, 37.44352916733726 ] } },
{ "type": "Feature", "properties": { "parent_sta": "mtc:palo-alto-station", "stop_id": 0, "stop_name": "Palo Alto Station", "location_t": 2 }, "geometry": { "type": "Point", "coordinates": [ -122.164370929274924, 37.443009171236326 ] } },
{ "type": "Feature", "properties": { "parent_sta": "mtc:palo-alto-station", "stop_id": 0, "stop_name": "Palo Alto Station", "location_t": 2 }, "geometry": { "type": "Point", "coordinates": [ -122.164551325183481, 37.443111732620423 ] } },
{ "type": "Feature", "properties": { "parent_sta": "mtc:palo-alto-station", "stop_id": 0, "stop_name": "Palo Alto Station", "location_t": 2 }, "geometry": { "type": "Point", "coordinates": [ -122.164692557415549, 37.443559516758341 ] } },
{ "type": "Feature", "properties": { "parent_sta": "mtc:palo-alto-station", "stop_id": 0, "stop_name": "Palo Alto Station", "location_t": 2 }, "geometry": { "type": "Point", "coordinates": [ -122.165150821353279, 37.443944283601866 ] } },
{ "type": "Feature", "properties": { "parent_sta": "mtc:palo-alto-station", "stop_id": 0, "stop_name": "Palo Alto Station", "location_t": 2 }, "geometry": { "type": "Point", "coordinates": [ -122.165085242789701, 37.443803305877907 ] } },
{ "type": "Feature", "properties": { "parent_sta": "mtc:palo-alto-station", "stop_id": 0, "stop_name": "Palo Alto Station", "location_t": 2 }, "geometry": { "type": "Point", "coordinates": [ -122.164351291678713, 37.443298704371784 ] } },
{ "type": "Feature", "properties": { "parent_sta": "mtc:palo-alto-station", "stop_id": 0, "stop_name": "Palo Alto Station", "location_t": 2 }, "geometry": { "type": "Point", "coordinates": [ -122.165321298639014, 37.443937919099767 ] } },
{ "type": "Feature", "properties": { "parent_sta": "mtc:palo-alto-station", "stop_id": 0, "stop_name": "Palo Alto Station", "location_t": 2 }, "geometry": { "type": "Point", "coordinates": [ -122.165575965058736, 37.4441080483478 ] } },
{ "type": "Feature", "properties": { "parent_sta": "mtc:palo-alto-station", "stop_id": 0, "stop_name": "Palo Alto Station", "location_t": 2 }, "geometry": { "type": "Point", "coordinates": [ -122.165150821353279, 37.443944283601866 ] } },
{ "type": "Feature", "properties": { "parent_sta": "mtc:palo-alto-station", "stop_id": 0, "stop_name": "Palo Alto Station", "location_t": 2 }, "geometry": { "type": "Point", "coordinates": [ -122.165403025429271, 37.44352916733726 ] } },
{ "type": "Feature", "properties": { "parent_sta": "mtc:palo-alto-station", "stop_id": 0, "stop_name": "Palo Alto Station", "location_t": 2 }, "geometry": { "type": "Point", "coordinates": [ -122.165435529625938, 37.443708021807822 ] } },
{ "type": "Feature", "properties": { "parent_sta": "menlo_park", "stop_id": 0, "stop_name": "Menlo Park", "location_t": 2 }, "geometry": { "type": "Point", "coordinates": [ -122.182354331387273, 37.454711170384257 ] } },
{ "type": "Feature", "properties": { "parent_sta": "menlo_park", "stop_id": 0, "stop_name": "Menlo Park", "location_t": 2 }, "geometry": { "type": "Point", "coordinates": [ -122.181847780150918, 37.454400646172928 ] } },
{ "type": "Feature", "properties": { "parent_sta": "menlo_park", "stop_id": 0, "stop_name": "Menlo Park", "location_t": 2 }, "geometry": { "type": "Point", "coordinates": [ -122.182690261446396, 37.454789492341263 ] } },
{ "type": "Feature", "properties": { "parent_sta": "menlo_park", "stop_id": 0, "stop_name": "Menlo Park", "location_t": 2 }, "geometry": { "type": "Point", "coordinates": [ -122.182697617001395, 37.454931506983485 ] } },
{ "type": "Feature", "properties": { "parent_sta": "menlo_park", "stop_id": 0, "stop_name": "Menlo Park", "location_t": 2 }, "geometry": { "type": "Point", "coordinates": [ -122.183101917119757, 37.455188341668702 ] } },
{ "type": "Feature", "properties": { "parent_sta": "menlo_park", "stop_id": 0, "stop_name": "Menlo Park", "location_t": 2 }, "geometry": { "type": "Point", "coordinates": [ -122.181508837362912, 37.454205677649952 ] } },
{ "type": "Feature", "properties": { "parent_sta": "menlo_park", "stop_id": 0, "stop_name": "Menlo Park", "location_t": 2 }, "geometry": { "type": "Point", "coordinates": [ -122.181460558158221, 37.454343170500977 ] } },
{ "type": "Feature", "properties": { "parent_sta": "menlo_park", "stop_id": 0, "stop_name": "Menlo Park", "location_t": 2 }, "geometry": { "type": "Point", "coordinates": [ -122.183253514038427, 37.455474023907129 ] } },
{ "type": "Feature", "properties": { "parent_sta": "menlo_park", "stop_id": 0, "stop_name": "Menlo Park", "location_t": 2 }, "geometry": { "type": "Point", "coordinates": [ -122.182962561772797, 37.455325735594272 ] } },
{ "type": "Feature", "properties": { "parent_sta": "menlo_park", "stop_id": 0, "stop_name": "Menlo Park", "location_t": 2 }, "geometry": { "type": "Point", "coordinates": [ -122.182706729831693, 37.455156230475723 ] } },
{ "type": "Feature", "properties": { "parent_sta": "menlo_park", "stop_id": 0, "stop_name": "Menlo Park", "location_t": 2 }, "geometry": { "type": "Point", "coordinates": [ -122.183366898763325, 37.455363025083614 ] } },
{ "type": "Feature", "properties": { "parent_sta": "menlo_park", "stop_id": 0, "stop_name": "Menlo Park", "location_t": 2 }, "geometry": { "type": "Point", "coordinates": [ -122.182690261446396, 37.454789492341263 ] } },
{ "type": "Feature", "properties": { "parent_sta": "redwood_city", "stop_id": 0, "stop_name": "Redwood City", "location_t": 2 }, "geometry": { "type": "Point", "coordinates": [ -122.232192276152603, 37.486173534880777 ] } },
{ "type": "Feature", "properties": { "parent_sta": "redwood_city", "stop_id": 0, "stop_name": "Redwood City", "location_t": 2 }, "geometry": { "type": "Point", "coordinates": [ -122.232572080537068, 37.486363942941693 ] } },
{ "type": "Feature", "properties": { "parent_sta": "redwood_city", "stop_id": 0, "stop_name": "Redwood City", "location_t": 2 }, "geometry": { "type": "Point", "coordinates": [ -122.231863691755962, 37.485885346231782 ] } },
{ "type": "Feature", "properties": { "parent_sta": "redwood_city", "stop_id": 0, "stop_name": "Redwood City", "location_t": 2 }, "geometry": { "type": "Point", "coordinates": [ -122.23070546658397, 37.485223730290954 ] } },
{ "type": "Feature", "properties": { "parent_sta": "redwood_city", "stop_id": 0, "stop_name": "Redwood City", "location_t": 2 }, "geometry": { "type": "Point", "coordinates": [ -122.230609327258605, 37.485370174094328 ] } },
{ "type": "Feature", "properties": { "parent_sta": "redwood_city", "stop_id": 0, "stop_name": "Redwood City", "location_t": 2 }, "geometry": { "type": "Point", "coordinates": [ -122.232408170100939, 37.486506783161587 ] } },
{ "type": "Feature", "properties": { "parent_sta": "redwood_city", "stop_id": 0, "stop_name": "Redwood City", "location_t": 2 }, "geometry": { "type": "Point", "coordinates": [ -122.23212675694424, 37.486319879758696 ] } },
{ "type": "Feature", "properties": { "parent_sta": "redwood_city", "stop_id": 0, "stop_name": "Redwood City", "location_t": 2 }, "geometry": { "type": "Point", "coordinates": [ -122.230539012865108, 37.485311542793511 ] } },
{ "type": "Feature", "properties": { "parent_sta": "redwood_city", "stop_id": 0, "stop_name": "Redwood City", "location_t": 2 }, "geometry": { "type": "Point", "coordinates": [ -122.231155633025992, 37.485733510093496 ] } },
{ "type": "Feature", "properties": { "parent_sta": "redwood_city", "stop_id": 0, "stop_name": "Redwood City", "location_t": 2 }, "geometry": { "type": "Point", "coordinates": [ -122.232192276152603, 37.486173534880777 ] } },
{ "type": "Feature", "properties": { "parent_sta": "san_carlos", "stop_id": 0, "stop_name": "San Carlos", "location_t": 2 }, "geometry": { "type": "Point", "coordinates": [ -122.259797132731478, 37.507813665868014 ] } },
{ "type": "Feature", "properties": { "parent_sta": "san_carlos", "stop_id": 0, "stop_name": "San Carlos", "location_t": 2 }, "geometry": { "type": "Point", "coordinates": [ -122.259596681941275, 37.507632043284218 ] } },
{ "type": "Feature", "properties": { "parent_sta": "san_carlos", "stop_id": 0, "stop_name": "San Carlos", "location_t": 2 }, "geometry": { "type": "Point", "coordinates": [ -122.26027239745315, 37.507860824517479 ] } },
{ "type": "Feature", "properties": { "parent_sta": "san_carlos", "stop_id": 0, "stop_name": "San Carlos", "location_t": 2 }, "geometry": { "type": "Point", "coordinates": [ -122.260022705183644, 37.50767465316278 ] } },
{ "type": "Feature", "properties": { "parent_sta": "san_carlos", "stop_id": 0, "stop_name": "San Carlos", "location_t": 2 }, "geometry": { "type": "Point", "coordinates": [ -122.26006684211103, 37.507747323779995 ] } },
{ "type": "Feature", "properties": { "parent_sta": "san_carlos", "stop_id": 0, "stop_name": "San Carlos", "location_t": 2 }, "geometry": { "type": "Point", "coordinates": [ -122.26044985797455, 37.508353368812948 ] } },
{ "type": "Feature", "properties": { "parent_sta": "san_carlos", "stop_id": 0, "stop_name": "San Carlos", "location_t": 2 }, "geometry": { "type": "Point", "coordinates": [ -122.259926644099323, 37.507879891044183 ] } },
{ "type": "Feature", "properties": { "parent_sta": "san_carlos", "stop_id": 0, "stop_name": "San Carlos", "location_t": 2 }, "geometry": { "type": "Point", "coordinates": [ -122.259556098235294, 37.507562230712438 ] } },
{ "type": "Feature", "properties": { "parent_sta": "san_carlos", "stop_id": 0, "stop_name": "San Carlos", "location_t": 2 }, "geometry": { "type": "Point", "coordinates": [ -122.259709902989584, 37.507432310153035 ] } },
{ "type": "Feature", "properties": { "parent_sta": "san_carlos", "stop_id": 0, "stop_name": "San Carlos", "location_t": 2 }, "geometry": { "type": "Point", "coordinates": [ -122.259958034036003, 37.507491010701642 ] } },
{ "type": "Feature", "properties": { "parent_sta": "belmont", "stop_id": 0, "stop_name": "Belmont", "location_t": 2 }, "geometry": { "type": "Point", "coordinates": [ -122.27541362893578, 37.520495693121802 ] } },
{ "type": "Feature", "properties": { "parent_sta": "belmont", "stop_id": 0, "stop_name": "Belmont", "location_t": 2 }, "geometry": { "type": "Point", "coordinates": [ -122.276402089085138, 37.521316069081365 ] } },
{ "type": "Feature", "properties": { "parent_sta": "belmont", "stop_id": 0, "stop_name": "Belmont", "location_t": 2 }, "geometry": { "type": "Point", "coordinates": [ -122.275831244416338, 37.520842738801434 ] } },
{ "type": "Feature", "properties": { "parent_sta": "belmont", "stop_id": 0, "stop_name": "Belmont", "location_t": 2 }, "geometry": { "type": "Point", "coordinates": [ -122.276245145696862, 37.5213112073464 ] } },
{ "type": "Feature", "properties": { "parent_sta": "belmont", "stop_id": 0, "stop_name": "Belmont", "location_t": 2 }, "geometry": { "type": "Point", "coordinates": [ -122.276185004434353, 37.52159273381767 ] } },
{ "type": "Feature", "properties": { "parent_sta": "belmont", "stop_id": 0, "stop_name": "Belmont", "location_t": 2 }, "geometry": { "type": "Point", "coordinates": [ -122.276359999914007, 37.521290000433225 ] } },
{ "type": "Feature", "properties": { "parent_sta": "belmont", "stop_id": 0, "stop_name": "Belmont", "location_t": 2 }, "geometry": { "type": "Point", "coordinates": [ -122.276402089085138, 37.521316069081365 ] } },
{ "type": "Feature", "properties": { "parent_sta": "belmont", "stop_id": 0, "stop_name": "Belmont", "location_t": 2 }, "geometry": { "type": "Point", "coordinates": [ -122.27644418814873, 37.521226693557139 ] } },
{ "type": "Feature", "properties": { "parent_sta": "hillsdale", "stop_id": 0, "stop_name": "Hillsdale", "location_t": 2 }, "geometry": { "type": "Point", "coordinates": [ -122.301662372620342, 37.542489199217243 ] } },
{ "type": "Feature", "properties": { "parent_sta": "hillsdale", "stop_id": 0, "stop_name": "Hillsdale", "location_t": 2 }, "geometry": { "type": "Point", "coordinates": [ -122.301512546466824, 37.542325926400451 ] } },
{ "type": "Feature", "properties": { "parent_sta": "hillsdale", "stop_id": 0, "stop_name": "Hillsdale", "location_t": 2 }, "geometry": { "type": "Point", "coordinates": [ -122.300435561551865, 37.541004762060197 ] } },
{ "type": "Feature", "properties": { "parent_sta": "hillsdale", "stop_id": 0, "stop_name": "Hillsdale", "location_t": 2 }, "geometry": { "type": "Point", "coordinates": [ -122.30060520786401, 37.541195116161759 ] } },
{ "type": "Feature", "properties": { "parent_sta": "hillsdale", "stop_id": 0, "stop_name": "Hillsdale", "location_t": 2 }, "geometry": { "type": "Point", "coordinates": [ -122.300575236158181, 37.541207641919186 ] } },
{ "type": "Feature", "properties": { "parent_sta": "hillsdale", "stop_id": 0, "stop_name": "Hillsdale", "location_t": 2 }, "geometry": { "type": "Point", "coordinates": [ -122.300407061136923, 37.541016705056961 ] } },
{ "type": "Feature", "properties": { "parent_sta": "hillsdale", "stop_id": 0, "stop_name": "Hillsdale", "location_t": 2 }, "geometry": { "type": "Point", "coordinates": [ -122.301537526935306, 37.542317420612505 ] } },
{ "type": "Feature", "properties": { "parent_sta": "hayward_park", "stop_id": 0, "stop_name": "Hayward Park", "location_t": 2 }, "geometry": { "type": "Point", "coordinates": [ -122.309330426757754, 37.552916967843828 ] } },
{ "type": "Feature", "properties": { "parent_sta": "hayward_park", "stop_id": 0, "stop_name": "Hayward Park", "location_t": 2 }, "geometry": { "type": "Point", "coordinates": [ -122.309425221596655, 37.553113986821074 ] } },
{ "type": "Feature", "properties": { "parent_sta": "hayward_park", "stop_id": 0, "stop_name": "Hayward Park", "location_t": 2 }, "geometry": { "type": "Point", "coordinates": [ -122.30985174756006, 37.554033389829158 ] } },
{ "type": "Feature", "properties": { "parent_sta": "hayward_park", "stop_id": 0, "stop_name": "Hayward Park", "location_t": 2 }, "geometry": { "type": "Point", "coordinates": [ -122.31007592876108, 37.553973040823223 ] } },
{ "type": "Feature", "properties": { "parent_sta": "hayward_park", "stop_id": 0, "stop_name": "Hayward Park", "location_t": 2 }, "geometry": { "type": "Point", "coordinates": [ -122.309591332673847, 37.552908764228164 ] } },
{ "type": "Feature", "properties": { "parent_sta": "hayward_park", "stop_id": 0, "stop_name": "Hayward Park", "location_t": 2 }, "geometry": { "type": "Point", "coordinates": [ -122.30927837309838, 37.552297995955826 ] } },
{ "type": "Feature", "properties": { "parent_sta": "hayward_park", "stop_id": 0, "stop_name": "Hayward Park", "location_t": 2 }, "geometry": { "type": "Point", "coordinates": [ -122.309089408449381, 37.552351287082274 ] } },
{ "type": "Feature", "properties": { "parent_sta": "san_mateo", "stop_id": 0, "stop_name": "San Mateo", "location_t": 2 }, "geometry": { "type": "Point", "coordinates": [ -122.323319143763456, 37.567716766315755 ] } },
{ "type": "Feature", "properties": { "parent_sta": "san_mateo", "stop_id": 0, "stop_name": "San Mateo", "location_t": 2 }, "geometry": { "type": "Point", "coordinates": [ -122.323922970168894, 37.568228929321663 ] } },
{ "type": "Feature", "properties": { "parent_sta": "san_mateo", "stop_id": 0, "stop_name": "San Mateo", "location_t": 2 }, "geometry": { "type": "Point", "coordinates": [ -122.324174992581789, 37.568065464049994 ] } },
{ "type": "Feature", "properties": { "parent_sta": "san_mateo", "stop_id": 0, "stop_name": "San Mateo", "location_t": 2 }, "geometry": { "type": "Point", "coordinates": [ -122.323727759728285, 37.567783400683425 ] } },
{ "type": "Feature", "properties": { "parent_sta": "san_mateo", "stop_id": 0, "stop_name": "San Mateo", "location_t": 2 }, "geometry": { "type": "Point", "coordinates": [ -122.32491263630908, 37.568876022110771 ] } },
{ "type": "Feature", "properties": { "parent_sta": "san_mateo", "stop_id": 0, "stop_name": "San Mateo", "location_t": 2 }, "geometry": { "type": "Point", "coordinates": [ -122.324123993827243, 37.568211282824507 ] } },
{ "type": "Feature", "properties": { "parent_sta": "san_mateo", "stop_id": 0, "stop_name": "San Mateo", "location_t": 2 }, "geometry": { "type": "Point", "coordinates": [ -122.324174992581789, 37.568065464049994 ] } },
{ "type": "Feature", "properties": { "parent_sta": "san_mateo", "stop_id": 0, "stop_name": "San Mateo", "location_t": 2 }, "geometry": { "type": "Point", "coordinates": [ -122.324269401611559, 37.568360158394626 ] } },
{ "type": "Feature", "properties": { "parent_sta": "san_mateo", "stop_id": 0, "stop_name": "San Mateo", "location_t": 2 }, "geometry": { "type": "Point", "coordinates": [ -122.323922970168894, 37.568228929321663 ] } },
{ "type": "Feature", "properties": { "parent_sta": "san_mateo", "stop_id": 0, "stop_name": "San Mateo", "location_t": 2 }, "geometry": { "type": "Point", "coordinates": [ -122.323438733810463, 37.567624676637593 ] } },
{ "type": "Feature", "properties": { "parent_sta": "san_mateo", "stop_id": 0, "stop_name": "San Mateo", "location_t": 2 }, "geometry": { "type": "Point", "coordinates": [ -122.32491263630908, 37.568876022110771 ] } },
{ "type": "Feature", "properties": { "parent_sta": "burlingame", "stop_id": 0, "stop_name": "Burlingame", "location_t": 2 }, "geometry": { "type": "Point", "coordinates": [ -122.345008679007321, 37.579813146959225 ] } },
{ "type": "Feature", "properties": { "parent_sta": "burlingame", "stop_id": 0, "stop_name": "Burlingame", "location_t": 2 }, "geometry": { "type": "Point", "coordinates": [ -122.344669834245394, 37.57989923186409 ] } },
{ "type": "Feature", "properties": { "parent_sta": "burlingame", "stop_id": 0, "stop_name": "Burlingame", "location_t": 2 }, "geometry": { "type": "Point", "coordinates": [ -122.344512014018221, 37.579868690887452 ] } },
{ "type": "Feature", "properties": { "parent_sta": "burlingame", "stop_id": 0, "stop_name": "Burlingame", "location_t": 2 }, "geometry": { "type": "Point", "coordinates": [ -122.343228356803195, 37.579338727600259 ] } },
{ "type": "Feature", "properties": { "parent_sta": "burlingame", "stop_id": 0, "stop_name": "Burlingame", "location_t": 2 }, "geometry": { "type": "Point", "coordinates": [ -122.3450060287052, 37.580250538531573 ] } },
{ "type": "Feature", "properties": { "parent_sta": "burlingame", "stop_id": 0, "stop_name": "Burlingame", "location_t": 2 }, "geometry": { "type": "Point", "coordinates": [ -122.344778667501487, 37.580163577687017 ] } },
{ "type": "Feature", "properties": { "parent_sta": "burlingame", "stop_id": 0, "stop_name": "Burlingame", "location_t": 2 }, "geometry": { "type": "Point", "coordinates": [ -122.345187957058556, 37.580367876676235 ] } },
{ "type": "Feature", "properties": { "parent_sta": "burlingame", "stop_id": 0, "stop_name": "Burlingame", "location_t": 2 }, "geometry": { "type": "Point", "coordinates": [ -122.343147933130581, 37.579462887102636 ] } },
{ "type": "Feature", "properties": { "parent_sta": "burlingame", "stop_id": 0, "stop_name": "Burlingame", "location_t": 2 }, "geometry": { "type": "Point", "coordinates": [ -122.345008679007321, 37.579813146959225 ] } },
{ "type": "Feature", "properties": { "parent_sta": "mtc:salesforce-transit-center", "stop_id": 0, "stop_name": "Salesforce Transit Center", "location_t": 2 }, "geometry": { "type": "Point", "coordinates": [ -122.394959702728045, 37.790330397729747 ] } },
{ "type": "Feature", "properties": { "parent_sta": "mtc:salesforce-transit-center", "stop_id": 0, "stop_name": "Salesforce Transit Center", "location_t": 2 }, "geometry": { "type": "Point", "coordinates": [ -122.39504747296246, 37.790403984756153 ] } },
{ "type": "Feature", "properties": { "parent_sta": "mtc:salesforce-transit-center", "stop_id": 0, "stop_name": "Salesforce Transit Center", "location_t": 2 }, "geometry": { "type": "Point", "coordinates": [ -122.395335212849773, 37.790636965823353 ] } },
{ "type": "Feature", "properties": { "parent_sta": "mtc:salesforce-transit-center", "stop_id": 0, "stop_name": "Salesforce Transit Center", "location_t": 2 }, "geometry": { "type": "Point", "coordinates": [ -122.395279489057145, 37.790594762438388 ] } },
{ "type": "Feature", "properties": { "parent_sta": "mtc:salesforce-transit-center", "stop_id": 0, "stop_name": "Salesforce Transit Center", "location_t": 2 }, "geometry": { "type": "Point", "coordinates": [ -122.39601439524813, 37.790112474910813 ] } },
{ "type": "Feature", "properties": { "parent_sta": "mtc:salesforce-transit-center", "stop_id": 0, "stop_name": "Salesforce Transit Center", "location_t": 2 }, "geometry": { "type": "Point", "coordinates": [ -122.395640538979649, 37.789755647305356 ] } },
{ "type": "Feature", "properties": { "parent_sta": "mtc:salesforce-transit-center", "stop_id": 0, "stop_name": "Salesforce Transit Center", "location_t": 2 }, "geometry": { "type": "Point", "coordinates": [ -122.395790288690819, 37.789760332773199 ] } },
{ "type": "Feature", "properties": { "parent_sta": "mtc:salesforce-transit-center", "stop_id": 0, "stop_name": "Salesforce Transit Center", "location_t": 2 }, "geometry": { "type": "Point", "coordinates": [ -122.3959264829208, 37.789870579763488 ] } },
{ "type": "Feature", "properties": { "parent_sta": "mtc:salesforce-transit-center", "stop_id": 0, "stop_name": "Salesforce Transit Center", "location_t": 2 }, "geometry": { "type": "Point", "coordinates": [ -122.396048904932968, 37.789965225314972 ] } },
{ "type": "Feature", "properties": { "parent_sta": "mtc:salesforce-transit-center", "stop_id": 0, "stop_name": "Salesforce Transit Center", "location_t": 2 }, "geometry": { "type": "Point", "coordinates": [ -122.39624327091019, 37.789949134644928 ] } },
{ "type": "Feature", "properties": { "parent_sta": "mtc:salesforce-transit-center", "stop_id": 0, "stop_name": "Salesforce Transit Center", "location_t": 2 }, "geometry": { "type": "Point", "coordinates": [ -122.39594932390213, 37.789853774132439 ] } },
{ "type": "Feature", "properties": { "parent_sta": "mtc:salesforce-transit-center", "stop_id": 0, "stop_name": "Salesforce Transit Center", "location_t": 2 }, "geometry": { "type": "Point", "coordinates": [ -122.396072449184146, 37.789949819928324 ] } },
{ "type": "Feature", "properties": { "parent_sta": "mtc:salesforce-transit-center", "stop_id": 0, "stop_name": "Salesforce Transit Center", "location_t": 2 }, "geometry": { "type": "Point", "coordinates": [ -122.395803856762541, 37.789740133100736 ] } },
{ "type": "Feature", "properties": { "parent_sta": "mtc:salesforce-transit-center", "stop_id": 0, "stop_name": "Salesforce Transit Center", "location_t": 2 }, "geometry": { "type": "Point", "coordinates": [ -122.395845990899716, 37.789627313150049 ] } },
{ "type": "Feature", "properties": { "parent_sta": "mtc:salesforce-transit-center", "stop_id": 0, "stop_name": "Salesforce Transit Center", "location_t": 2 }, "geometry": { "type": "Point", "coordinates": [ -122.396944635086811, 37.789390168221757 ] } },
{ "type": "Feature", "properties": { "parent_sta": "mtc:salesforce-transit-center", "stop_id": 0, "stop_name": "Salesforce Transit Center", "location_t": 2 }, "geometry": { "type": "Point", "coordinates": [ -122.396547846106159, 37.789085497697613 ] } },
{ "type": "Feature", "properties": { "parent_sta": "mtc:salesforce-transit-center", "stop_id": 0, "stop_name": "Salesforce Transit Center", "location_t": 2 }, "geometry": { "type": "Point", "coordinates": [ -122.396903697947266, 37.78927198201643 ] } },
{ "type": "Feature", "properties": { "parent_sta": "mtc:salesforce-transit-center", "stop_id": 0, "stop_name": "Salesforce Transit Center", "location_t": 2 }, "geometry": { "type": "Point", "coordinates": [ -122.396610080990399, 37.789032514139251 ] } },
{ "type": "Feature", "properties": { "parent_sta": "mtc:salesforce-transit-center", "stop_id": 0, "stop_name": "Salesforce Transit Center", "location_t": 2 }, "geometry": { "type": "Point", "coordinates": [ -122.396945976875315, 37.789260110965415 ] } },
{ "type": "Feature", "properties": { "parent_sta": "mtc:salesforce-transit-center", "stop_id": 0, "stop_name": "Salesforce Transit Center", "location_t": 2 }, "geometry": { "type": "Point", "coordinates": [ -122.396637072342969, 37.788999800400518 ] } },
{ "type": "Feature", "properties": { "parent_sta": "mtc:salesforce-transit-center", "stop_id": 0, "stop_name": "Salesforce Transit Center", "location_t": 2 }, "geometry": { "type": "Point", "coordinates": [ -122.397107382699517, 37.789245139051957 ] } },
{ "type": "Feature", "properties": { "parent_sta": "mtc:salesforce-transit-center", "stop_id": 0, "stop_name": "Salesforce Transit Center", "location_t": 2 }, "geometry": { "type": "Point", "coordinates": [ -122.396717236111499, 37.788930837688042 ] } },
{ "type": "Feature", "properties": { "parent_sta": "mtc:salesforce-transit-center", "stop_id": 0, "stop_name": "Salesforce Transit Center", "location_t": 2 }, "geometry": { "type": "Point", "coordinates": [ -122.397525939770276, 37.788901844444638 ] } },
{ "type": "Feature", "properties": { "parent_sta": "mtc:salesforce-transit-center", "stop_id": 0, "stop_name": "Salesforce Transit Center", "location_t": 2 }, "geometry": { "type": "Point", "coordinates": [ -122.397151613156382, 37.788594222345523 ] } },
{ "type": "Feature", "properties": { "parent_sta": "mtc:salesforce-transit-center", "stop_id": 0, "stop_name": "Salesforce Transit Center", "location_t": 2 }, "geometry": { "type": "Point", "coordinates": [ -122.39795627616121, 37.788575278126643 ] } },
{ "type": "Feature", "properties": { "parent_sta": "mtc:salesforce-transit-center", "stop_id": 0, "stop_name": "Salesforce Transit Center", "location_t": 2 }, "geometry": { "type": "Point", "coordinates": [ -122.397391894919963, 37.788399715174762 ] } },
{ "type": "Feature", "properties": { "parent_sta": "mtc:salesforce-transit-center", "stop_id": 0, "stop_name": "Salesforce Transit Center", "location_t": 2 }, "geometry": { "type": "Point", "coordinates": [ -122.398562601782601, 37.788095789289287 ] } },
{ "type": "Feature", "properties": { "parent_sta": "mtc:salesforce-transit-center", "stop_id": 0, "stop_name": "Salesforce Transit Center", "location_t": 2 }, "geometry": { "type": "Point", "coordinates": [ -122.398178269311643, 37.787783361213201 ] } },
{ "type": "Feature", "properties": { "parent_sta": "mtc:salesforce-transit-center", "stop_id": 0, "stop_name": "Salesforce Transit Center", "location_t": 2 }, "geometry": { "type": "Point", "coordinates": [ -122.397570947241377, 37.78824384108043 ] } },
{ "type": "Feature", "properties": { "parent_sta": "san_bruno", "stop_id": 0, "stop_name": "San Bruno Caltrain Station", "location_t": 2 }, "geometry": { "type": "Point", "coordinates": [ -122.411341956366186, 37.630182069447017 ] } },
{ "type": "Feature", "properties": { "parent_sta": "san_bruno", "stop_id": 0, "stop_name": "San Bruno Caltrain Station", "location_t": 2 }, "geometry": { "type": "Point", "coordinates": [ -122.411563348769505, 37.630097288559057 ] } },
{ "type": "Feature", "properties": { "parent_sta": "mtc:millbrae-bart", "stop_id": 0, "stop_name": "Millbrae BART", "location_t": 2 }, "geometry": { "type": "Point", "coordinates": [ -122.386832032971938, 37.599779323956682 ] } },
{ "type": "Feature", "properties": { "parent_sta": "mtc:millbrae-bart", "stop_id": 0, "stop_name": "Millbrae BART", "location_t": 2 }, "geometry": { "type": "Point", "coordinates": [ -122.387361202157706, 37.600265125135479 ] } },
{ "type": "Feature", "properties": { "parent_sta": "mtc:millbrae-bart", "stop_id": 0, "stop_name": "Millbrae BART", "location_t": 2 }, "geometry": { "type": "Point", "coordinates": [ -122.387361202157706, 37.600265125135479 ] } },
{ "type": "Feature", "properties": { "parent_sta": "mtc:millbrae-bart", "stop_id": 0, "stop_name": "Millbrae BART", "location_t": 2 }, "geometry": { "type": "Point", "coordinates": [ -122.386524466630817, 37.600394193137561 ] } },
{ "type": "Feature", "properties": { "parent_sta": "mtc:millbrae-bart", "stop_id": 0, "stop_name": "Millbrae BART", "location_t": 2 }, "geometry": { "type": "Point", "coordinates": [ -122.386524466630817, 37.600394193137561 ] } },
{ "type": "Feature", "properties": { "parent_sta": "mtc:palo-alto-station", "stop_id": 0, "stop_name": "Palo Alto Station", "location_t": 2 }, "geometry": { "type": "Point", "coordinates": [ -122.16370251715739, 37.442917749754372 ] } },
{ "type": "Feature", "properties": { "parent_sta": "mtc:palo-alto-station", "stop_id": 0, "stop_name": "Palo Alto Station", "location_t": 2 }, "geometry": { "type": "Point", "coordinates": [ -122.163798455933943, 37.442976391847083 ] } },
{ "type": "Feature", "properties": { "parent_sta": "california_ave", "stop_id": 0, "stop_name": "California Avenue", "location_t": 2 }, "geometry": { "type": "Point", "coordinates": [ -122.141922856354711, 37.429152622195829 ] } },
{ "type": "Feature", "properties": { "parent_sta": "san_antonio", "stop_id": 0, "stop_name": "San Antonio", "location_t": 2 }, "geometry": { "type": "Point", "coordinates": [ -122.106022365439799, 37.406742427820859 ] } },
{ "type": "Feature", "properties": { "parent_sta": "san_antonio", "stop_id": 0, "stop_name": "San Antonio", "location_t": 2 }, "geometry": { "type": "Point", "coordinates": [ -122.106178827690712, 37.406596831178888 ] } },
{ "type": "Feature", "properties": { "parent_sta": "sunnyvale", "stop_id": 0, "stop_name": "Sunnyvale", "location_t": 2 }, "geometry": { "type": "Point", "coordinates": [ -122.032140358690583, 37.379002913953343 ] } },
{ "type": "Feature", "properties": { "parent_sta": "mtc:mountain-view-station", "stop_id": 0, "stop_name": "Mountain View Station", "location_t": 2 }, "geometry": { "type": "Point", "coordinates": [ -122.076542050075545, 37.394570912417748 ] } },
{ "type": "Feature", "properties": { "parent_sta": "california_ave", "stop_id": 0, "stop_name": "California Avenue", "location_t": 2 }, "geometry": { "type": "Point", "coordinates": [ -122.140364008392226, 37.428239163706507 ] } },
{ "type": "Feature", "properties": { "parent_sta": "mtc:palo-alto-station", "stop_id": 0, "stop_name": "Palo Alto Station", "location_t": 2 }, "geometry": { "type": "Point", "coordinates": [ -122.163652716299794, 37.44261899856798 ] } },
{ "type": "Feature", "properties": { "parent_sta": "redwood_city", "stop_id": 0, "stop_name": "Redwood City", "location_t": 2 }, "geometry": { "type": "Point", "coordinates": [ -122.230637633420031, 37.485208528151134 ] } },
{ "type": "Feature", "properties": { "parent_sta": "redwood_city", "stop_id": 0, "stop_name": "Redwood City", "location_t": 2 }, "geometry": { "type": "Point", "coordinates": [ -122.232186114897274, 37.486347680501126 ] } },
{ "type": "Feature", "properties": { "parent_sta": "redwood_city", "stop_id": 0, "stop_name": "Redwood City", "location_t": 2 }, "geometry": { "type": "Point", "coordinates": [ -122.231598132747592, 37.485695580286858 ] } },
{ "type": "Feature", "properties": { "parent_sta": "hayward_park", "stop_id": 0, "stop_name": "Hayward Park", "location_t": 2 }, "geometry": { "type": "Point", "coordinates": [ -122.309137837840922, 37.552500864123658 ] } },
{ "type": "Feature", "properties": { "parent_sta": "mtc:millbrae-bart", "stop_id": 0, "stop_name": "Millbrae BART", "location_t": 2 }, "geometry": { "type": "Point", "coordinates": [ -122.386614504955389, 37.59951279457988 ] } },
{ "type": "Feature", "properties": { "parent_sta": "mtc:millbrae-bart", "stop_id": 0, "stop_name": "Millbrae BART", "location_t": 2 }, "geometry": { "type": "Point", "coordinates": [ -122.386188297352021, 37.599096319439639 ] } },
{ "type": "Feature", "properties": { "parent_sta": "san_bruno", "stop_id": 0, "stop_name": "San Bruno Caltrain Station", "location_t": 2 }, "geometry": { "type": "Point", "coordinates": [ -122.411164704487476, 37.629188479564732 ] } },
{ "type": "Feature", "properties": { "parent_sta": "san_bruno", "stop_id": 0, "stop_name": "San Bruno Caltrain Station", "location_t": 2 }, "geometry": { "type": "Point", "coordinates": [ -122.410984569382322, 37.629496371460448 ] } },
{ "type": "Feature", "properties": { "parent_sta": "san_bruno", "stop_id": 0, "stop_name": "San Bruno Caltrain Station", "location_t": 2 }, "geometry": { "type": "Point", "coordinates": [ -122.410787332769132, 37.629189670267124 ] } },
{ "type": "Feature", "properties": { "parent_sta": "san_bruno", "stop_id": 0, "stop_name": "San Bruno Caltrain Station", "location_t": 2 }, "geometry": { "type": "Point", "coordinates": [ -122.412133642153833, 37.631474363750954 ] } },
{ "type": "Feature", "properties": { "parent_sta": "san_bruno", "stop_id": 0, "stop_name": "San Bruno Caltrain Station", "location_t": 2 }, "geometry": { "type": "Point", "coordinates": [ -122.412293314085161, 37.631425363289964 ] } },
{ "type": "Feature", "properties": { "parent_sta": "san_bruno", "stop_id": 0, "stop_name": "San Bruno Caltrain Station", "location_t": 2 }, "geometry": { "type": "Point", "coordinates": [ -122.411141689936983, 37.628739885137634 ] } },
{ "type": "Feature", "properties": { "parent_sta": "san_bruno", "stop_id": 0, "stop_name": "San Bruno Caltrain Station", "location_t": 2 }, "geometry": { "type": "Point", "coordinates": [ -122.41048860496511, 37.628715991050171 ] } },
{ "type": "Feature", "properties": { "parent_sta": "south_sf", "stop_id": 0, "stop_name": "South San Francisco Caltrain Station", "location_t": 2 }, "geometry": { "type": "Point", "coordinates": [ -122.406479592758956, 37.654416989152764 ] } },
{ "type": "Feature", "properties": { "parent_sta": "mtc:santa-clara-caltrain", "stop_id": 0, "stop_name": "Santa Clara Caltrain", "location_t": 2 }, "geometry": { "type": "Point", "coordinates": [ -121.936497400634494, 37.353871402543234 ] } }
]
}
