{
"type": "FeatureCollection",
"name": "VTA_PedAccessPoints_GTFS_v5",
"crs": { "type": "name", "properties": { "name": "urn:ogc:def:crs:EPSG::2227" } },
"features": [
{ "type": "Feature", "properties": { "stop_id": "64808", "stop_name": "Lick Mill Station", "stop_desc": "Westbound", "route_info": { "route_id": [ "SC:Event-Blue", "SC:Event-Green", "SC:Event-Orange", "SC:Event-Special", "SC:Green Line", "SC:Orange Line" ], "route_type": [ "0" ] } }, "geometry": { "type": "Point", "coordinates": [ 6137102.181929171085358, 1974471.594681084156036 ] } },
{ "type": "Feature", "properties": { "stop_id": "65237", "stop_name": "Cropley Station", "stop_desc": "Eastbound", "route_info": { "route_id": [ "SC:Event-Orange", "SC:Orange Line" ], "route_type": [ "0" ] } }, "geometry": { "type": "Point", "coordinates": [ 6160277.007626667618752, 1972236.892129510641098 ] } },
{ "type": "Feature", "properties": { "stop_id": "64809", "stop_name": "Great America Station", "stop_desc": "Westbound", "route_info": { "route_id": [ "SC:Event-Blue", "SC:Event-Green", "SC:Event-Orange", "SC:Event-Special", "SC:Green Line", "SC:Orange Line" ], "route_type": [ "0" ] } }, "geometry": { "type": "Point", "coordinates": [ 6133222.097169667482376, 1972740.89801125228405 ] } },
{ "type": "Feature", "properties": { "stop_id": "65857", "stop_name": "Alum Rock & King", "stop_desc": "Westbound", "route_info": { "route_id": [ "SC:Rapid 522" ], "route_type": [ "3" ] } }, "geometry": { "type": "Point", "coordinates": [ 6167608.883710920810699, 1953764.046529337763786 ] } },
{ "type": "Feature", "properties": { "stop_id": "65859", "stop_name": "Alum Rock & Jackson", "stop_desc": "Westbound", "route_info": { "route_id": [ "SC:Rapid 522" ], "route_type": [ "3" ] } }, "geometry": { "type": "Point", "coordinates": [ 6171142.466866835951805, 1955794.570027336478233 ] } },
{ "type": "Feature", "properties": { "stop_id": "64765", "stop_name": "Bonaventura Station", "stop_desc": "Southbound", "route_info": { "route_id": [ "SC:Blue Line", "SC:Event-Special", "SC:Green Line" ], "route_type": [ "0" ] } }, "geometry": { "type": "Point", "coordinates": [ 6146461.98604416847229, 1966857.1092539280653 ] } },
{ "type": "Feature", "properties": { "stop_id": "65024", "stop_name": "Moffett Park Station", "stop_desc": "Westbound", "route_info": { "route_id": [ "SC:Event-Blue", "SC:Event-Orange", "SC:Orange Line" ], "route_type": [ "0" ] } }, "geometry": { "type": "Point", "coordinates": [ 6116300.744857594370842, 1972673.047097086906433 ] } },
{ "type": "Feature", "properties": { "stop_id": "64739", "stop_name": "Blossom Hill Station", "stop_desc": "Northbound", "route_info": { "route_id": [ "SC:Blue Line", "SC:Event-Blue" ], "route_type": [ "0" ] } }, "geometry": { "type": "Point", "coordinates": [ 6171474.005245760083199, 1917231.606471002101898 ] } },
{ "type": "Feature", "properties": { "stop_id": "64771", "stop_name": "Japantown/Ayer Station", "stop_desc": "Southbound", "route_info": { "route_id": [ "SC:Blue Line", "SC:Green Line" ], "route_type": [ "0" ] } }, "geometry": { "type": "Point", "coordinates": [ 6155333.383655667304993, 1951470.591470584273338 ] } },
{ "type": "Feature", "properties": { "stop_id": "65378", "stop_name": "Hamilton Station", "stop_desc": "Northbound", "route_info": { "route_id": [ "SC:Green Line" ], "route_type": [ "0" ] } }, "geometry": { "type": "Point", "coordinates": [ 6144019.004381597042084, 1932725.168003499507904 ] } },
{ "type": "Feature", "properties": { "stop_id": "64793", "stop_name": "Crossman Station", "stop_desc": "Eastbound", "route_info": { "route_id": [ "SC:Event-Orange", "SC:Event-Special", "SC:Orange Line" ], "route_type": [ "0" ] } }, "geometry": { "type": "Point", "coordinates": [ 6122790.335552930831909, 1974850.85212467610836 ] } },
{ "type": "Feature", "properties": { "stop_id": "64798", "stop_name": "Great America Station", "stop_desc": "Eastbound", "route_info": { "route_id": [ "SC:Event-Orange", "SC:Event-Special", "SC:Green Line", "SC:Orange Line" ], "route_type": [ "0" ] } }, "geometry": { "type": "Point", "coordinates": [ 6133223.877349838614464, 1972717.646417334675789 ] } },
{ "type": "Feature", "properties": { "stop_id": "65250", "stop_name": "Great Mall Station", "stop_desc": "Westbound", "route_info": { "route_id": [ "SC:Event-Orange", "SC:Orange Line" ], "route_type": [ "0" ] } }, "geometry": { "type": "Point", "coordinates": [ 6154402.297591343522072, 1976439.667516589164734 ] } },
{ "type": "Feature", "properties": { "stop_id": "65235", "stop_name": "Great Mall Station", "stop_desc": "Eastbound", "route_info": { "route_id": [ "SC:Event-Orange", "SC:Orange Line" ], "route_type": [ "0" ] } }, "geometry": { "type": "Point", "coordinates": [ 6154759.301470503211021, 1976324.879688426852226 ] } },
{ "type": "Feature", "properties": { "stop_id": "65238", "stop_name": "Hostetter Station", "stop_desc": "Eastbound", "route_info": { "route_id": [ "SC:Event-Orange", "SC:Orange Line" ], "route_type": [ "0" ] } }, "geometry": { "type": "Point", "coordinates": [ 6163833.306616425514221, 1969239.93683734536171 ] } },
{ "type": "Feature", "properties": { "stop_id": "64750", "stop_name": "Japantown/Ayer Station", "stop_desc": "Northbound", "route_info": { "route_id": [ "SC:Blue Line", "SC:Event-Blue", "SC:Event-Green", "SC:Green Line" ], "route_type": [ "0" ] } }, "geometry": { "type": "Point", "coordinates": [ 6155333.383655667304993, 1951470.591470584273338 ] } },
{ "type": "Feature", "properties": { "stop_id": "65244", "stop_name": "Mckee Station", "stop_desc": null, "route_info": { "route_id": [ "SC:Event-Orange", "SC:Orange Line" ], "route_type": [ "0" ] } }, "geometry": { "type": "Point", "coordinates": [ 6170887.4942796677351, 1960728.6461171656847 ] } },
{ "type": "Feature", "properties": { "stop_id": "65858", "stop_name": "Alum Rock & Jackson", "stop_desc": "Eastbound", "route_info": { "route_id": [ "SC:Rapid 522" ], "route_type": [ "3" ] } }, "geometry": { "type": "Point", "coordinates": [ 6171263.38197934627533, 1955826.262221172451973 ] } },
{ "type": "Feature", "properties": { "stop_id": "65236", "stop_name": "Milpitas Station", "stop_desc": "Eastbound", "route_info": { "route_id": [ "SC:Event-Orange", "SC:Orange Line" ], "route_type": [ "0" ] } }, "geometry": { "type": "Point", "coordinates": [ 6157646.727454170584679, 1974659.272127255797386 ] } },
{ "type": "Feature", "properties": { "stop_id": "64780", "stop_name": "Capitol Station", "stop_desc": "Southbound", "route_info": { "route_id": [ "SC:Blue Line" ], "route_type": [ "0" ] } }, "geometry": { "type": "Point", "coordinates": [ 6165079.6217090934515, 1925215.559991255402565 ] } },
{ "type": "Feature", "properties": { "stop_id": "65379", "stop_name": "Campbell Station", "stop_desc": "Northbound", "route_info": { "route_id": [ "SC:Green Line" ], "route_type": [ "0" ] } }, "geometry": { "type": "Point", "coordinates": [ 6141889.511593341827393, 1929859.178984835743904 ] } },
{ "type": "Feature", "properties": { "stop_id": "65375", "stop_name": "Race Station", "stop_desc": "Northbound", "route_info": { "route_id": [ "SC:Green Line" ], "route_type": [ "0" ] } }, "geometry": { "type": "Point", "coordinates": [ 6151563.097889170050621, 1941230.158211335539818 ] } },
{ "type": "Feature", "properties": { "stop_id": "65384", "stop_name": "Bascom Station", "stop_desc": "Southbound", "route_info": { "route_id": [ "SC:Green Line" ], "route_type": [ "0" ] } }, "geometry": { "type": "Point", "coordinates": [ 6145610.414912670850754, 1934687.285798415541649 ] } },
{ "type": "Feature", "properties": { "stop_id": "65383", "stop_name": "Fruitdale Station", "stop_desc": "Southbound", "route_info": { "route_id": [ "SC:Green Line" ], "route_type": [ "0" ] } }, "geometry": { "type": "Point", "coordinates": [ 6149158.585637837648392, 1938462.305807426571846 ] } },
{ "type": "Feature", "properties": { "stop_id": "65249", "stop_name": "Milpitas Station", "stop_desc": "Westbound", "route_info": { "route_id": [ "SC:Event-Orange", "SC:Orange Line" ], "route_type": [ "0" ] } }, "geometry": { "type": "Point", "coordinates": [ 6157460.520805597305298, 1974435.157746091485023 ] } },
{ "type": "Feature", "properties": { "stop_id": "64741", "stop_name": "Capitol Station", "stop_desc": "Northbound", "route_info": { "route_id": [ "SC:Blue Line", "SC:Event-Blue" ], "route_type": [ "0" ] } }, "geometry": { "type": "Point", "coordinates": [ 6165079.6217090934515, 1925215.559991255402565 ] } },
{ "type": "Feature", "properties": { "stop_id": "65382", "stop_name": "Race Station", "stop_desc": "Southbound", "route_info": { "route_id": [ "SC:Green Line" ], "route_type": [ "0" ] } }, "geometry": { "type": "Point", "coordinates": [ 6151563.097889170050621, 1941230.158211335539818 ] } },
{ "type": "Feature", "properties": { "stop_id": "65378", "stop_name": "Hamilton Station", "stop_desc": "Northbound", "route_info": { "route_id": [ "SC:Green Line" ], "route_type": [ "0" ] } }, "geometry": { "type": "Point", "coordinates": [ 6144026.315390586853027, 1932675.244546920061111 ] } },
{ "type": "Feature", "properties": { "stop_id": "MLPT_2", "stop_name": "East Station Entrance / Exit", "stop_desc": "East Station Entrance / Exit", "route_info": { "route_id": null, "route_type": null } }, "geometry": { "type": "Point", "coordinates": [ 6157771.938161760568619, 1974806.261990755796432 ] } },
{ "type": "Feature", "properties": { "stop_id": "65249", "stop_name": "Milpitas Station", "stop_desc": "Westbound", "route_info": { "route_id": [ "SC:Event-Orange", "SC:Orange Line" ], "route_type": [ "0" ] } }, "geometry": { "type": "Point", "coordinates": [ 6157646.727454170584679, 1974659.272127255797386 ] } },
{ "type": "Feature", "properties": { "stop_id": "65379", "stop_name": "Campbell Station", "stop_desc": "Northbound", "route_info": { "route_id": [ "SC:Green Line" ], "route_type": [ "0" ] } }, "geometry": { "type": "Point", "coordinates": [ 6141736.006979092955589, 1929644.666946679353714 ] } },
{ "type": "Feature", "properties": { "stop_id": "64782", "stop_name": "Blossom Hill Station", "stop_desc": "Southbound", "route_info": { "route_id": [ "SC:Blue Line" ], "route_type": [ "0" ] } }, "geometry": { "type": "Point", "coordinates": [ 6170996.097408920526505, 1917540.626194179058075 ] } },
{ "type": "Feature", "properties": { "stop_id": "64750", "stop_name": "Japantown/Ayer Station", "stop_desc": "Northbound", "route_info": { "route_id": [ "SC:Blue Line", "SC:Event-Blue", "SC:Event-Green", "SC:Green Line" ], "route_type": [ "0" ] } }, "geometry": { "type": "Point", "coordinates": [ 6155604.898532584309578, 1950998.763346001505852 ] } },
{ "type": "Feature", "properties": { "stop_id": "65377", "stop_name": "Bascom Station", "stop_desc": "Northbound", "route_info": { "route_id": [ "SC:Green Line" ], "route_type": [ "0" ] } }, "geometry": { "type": "Point", "coordinates": [ 6145610.414912670850754, 1934687.285798415541649 ] } },
{ "type": "Feature", "properties": { "stop_id": "64821", "stop_name": "Mountain View Station", "stop_desc": "Westbound", "route_info": { "route_id": [ "SC:Event-Blue", "SC:Event-Orange", "SC:Orange Line" ], "route_type": [ "0" ] } }, "geometry": { "type": "Point", "coordinates": [ 6103351.079812094569206, 1970282.050566762685776 ] } },
{ "type": "Feature", "properties": { "stop_id": "65388", "stop_name": "San Fernando Station", "stop_desc": "Northbound", "route_info": { "route_id": [ "SC:Event-Green", "SC:Green Line" ], "route_type": [ "0" ] } }, "geometry": { "type": "Point", "coordinates": [ 6154907.015742003917694, 1945687.006909176707268 ] } },
{ "type": "Feature", "properties": { "stop_id": "65236", "stop_name": "Milpitas Station", "stop_desc": "Eastbound", "route_info": { "route_id": [ "SC:Event-Orange", "SC:Orange Line" ], "route_type": [ "0" ] } }, "geometry": { "type": "Point", "coordinates": [ 6157460.520805597305298, 1974435.157746091485023 ] } },
{ "type": "Feature", "properties": { "stop_id": "65235", "stop_name": "Great Mall Station", "stop_desc": "Eastbound", "route_info": { "route_id": [ "SC:Event-Orange", "SC:Orange Line" ], "route_type": [ "0" ] } }, "geometry": { "type": "Point", "coordinates": [ 6154457.943477421998978, 1976393.83624342083931 ] } },
{ "type": "Feature", "properties": { "stop_id": "65250", "stop_name": "Great Mall Station", "stop_desc": "Westbound", "route_info": { "route_id": [ "SC:Event-Orange", "SC:Orange Line" ], "route_type": [ "0" ] } }, "geometry": { "type": "Point", "coordinates": [ 6154797.37488517165184, 1976326.962689504027367 ] } },
{ "type": "Feature", "properties": { "stop_id": "65856", "stop_name": "Alum Rock & King", "stop_desc": "Eastbound", "route_info": { "route_id": [ "SC:Rapid 522" ], "route_type": [ "3" ] } }, "geometry": { "type": "Point", "coordinates": [ 6167730.000594675540924, 1953806.638963833451271 ] } },
{ "type": "Feature", "properties": { "stop_id": "65381", "stop_name": "Diridon Station", "stop_desc": "Southbound", "route_info": { "route_id": [ "SC:Green Line" ], "route_type": [ "0" ] } }, "geometry": { "type": "Point", "coordinates": [ 6153571.772677585482597, 1945001.459067672491074 ] } },
{ "type": "Feature", "properties": { "stop_id": "64803", "stop_name": "Alder Station", "stop_desc": "Eastbound", "route_info": { "route_id": [ "SC:Event-Orange", "SC:Orange Line" ], "route_type": [ "0" ] } }, "geometry": { "type": "Point", "coordinates": [ 6150135.522004172205925, 1976210.32217475771904 ] } },
{ "type": "Feature", "properties": { "stop_id": "65243", "stop_name": "Alum Rock Station", "stop_desc": null, "route_info": { "route_id": [ "SC:Event-Orange", "SC:Orange Line" ], "route_type": [ "0" ] } }, "geometry": { "type": "Point", "coordinates": [ 6174535.52963450551033, 1955586.868014916777611 ] } },
{ "type": "Feature", "properties": { "stop_id": "65242", "stop_name": "Alum Rock Station", "stop_desc": null, "route_info": { "route_id": [ "SC:Event-Orange", "SC:Orange Line" ], "route_type": [ "0" ] } }, "geometry": { "type": "Point", "coordinates": [ 6174535.52963450551033, 1955586.868014916777611 ] } },
{ "type": "Feature", "properties": { "stop_id": "65377", "stop_name": "Bascom Station", "stop_desc": "Northbound", "route_info": { "route_id": [ "SC:Green Line" ], "route_type": [ "0" ] } }, "geometry": { "type": "Point", "coordinates": [ 6145677.081117928028107, 1934631.778363510966301 ] } },
{ "type": "Feature", "properties": { "stop_id": "64806", "stop_name": "Baypointe Station", "stop_desc": "Westbound", "route_info": { "route_id": [ "SC:Event-Orange", "SC:Orange Line" ], "route_type": [ "0" ] } }, "geometry": { "type": "Point", "coordinates": [ 6143036.518157586455345, 1975324.196322336792946 ] } },
{ "type": "Feature", "properties": { "stop_id": "65246", "stop_name": "Berryessa Station", "stop_desc": "Westbound", "route_info": { "route_id": [ "SC:Event-Orange", "SC:Orange Line" ], "route_type": [ "0" ] } }, "geometry": { "type": "Point", "coordinates": [ 6165856.790102258324623, 1966793.180576011538506 ] } },
{ "type": "Feature", "properties": { "stop_id": "64781", "stop_name": "Branham Station", "stop_desc": "Southbound", "route_info": { "route_id": [ "SC:Blue Line" ], "route_type": [ "0" ] } }, "geometry": { "type": "Point", "coordinates": [ 6166158.021127089858055, 1922351.139210924506187 ] } },
{ "type": "Feature", "properties": { "stop_id": "New_VTA_Eastridge_LRT_Station", "stop_name": "New_VTA_Eastridge_LRT_Station", "stop_desc": null, "route_info": null }, "geometry": { "type": "Point", "coordinates": [ 6180460.264176085591316, 1944640.694369256496429 ] } },
{ "type": "Feature", "properties": { "stop_id": "65386", "stop_name": "Campbell Station", "stop_desc": "Southbound", "route_info": { "route_id": [ "SC:Green Line" ], "route_type": [ "0" ] } }, "geometry": { "type": "Point", "coordinates": [ 6141889.511593341827393, 1929859.178984835743904 ] } },
{ "type": "Feature", "properties": { "stop_id": "65374", "stop_name": "Diridon Station", "stop_desc": "Northbound", "route_info": { "route_id": [ "SC:Event-Green", "SC:Green Line" ], "route_type": [ "0" ] } }, "geometry": { "type": "Point", "coordinates": [ 6153571.772677585482597, 1945001.459067672491074 ] } },
{ "type": "Feature", "properties": { "stop_id": "64756", "stop_name": "Bonaventura Station", "stop_desc": "Northbound", "route_info": { "route_id": [ "SC:Blue Line", "SC:Event-Blue", "SC:Event-Green", "SC:Event-Special", "SC:Green Line" ], "route_type": [ "0" ] } }, "geometry": { "type": "Point", "coordinates": [ 6146417.652471423149109, 1967004.868800923228264 ] } },
{ "type": "Feature", "properties": { "stop_id": "MLPT_1", "stop_name": "West Station Entrance / Exit", "stop_desc": "West Station Entrance / Exit", "route_info": { "route_id": null, "route_type": null } }, "geometry": { "type": "Point", "coordinates": [ 6157617.047395423054695, 1974743.018022760748863 ] } },
{ "type": "Feature", "properties": { "stop_id": "64799", "stop_name": "Lick Mill Station", "stop_desc": "Eastbound", "route_info": { "route_id": [ "SC:Event-Orange", "SC:Event-Special", "SC:Green Line", "SC:Orange Line" ], "route_type": [ "0" ] } }, "geometry": { "type": "Point", "coordinates": [ 6137102.181929171085358, 1974471.594681084156036 ] } },
{ "type": "Feature", "properties": { "stop_id": "65250", "stop_name": "Great Mall Station", "stop_desc": "Westbound", "route_info": { "route_id": [ "SC:Event-Orange", "SC:Orange Line" ], "route_type": [ "0" ] } }, "geometry": { "type": "Point", "coordinates": [ 6154759.301470503211021, 1976324.879688426852226 ] } },
{ "type": "Feature", "properties": { "stop_id": "New_VTA_Eastridge_LRT_Station", "stop_name": "New_VTA_Eastridge_LRT_Station", "stop_desc": null, "route_info": null }, "geometry": { "type": "Point", "coordinates": [ 6180290.427901595830917, 1944938.196727007627487 ] } },
{ "type": "Feature", "properties": { "stop_id": "64804", "stop_name": "Alder Station", "stop_desc": "Westbound", "route_info": { "route_id": [ "SC:Event-Orange", "SC:Orange Line" ], "route_type": [ "0" ] } }, "geometry": { "type": "Point", "coordinates": [ 6150135.522004172205925, 1976210.32217475771904 ] } },
{ "type": "Feature", "properties": { "stop_id": "64760", "stop_name": "Baypointe Station", "stop_desc": null, "route_info": { "route_id": [ "SC:Event-Orange", "SC:Orange Line" ], "route_type": [ "0" ] } }, "geometry": { "type": "Point", "coordinates": [ 6143050.762223586440086, 1975300.604834094643593 ] } },
{ "type": "Feature", "properties": { "stop_id": "65239", "stop_name": "Berryessa Station", "stop_desc": "Eastbound", "route_info": { "route_id": [ "SC:Event-Orange", "SC:Orange Line" ], "route_type": [ "0" ] } }, "geometry": { "type": "Point", "coordinates": [ 6165938.998599261045456, 1966633.181224092841148 ] } },
{ "type": "Feature", "properties": { "stop_id": "64782", "stop_name": "Blossom Hill Station", "stop_desc": "Southbound", "route_info": { "route_id": [ "SC:Blue Line" ], "route_type": [ "0" ] } }, "geometry": { "type": "Point", "coordinates": [ 6171474.005245760083199, 1917231.606471002101898 ] } },
{ "type": "Feature", "properties": { "stop_id": "65235", "stop_name": "Great Mall Station", "stop_desc": "Eastbound", "route_info": { "route_id": [ "SC:Event-Orange", "SC:Orange Line" ], "route_type": [ "0" ] } }, "geometry": { "type": "Point", "coordinates": [ 6154402.297591343522072, 1976439.667516589164734 ] } },
{ "type": "Feature", "properties": { "stop_id": "64790", "stop_name": "Bayshore Nasa Station", "stop_desc": "Eastbound", "route_info": { "route_id": [ "SC:Event-Orange", "SC:Event-Special", "SC:Orange Line" ], "route_type": [ "0" ] } }, "geometry": { "type": "Point", "coordinates": [ 6111430.944557845592499, 1973568.235595420002937 ] } },
{ "type": "Feature", "properties": { "stop_id": "64785", "stop_name": "Santa Teresa Station", "stop_desc": "Southbound", "route_info": { "route_id": [ "SC:Blue Line" ], "route_type": [ "0" ] } }, "geometry": { "type": "Point", "coordinates": [ 6186398.083993345499039, 1911265.182380259037018 ] } },
{ "type": "Feature", "properties": { "stop_id": "65384", "stop_name": "Bascom Station", "stop_desc": "Southbound", "route_info": { "route_id": [ "SC:Green Line" ], "route_type": [ "0" ] } }, "geometry": { "type": "Point", "coordinates": [ 6145677.081117928028107, 1934631.778363510966301 ] } },
{ "type": "Feature", "properties": { "stop_id": "64774", "stop_name": "San Antonio Station", "stop_desc": "Southbound", "route_info": { "route_id": [ "SC:Blue Line", "SC:Green Line" ], "route_type": [ "0" ] } }, "geometry": { "type": "Point", "coordinates": [ 6158223.351629003882408, 1947152.379306510090828 ] } },
{ "type": "Feature", "properties": { "stop_id": "65375", "stop_name": "Race Station", "stop_desc": "Northbound", "route_info": { "route_id": [ "SC:Green Line" ], "route_type": [ "0" ] } }, "geometry": { "type": "Point", "coordinates": [ 6151409.614272251725197, 1941015.135347425937653 ] } },
{ "type": "Feature", "properties": { "stop_id": "64739", "stop_name": "Blossom Hill Station", "stop_desc": "Northbound", "route_info": { "route_id": [ "SC:Blue Line", "SC:Event-Blue" ], "route_type": [ "0" ] } }, "geometry": { "type": "Point", "coordinates": [ 6170996.097408920526505, 1917540.626194179058075 ] } },
{ "type": "Feature", "properties": { "stop_id": "64782", "stop_name": "Blossom Hill Station", "stop_desc": "Southbound", "route_info": { "route_id": [ "SC:Blue Line" ], "route_type": [ "0" ] } }, "geometry": { "type": "Point", "coordinates": [ 6171498.684330254793167, 1917226.549066424369812 ] } },
{ "type": "Feature", "properties": { "stop_id": "64776", "stop_name": "Children's Discovery Museum Station", "stop_desc": "Southbound", "route_info": { "route_id": [ "SC:Blue Line" ], "route_type": [ "0" ] } }, "geometry": { "type": "Point", "coordinates": [ 6156442.321070343255997, 1944836.034201666712761 ] } },
{ "type": "Feature", "properties": { "stop_id": "64816", "stop_name": "Lockheed Martin Station", "stop_desc": null, "route_info": { "route_id": [ "SC:Event-Blue", "SC:Event-Orange", "SC:Orange Line" ], "route_type": [ "0" ] } }, "geometry": { "type": "Point", "coordinates": [ 6118133.273016676306725, 1975123.649807423353195 ] } },
{ "type": "Feature", "properties": { "stop_id": "65023", "stop_name": "Moffett Park Station", "stop_desc": "Eastbound", "route_info": { "route_id": [ "SC:Event-Orange", "SC:Event-Special", "SC:Orange Line" ], "route_type": [ "0" ] } }, "geometry": { "type": "Point", "coordinates": [ 6115956.520152345299721, 1972659.326652094721794 ] } },
{ "type": "Feature", "properties": { "stop_id": "64753", "stop_name": "Metro/Airport Station", "stop_desc": "Northbound", "route_info": { "route_id": [ "SC:Blue Line", "SC:Event-Blue", "SC:Event-Green", "SC:Event-Special", "SC:Green Line" ], "route_type": [ "0" ] } }, "geometry": { "type": "Point", "coordinates": [ 6150336.557035177946091, 1960194.239049509167671 ] } },
{ "type": "Feature", "properties": { "stop_id": "64817", "stop_name": "Bayshore Nasa Station", "stop_desc": "Westbound", "route_info": { "route_id": [ "SC:Event-Blue", "SC:Event-Orange", "SC:Orange Line" ], "route_type": [ "0" ] } }, "geometry": { "type": "Point", "coordinates": [ 6111430.944557845592499, 1973568.235595420002937 ] } },
{ "type": "Feature", "properties": { "stop_id": "64790", "stop_name": "Bayshore Nasa Station", "stop_desc": "Eastbound", "route_info": { "route_id": [ "SC:Event-Orange", "SC:Event-Special", "SC:Orange Line" ], "route_type": [ "0" ] } }, "geometry": { "type": "Point", "coordinates": [ 6111741.006601750850677, 1973403.843863844871521 ] } },
{ "type": "Feature", "properties": { "stop_id": "65386", "stop_name": "Campbell Station", "stop_desc": "Southbound", "route_info": { "route_id": [ "SC:Green Line" ], "route_type": [ "0" ] } }, "geometry": { "type": "Point", "coordinates": [ 6141783.066268175840378, 1929613.343190416693687 ] } },
{ "type": "Feature", "properties": { "stop_id": "65380", "stop_name": "Winchester Station", "stop_desc": "Northbound", "route_info": { "route_id": [ "SC:Green Line" ], "route_type": [ "0" ] } }, "geometry": { "type": "Point", "coordinates": [ 6140262.70382334291935, 1927367.735476925969124 ] } },
{ "type": "Feature", "properties": { "stop_id": "65024", "stop_name": "Moffett Park Station", "stop_desc": "Westbound", "route_info": { "route_id": [ "SC:Event-Blue", "SC:Event-Orange", "SC:Orange Line" ], "route_type": [ "0" ] } }, "geometry": { "type": "Point", "coordinates": [ 6116157.565682008862495, 1972668.683916836977005 ] } },
{ "type": "Feature", "properties": { "stop_id": "64733", "stop_name": "Ohlone-Chynoweth Station", "stop_desc": "Southbound", "route_info": { "route_id": [ "SC:Blue Line" ], "route_type": [ "0" ] } }, "geometry": { "type": "Point", "coordinates": [ 6165935.705298751592636, 1919334.320441424846649 ] } },
{ "type": "Feature", "properties": { "stop_id": "65023", "stop_name": "Moffett Park Station", "stop_desc": "Eastbound", "route_info": { "route_id": [ "SC:Event-Orange", "SC:Event-Special", "SC:Orange Line" ], "route_type": [ "0" ] } }, "geometry": { "type": "Point", "coordinates": [ 6116300.744857594370842, 1972673.047097086906433 ] } },
{ "type": "Feature", "properties": { "stop_id": "65245", "stop_name": "Penitencia Creek Station", "stop_desc": "Westbound", "route_info": { "route_id": [ "SC:Event-Orange", "SC:Orange Line" ], "route_type": [ "0" ] } }, "geometry": { "type": "Point", "coordinates": [ 6167895.160369336605072, 1964373.719207584857941 ] } },
{ "type": "Feature", "properties": { "stop_id": "64811", "stop_name": "Reamwood Station", "stop_desc": "Westbound", "route_info": { "route_id": [ "SC:Event-Blue", "SC:Event-Orange", "SC:Orange Line" ], "route_type": [ "0" ] } }, "geometry": { "type": "Point", "coordinates": [ 6129276.629995003342628, 1972863.404327929019928 ] } },
{ "type": "Feature", "properties": { "stop_id": "64796", "stop_name": "Reamwood Station", "stop_desc": "Eastbound", "route_info": { "route_id": [ "SC:Event-Orange", "SC:Event-Special", "SC:Orange Line" ], "route_type": [ "0" ] } }, "geometry": { "type": "Point", "coordinates": [ 6129358.885736003518105, 1972821.95657616853714 ] } },
{ "type": "Feature", "properties": { "stop_id": "64747", "stop_name": "San Antonio Station", "stop_desc": "Northbound", "route_info": { "route_id": [ "SC:Blue Line", "SC:Event-Blue", "SC:Event-Green", "SC:Green Line" ], "route_type": [ "0" ] } }, "geometry": { "type": "Point", "coordinates": [ 6158099.293150097131729, 1946678.226383417844772 ] } },
{ "type": "Feature", "properties": { "stop_id": "64739", "stop_name": "Blossom Hill Station", "stop_desc": "Northbound", "route_info": { "route_id": [ "SC:Blue Line", "SC:Event-Blue" ], "route_type": [ "0" ] } }, "geometry": { "type": "Point", "coordinates": [ 6171498.684330254793167, 1917226.549066424369812 ] } },
{ "type": "Feature", "properties": { "stop_id": "64815", "stop_name": "Borregas Station", "stop_desc": "Westbound", "route_info": { "route_id": [ "SC:Event-Blue", "SC:Event-Orange", "SC:Orange Line" ], "route_type": [ "0" ] } }, "geometry": { "type": "Point", "coordinates": [ 6120738.422333925962448, 1975969.480464845895767 ] } },
{ "type": "Feature", "properties": { "stop_id": "64792", "stop_name": "Borregas Station", "stop_desc": "Eastbound", "route_info": { "route_id": [ "SC:Event-Orange", "SC:Event-Special", "SC:Orange Line" ], "route_type": [ "0" ] } }, "geometry": { "type": "Point", "coordinates": [ 6120862.628778427839279, 1975898.734543338418007 ] } },
{ "type": "Feature", "properties": { "stop_id": "64814", "stop_name": "Crossman Station", "stop_desc": "Westbound", "route_info": { "route_id": [ "SC:Event-Blue", "SC:Event-Orange", "SC:Orange Line" ], "route_type": [ "0" ] } }, "geometry": { "type": "Point", "coordinates": [ 6122790.335552930831909, 1974850.85212467610836 ] } },
{ "type": "Feature", "properties": { "stop_id": "65384", "stop_name": "Bascom Station", "stop_desc": "Southbound", "route_info": { "route_id": [ "SC:Green Line" ], "route_type": [ "0" ] } }, "geometry": { "type": "Point", "coordinates": [ 6145840.495489254593849, 1934827.641488835215569 ] } },
{ "type": "Feature", "properties": { "stop_id": "65376", "stop_name": "Fruitdale Station", "stop_desc": "Northbound", "route_info": { "route_id": [ "SC:Green Line" ], "route_type": [ "0" ] } }, "geometry": { "type": "Point", "coordinates": [ 6149158.585637837648392, 1938462.305807426571846 ] } },
{ "type": "Feature", "properties": { "stop_id": "65388", "stop_name": "San Fernando Station", "stop_desc": "Northbound", "route_info": { "route_id": [ "SC:Event-Green", "SC:Green Line" ], "route_type": [ "0" ] } }, "geometry": { "type": "Point", "coordinates": [ 6155213.970508679747581, 1945804.551621586084366 ] } },
{ "type": "Feature", "properties": { "stop_id": "64772", "stop_name": "Saint James Station", "stop_desc": "Southbound", "route_info": { "route_id": [ "SC:Blue Line", "SC:Green Line" ], "route_type": [ "0" ] } }, "geometry": { "type": "Point", "coordinates": [ 6157363.677495345473289, 1948645.8815688341856 ] } },
{ "type": "Feature", "properties": { "stop_id": "64740", "stop_name": "Branham Station", "stop_desc": "Northbound", "route_info": { "route_id": [ "SC:Blue Line", "SC:Event-Blue" ], "route_type": [ "0" ] } }, "geometry": { "type": "Point", "coordinates": [ 6166158.021127089858055, 1922351.139210924506187 ] } },
{ "type": "Feature", "properties": { "stop_id": "65250", "stop_name": "Great Mall Station", "stop_desc": "Westbound", "route_info": { "route_id": [ "SC:Event-Orange", "SC:Orange Line" ], "route_type": [ "0" ] } }, "geometry": { "type": "Point", "coordinates": [ 6154457.943477421998978, 1976393.83624342083931 ] } },
{ "type": "Feature", "properties": { "stop_id": "65378", "stop_name": "Hamilton Station", "stop_desc": "Northbound", "route_info": { "route_id": [ "SC:Green Line" ], "route_type": [ "0" ] } }, "geometry": { "type": "Point", "coordinates": [ 6143915.044615760445595, 1932747.306410670280457 ] } },
{ "type": "Feature", "properties": { "stop_id": "64731", "stop_name": "Ohlone-Chynoweth Station", "stop_desc": "Northbound", "route_info": { "route_id": [ "SC:Blue Line", "SC:Event-Blue" ], "route_type": [ "0" ] } }, "geometry": { "type": "Point", "coordinates": [ 6165819.569048091769218, 1919022.736090838909149 ] } },
{ "type": "Feature", "properties": { "stop_id": "64818", "stop_name": "Middlefield Station", "stop_desc": "Southbound", "route_info": { "route_id": [ "SC:Event-Blue", "SC:Event-Orange", "SC:Orange Line" ], "route_type": [ "0" ] } }, "geometry": { "type": "Point", "coordinates": [ 6110857.111387923359871, 1970452.460987091064453 ] } },
{ "type": "Feature", "properties": { "stop_id": "64789", "stop_name": "Middlefield Station", "stop_desc": "Northbound", "route_info": { "route_id": [ "SC:Event-Orange", "SC:Event-Special", "SC:Orange Line" ], "route_type": [ "0" ] } }, "geometry": { "type": "Point", "coordinates": [ 6110743.546654418110847, 1970084.752733007073402 ] } },
{ "type": "Feature", "properties": { "stop_id": "64763", "stop_name": "River Oaks Station", "stop_desc": "Southbound", "route_info": { "route_id": [ "SC:Blue Line", "SC:Event-Special", "SC:Green Line" ], "route_type": [ "0" ] } }, "geometry": { "type": "Point", "coordinates": [ 6143572.52889658510685, 1971986.980883926153183 ] } },
{ "type": "Feature", "properties": { "stop_id": "64772", "stop_name": "Saint James Station", "stop_desc": "Southbound", "route_info": { "route_id": [ "SC:Blue Line", "SC:Green Line" ], "route_type": [ "0" ] } }, "geometry": { "type": "Point", "coordinates": [ 6157106.271514087915421, 1949094.772403344511986 ] } },
{ "type": "Feature", "properties": { "stop_id": "64791", "stop_name": "Lockheed Martin Station", "stop_desc": null, "route_info": { "route_id": [ "SC:Event-Orange", "SC:Event-Special", "SC:Orange Line" ], "route_type": [ "0" ] } }, "geometry": { "type": "Point", "coordinates": [ 6118224.751508250832558, 1975451.768573760986328 ] } },
{ "type": "Feature", "properties": { "stop_id": "64776", "stop_name": "Children's Discovery Museum Station", "stop_desc": "Southbound", "route_info": { "route_id": [ "SC:Blue Line" ], "route_type": [ "0" ] } }, "geometry": { "type": "Point", "coordinates": [ 6156607.729532167315483, 1944626.669462919235229 ] } },
{ "type": "Feature", "properties": { "stop_id": "64744", "stop_name": "Virginia Station", "stop_desc": "Northbound", "route_info": { "route_id": [ "SC:Blue Line", "SC:Event-Blue" ], "route_type": [ "0" ] } }, "geometry": { "type": "Point", "coordinates": [ 6157431.378475427627563, 1941987.08058200776577 ] } },
{ "type": "Feature", "properties": { "stop_id": "64777", "stop_name": "Virginia Station", "stop_desc": "Southbound", "route_info": { "route_id": [ "SC:Blue Line" ], "route_type": [ "0" ] } }, "geometry": { "type": "Point", "coordinates": [ 6157431.378475427627563, 1941987.08058200776577 ] } },
{ "type": "Feature", "properties": { "stop_id": "64748", "stop_name": "Santa Clara Station", "stop_desc": "Northbound", "route_info": { "route_id": [ "SC:Blue Line", "SC:Event-Blue", "SC:Event-Green", "SC:Green Line" ], "route_type": [ "0" ] } }, "geometry": { "type": "Point", "coordinates": [ 6157604.535937502980232, 1947543.907066762447357 ] } },
{ "type": "Feature", "properties": { "stop_id": "64773", "stop_name": "Santa Clara Station", "stop_desc": "Southbound", "route_info": { "route_id": [ "SC:Blue Line", "SC:Green Line" ], "route_type": [ "0" ] } }, "geometry": { "type": "Point", "coordinates": [ 6157732.579972758889198, 1948003.959952428936958 ] } },
{ "type": "Feature", "properties": { "stop_id": "64745", "stop_name": "Children's Discovery Museum Station", "stop_desc": "Northbound", "route_info": { "route_id": [ "SC:Blue Line", "SC:Event-Blue" ], "route_type": [ "0" ] } }, "geometry": { "type": "Point", "coordinates": [ 6156442.321070343255997, 1944836.034201666712761 ] } },
{ "type": "Feature", "properties": { "stop_id": "65235", "stop_name": "Great Mall Station", "stop_desc": "Eastbound", "route_info": { "route_id": [ "SC:Event-Orange", "SC:Orange Line" ], "route_type": [ "0" ] } }, "geometry": { "type": "Point", "coordinates": [ 6154797.37488517165184, 1976326.962689504027367 ] } },
{ "type": "Feature", "properties": { "stop_id": "64757", "stop_name": "Orchard Station", "stop_desc": "Northbound", "route_info": { "route_id": [ "SC:Blue Line", "SC:Event-Blue", "SC:Event-Green", "SC:Event-Special", "SC:Green Line" ], "route_type": [ "0" ] } }, "geometry": { "type": "Point", "coordinates": [ 6144986.49161984026432, 1969530.8434077501297 ] } },
{ "type": "Feature", "properties": { "stop_id": "64764", "stop_name": "Orchard Station", "stop_desc": "Southbound", "route_info": { "route_id": [ "SC:Blue Line", "SC:Event-Special", "SC:Green Line" ], "route_type": [ "0" ] } }, "geometry": { "type": "Point", "coordinates": [ 6145027.6864193379879, 1969384.064173758029938 ] } },
{ "type": "Feature", "properties": { "stop_id": "64749", "stop_name": "Saint James Station", "stop_desc": "Northbound", "route_info": { "route_id": [ "SC:Blue Line", "SC:Event-Blue", "SC:Event-Green", "SC:Green Line" ], "route_type": [ "0" ] } }, "geometry": { "type": "Point", "coordinates": [ 6157076.273870676755905, 1948467.359616175293922 ] } },
{ "type": "Feature", "properties": { "stop_id": null, "stop_name": null, "stop_desc": null, "route_info": null }, "geometry": { "type": "Point", "coordinates": [ 6156817.926290258765221, 1948915.257342427968979 ] } },
{ "type": "Feature", "properties": { "stop_id": "65389", "stop_name": "San Fernando Station", "stop_desc": "Southbound", "route_info": { "route_id": [ "SC:Green Line" ], "route_type": [ "0" ] } }, "geometry": { "type": "Point", "coordinates": [ 6155201.671320676803589, 1945843.588617011904716 ] } },
{ "type": "Feature", "properties": { "stop_id": "64807", "stop_name": "Champion Station", "stop_desc": "Westbound", "route_info": { "route_id": [ "SC:Event-Blue", "SC:Event-Green", "SC:Event-Orange", "SC:Event-Special", "SC:Green Line", "SC:Orange Line" ], "route_type": [ "0" ] } }, "geometry": { "type": "Point", "coordinates": [ 6139754.821637004613876, 1974844.927923917770386 ] } },
{ "type": "Feature", "properties": { "stop_id": "64749", "stop_name": "Saint James Station", "stop_desc": "Northbound", "route_info": { "route_id": [ "SC:Blue Line", "SC:Event-Blue", "SC:Event-Green", "SC:Green Line" ], "route_type": [ "0" ] } }, "geometry": { "type": "Point", "coordinates": [ 6156923.117024764418602, 1948733.215711757540703 ] } },
{ "type": "Feature", "properties": { "stop_id": "64800", "stop_name": "Champion Station", "stop_desc": "Eastbound", "route_info": { "route_id": [ "SC:Event-Orange", "SC:Event-Special", "SC:Green Line", "SC:Orange Line" ], "route_type": [ "0" ] } }, "geometry": { "type": "Point", "coordinates": [ 6139733.517217680811882, 1974816.707836002111435 ] } },
{ "type": "Feature", "properties": { "stop_id": "64745", "stop_name": "Children's Discovery Museum Station", "stop_desc": "Northbound", "route_info": { "route_id": [ "SC:Blue Line", "SC:Event-Blue" ], "route_type": [ "0" ] } }, "geometry": { "type": "Point", "coordinates": [ 6156607.729532167315483, 1944626.669462919235229 ] } },
{ "type": "Feature", "properties": { "stop_id": "65377", "stop_name": "Bascom Station", "stop_desc": "Northbound", "route_info": { "route_id": [ "SC:Green Line" ], "route_type": [ "0" ] } }, "geometry": { "type": "Point", "coordinates": [ 6145840.495489254593849, 1934827.641488835215569 ] } },
{ "type": "Feature", "properties": { "stop_id": "65383", "stop_name": "Fruitdale Station", "stop_desc": "Southbound", "route_info": { "route_id": [ "SC:Green Line" ], "route_type": [ "0" ] } }, "geometry": { "type": "Point", "coordinates": [ 6149302.372095674276352, 1938681.889357760548592 ] } },
{ "type": "Feature", "properties": { "stop_id": "64791", "stop_name": "Lockheed Martin Station", "stop_desc": null, "route_info": { "route_id": [ "SC:Event-Orange", "SC:Event-Special", "SC:Orange Line" ], "route_type": [ "0" ] } }, "geometry": { "type": "Point", "coordinates": [ 6118133.273016676306725, 1975123.649807423353195 ] } },
{ "type": "Feature", "properties": { "stop_id": "65382", "stop_name": "Race Station", "stop_desc": "Southbound", "route_info": { "route_id": [ "SC:Green Line" ], "route_type": [ "0" ] } }, "geometry": { "type": "Point", "coordinates": [ 6151409.614272251725197, 1941015.135347425937653 ] } },
{ "type": "Feature", "properties": { "stop_id": "65240", "stop_name": "Penitencia Creek Station", "stop_desc": "Eastbound", "route_info": { "route_id": [ "SC:Event-Orange", "SC:Orange Line" ], "route_type": [ "0" ] } }, "geometry": { "type": "Point", "coordinates": [ 6167950.682239919900894, 1964258.773571342229843 ] } },
{ "type": "Feature", "properties": { "stop_id": "64802", "stop_name": "Cisco Station", "stop_desc": "Eastbound", "route_info": { "route_id": [ "SC:Event-Orange", "SC:Orange Line" ], "route_type": [ "0" ] } }, "geometry": { "type": "Point", "coordinates": [ 6146895.580649420619011, 1975767.448716670274734 ] } },
{ "type": "Feature", "properties": { "stop_id": "64768", "stop_name": "Metro/Airport Station", "stop_desc": "Southbound", "route_info": { "route_id": [ "SC:Blue Line", "SC:Event-Special", "SC:Green Line" ], "route_type": [ "0" ] } }, "geometry": { "type": "Point", "coordinates": [ 6150377.316468089818954, 1960053.446680173277855 ] } },
{ "type": "Feature", "properties": { "stop_id": "64805", "stop_name": "Cisco Station", "stop_desc": "Westbound", "route_info": { "route_id": [ "SC:Event-Orange", "SC:Orange Line" ], "route_type": [ "0" ] } }, "geometry": { "type": "Point", "coordinates": [ 6146895.580649420619011, 1975767.448716670274734 ] } },
{ "type": "Feature", "properties": { "stop_id": "64766", "stop_name": "Component Station", "stop_desc": "Southbound", "route_info": { "route_id": [ "SC:Blue Line", "SC:Event-Special", "SC:Green Line" ], "route_type": [ "0" ] } }, "geometry": { "type": "Point", "coordinates": [ 6147581.723306000232697, 1964922.373622089624405 ] } },
{ "type": "Feature", "properties": { "stop_id": "64731", "stop_name": "Ohlone-Chynoweth Station", "stop_desc": "Northbound", "route_info": { "route_id": [ "SC:Blue Line", "SC:Event-Blue" ], "route_type": [ "0" ] } }, "geometry": { "type": "Point", "coordinates": [ 6165984.176658511161804, 1919305.308032259345055 ] } },
{ "type": "Feature", "properties": { "stop_id": "64733", "stop_name": "Ohlone-Chynoweth Station", "stop_desc": "Southbound", "route_info": { "route_id": [ "SC:Blue Line" ], "route_type": [ "0" ] } }, "geometry": { "type": "Point", "coordinates": [ 6165768.776170670986176, 1919050.677307918667793 ] } },
{ "type": "Feature", "properties": { "stop_id": "64797", "stop_name": "Old Ironsides Station", "stop_desc": "Eastbound", "route_info": { "route_id": [ "SC:Event-Orange", "SC:Event-Special", "SC:Green Line", "SC:Orange Line" ], "route_type": [ "0" ] } }, "geometry": { "type": "Point", "coordinates": [ 6131805.933991506695747, 1972721.431186676025391 ] } },
{ "type": "Feature", "properties": { "stop_id": "64758", "stop_name": "River Oaks Station", "stop_desc": "Northbound", "route_info": { "route_id": [ "SC:Blue Line", "SC:Event-Blue", "SC:Event-Green", "SC:Event-Special", "SC:Green Line" ], "route_type": [ "0" ] } }, "geometry": { "type": "Point", "coordinates": [ 6143528.22944450378418, 1972133.285709425806999 ] } },
{ "type": "Feature", "properties": { "stop_id": "64770", "stop_name": "Civic Center Station", "stop_desc": "Southbound", "route_info": { "route_id": [ "SC:Blue Line", "SC:Green Line" ], "route_type": [ "0" ] } }, "geometry": { "type": "Point", "coordinates": [ 6154186.887261003255844, 1953435.730584919452667 ] } },
{ "type": "Feature", "properties": { "stop_id": "64747", "stop_name": "San Antonio Station", "stop_desc": "Northbound", "route_info": { "route_id": [ "SC:Blue Line", "SC:Event-Blue", "SC:Event-Green", "SC:Green Line" ], "route_type": [ "0" ] } }, "geometry": { "type": "Point", "coordinates": [ 6158233.323721930384636, 1946451.254068344831467 ] } },
{ "type": "Feature", "properties": { "stop_id": "65024", "stop_name": "Moffett Park Station", "stop_desc": "Westbound", "route_info": { "route_id": [ "SC:Event-Blue", "SC:Event-Orange", "SC:Orange Line" ], "route_type": [ "0" ] } }, "geometry": { "type": "Point", "coordinates": [ 6115956.520152345299721, 1972659.326652094721794 ] } },
{ "type": "Feature", "properties": { "stop_id": "64810", "stop_name": "Old Ironsides Station", "stop_desc": "Westbound", "route_info": { "route_id": [ "SC:Event-Blue", "SC:Event-Orange", "SC:Green Line", "SC:Orange Line" ], "route_type": [ "0" ] } }, "geometry": { "type": "Point", "coordinates": [ 6131805.933991506695747, 1972721.431186676025391 ] } },
{ "type": "Feature", "properties": { "stop_id": "65382", "stop_name": "Race Station", "stop_desc": "Southbound", "route_info": { "route_id": [ "SC:Green Line" ], "route_type": [ "0" ] } }, "geometry": { "type": "Point", "coordinates": [ 6151615.246735006570816, 1941165.464115008711815 ] } },
{ "type": "Feature", "properties": { "stop_id": "65375", "stop_name": "Race Station", "stop_desc": "Northbound", "route_info": { "route_id": [ "SC:Green Line" ], "route_type": [ "0" ] } }, "geometry": { "type": "Point", "coordinates": [ 6151615.246735006570816, 1941165.464115008711815 ] } },
{ "type": "Feature", "properties": { "stop_id": "64751", "stop_name": "Civic Center Station", "stop_desc": "Northbound", "route_info": { "route_id": [ "SC:Blue Line", "SC:Event-Blue", "SC:Event-Green", "SC:Green Line" ], "route_type": [ "0" ] } }, "geometry": { "type": "Point", "coordinates": [ 6154186.881355509161949, 1953435.889049172401428 ] } },
{ "type": "Feature", "properties": { "stop_id": null, "stop_name": null, "stop_desc": null, "route_info": null }, "geometry": { "type": "Point", "coordinates": [ 6157217.724047094583511, 1948898.674698427319527 ] } },
{ "type": "Feature", "properties": { "stop_id": null, "stop_name": null, "stop_desc": null, "route_info": null }, "geometry": { "type": "Point", "coordinates": [ 6154752.231274679303169, 1976183.967240586876869 ] } },
{ "type": "Feature", "properties": { "stop_id": "65388", "stop_name": "San Fernando Station", "stop_desc": "Northbound", "route_info": { "route_id": [ "SC:Event-Green", "SC:Green Line" ], "route_type": [ "0" ] } }, "geometry": { "type": "Point", "coordinates": [ 6154638.178353175520897, 1945665.70052133500576 ] } },
{ "type": "Feature", "properties": { "stop_id": "65389", "stop_name": "San Fernando Station", "stop_desc": "Southbound", "route_info": { "route_id": [ "SC:Green Line" ], "route_type": [ "0" ] } }, "geometry": { "type": "Point", "coordinates": [ 6154634.836168259382248, 1945709.357914343476295 ] } },
{ "type": "Feature", "properties": { "stop_id": "64778", "stop_name": "Tamien Station", "stop_desc": "Southbound", "route_info": { "route_id": [ "SC:Blue Line" ], "route_type": [ "0" ] } }, "geometry": { "type": "Point", "coordinates": [ 6159143.760549336671829, 1938698.774494588375092 ] } },
{ "type": "Feature", "properties": { "stop_id": "64759", "stop_name": "Tasman Station", "stop_desc": null, "route_info": { "route_id": [ "SC:Blue Line", "SC:Event-Blue", "SC:Event-Green", "SC:Event-Special", "SC:Green Line" ], "route_type": [ "0" ] } }, "geometry": { "type": "Point", "coordinates": [ 6142068.740565583109856, 1974643.128130674362183 ] } },
{ "type": "Feature", "properties": { "stop_id": "64795", "stop_name": "Vienna Station", "stop_desc": "Eastbound", "route_info": { "route_id": [ "SC:Event-Orange", "SC:Event-Special", "SC:Orange Line" ], "route_type": [ "0" ] } }, "geometry": { "type": "Point", "coordinates": [ 6126174.31074033677578, 1972815.127849668264389 ] } },
{ "type": "Feature", "properties": { "stop_id": "64819", "stop_name": "Whisman Station", "stop_desc": "Southbound", "route_info": { "route_id": [ "SC:Event-Blue", "SC:Event-Orange", "SC:Orange Line" ], "route_type": [ "0" ] } }, "geometry": { "type": "Point", "coordinates": [ 6108762.598188504576683, 1968861.430704593658447 ] } },
{ "type": "Feature", "properties": { "stop_id": "64817", "stop_name": "Bayshore Nasa Station", "stop_desc": "Westbound", "route_info": { "route_id": [ "SC:Event-Blue", "SC:Event-Orange", "SC:Orange Line" ], "route_type": [ "0" ] } }, "geometry": { "type": "Point", "coordinates": [ 6111741.006601750850677, 1973403.843863844871521 ] } },
{ "type": "Feature", "properties": { "stop_id": "New_VTA_StoryRd_LRT_Station", "stop_name": "New_VTA_StoryRd_LRT_Station", "stop_desc": null, "route_info": null }, "geometry": { "type": "Point", "coordinates": [ 6176163.141536757349968, 1952838.067410171031952 ] } },
{ "type": "Feature", "properties": { "stop_id": "64748", "stop_name": "Santa Clara Station", "stop_desc": "Northbound", "route_info": { "route_id": [ "SC:Blue Line", "SC:Event-Blue", "SC:Event-Green", "SC:Green Line" ], "route_type": [ "0" ] } }, "geometry": { "type": "Point", "coordinates": [ 6157436.178334593772888, 1947837.475377261638641 ] } },
{ "type": "Feature", "properties": { "stop_id": null, "stop_name": null, "stop_desc": null, "route_info": null }, "geometry": { "type": "Point", "coordinates": [ 6154701.920351669192314, 1976186.412445679306984 ] } },
{ "type": "Feature", "properties": { "stop_id": "64755", "stop_name": "Component Station", "stop_desc": "Northbound", "route_info": { "route_id": [ "SC:Blue Line", "SC:Event-Blue", "SC:Event-Green", "SC:Event-Special", "SC:Green Line" ], "route_type": [ "0" ] } }, "geometry": { "type": "Point", "coordinates": [ 6147538.212894335389137, 1965069.17155684530735 ] } },
{ "type": "Feature", "properties": { "stop_id": "64746", "stop_name": "Convention Center Station", "stop_desc": "Northbound", "route_info": { "route_id": [ "SC:Blue Line", "SC:Event-Blue", "SC:Event-Green", "SC:Green Line" ], "route_type": [ "0" ] } }, "geometry": { "type": "Point", "coordinates": [ 6157614.146154507994652, 1945698.032477676868439 ] } },
{ "type": "Feature", "properties": { "stop_id": "64819", "stop_name": "Whisman Station", "stop_desc": "Southbound", "route_info": { "route_id": [ "SC:Event-Blue", "SC:Event-Orange", "SC:Orange Line" ], "route_type": [ "0" ] } }, "geometry": { "type": "Point", "coordinates": [ 6109028.868981420993805, 1969066.576947838068008 ] } },
{ "type": "Feature", "properties": { "stop_id": "64774", "stop_name": "San Antonio Station", "stop_desc": "Southbound", "route_info": { "route_id": [ "SC:Blue Line", "SC:Green Line" ], "route_type": [ "0" ] } }, "geometry": { "type": "Point", "coordinates": [ 6158391.538956671953201, 1946858.126286089420319 ] } },
{ "type": "Feature", "properties": { "stop_id": "65388", "stop_name": "San Fernando Station", "stop_desc": "Northbound", "route_info": { "route_id": [ "SC:Event-Green", "SC:Green Line" ], "route_type": [ "0" ] } }, "geometry": { "type": "Point", "coordinates": [ 6155062.792989507317543, 1945734.984175428748131 ] } },
{ "type": "Feature", "properties": { "stop_id": "64785", "stop_name": "Santa Teresa Station", "stop_desc": "Southbound", "route_info": { "route_id": [ "SC:Blue Line" ], "route_type": [ "0" ] } }, "geometry": { "type": "Point", "coordinates": [ 6186269.795536011457443, 1910934.756860002875328 ] } },
{ "type": "Feature", "properties": { "stop_id": "64783", "stop_name": "Snell Station", "stop_desc": "Southbound", "route_info": { "route_id": [ "SC:Blue Line" ], "route_type": [ "0" ] } }, "geometry": { "type": "Point", "coordinates": [ 6174438.076745420694351, 1915157.2884411662817 ] } },
{ "type": "Feature", "properties": { "stop_id": "65236", "stop_name": "Milpitas Station", "stop_desc": "Eastbound", "route_info": { "route_id": [ "SC:Event-Orange", "SC:Orange Line" ], "route_type": [ "0" ] } }, "geometry": { "type": "Point", "coordinates": [ 6157576.813552007079124, 1974348.875110253691673 ] } },
{ "type": "Feature", "properties": { "stop_id": "64775", "stop_name": "Convention Center Station", "stop_desc": "Southbound", "route_info": { "route_id": [ "SC:Blue Line", "SC:Green Line" ], "route_type": [ "0" ] } }, "geometry": { "type": "Point", "coordinates": [ 6157614.146154507994652, 1945698.032477676868439 ] } },
{ "type": "Feature", "properties": { "stop_id": "65376", "stop_name": "Fruitdale Station", "stop_desc": "Northbound", "route_info": { "route_id": [ "SC:Green Line" ], "route_type": [ "0" ] } }, "geometry": { "type": "Point", "coordinates": [ 6149302.372095674276352, 1938681.889357760548592 ] } },
{ "type": "Feature", "properties": { "stop_id": "64769", "stop_name": "Gish Station", "stop_desc": "Southbound", "route_info": { "route_id": [ "SC:Blue Line", "SC:Event-Special", "SC:Green Line" ], "route_type": [ "0" ] } }, "geometry": { "type": "Point", "coordinates": [ 6152019.344023928046227, 1957206.460576251149178 ] } },
{ "type": "Feature", "properties": { "stop_id": "65378", "stop_name": "Hamilton Station", "stop_desc": "Northbound", "route_info": { "route_id": [ "SC:Green Line" ], "route_type": [ "0" ] } }, "geometry": { "type": "Point", "coordinates": [ 6143996.093010097742081, 1932745.377280667424202 ] } },
{ "type": "Feature", "properties": { "stop_id": "64771", "stop_name": "Japantown/Ayer Station", "stop_desc": "Southbound", "route_info": { "route_id": [ "SC:Blue Line", "SC:Green Line" ], "route_type": [ "0" ] } }, "geometry": { "type": "Point", "coordinates": [ 6155604.375895842909813, 1950998.908358842134476 ] } },
{ "type": "Feature", "properties": { "stop_id": "64808", "stop_name": "Lick Mill Station", "stop_desc": "Westbound", "route_info": { "route_id": [ "SC:Event-Blue", "SC:Event-Green", "SC:Event-Orange", "SC:Event-Special", "SC:Green Line", "SC:Orange Line" ], "route_type": [ "0" ] } }, "geometry": { "type": "Point", "coordinates": [ 6136503.730042085051537, 1974188.705155 ] } },
{ "type": "Feature", "properties": { "stop_id": "64738", "stop_name": "Snell Station", "stop_desc": "Northbound", "route_info": { "route_id": [ "SC:Blue Line", "SC:Event-Blue" ], "route_type": [ "0" ] } }, "geometry": { "type": "Point", "coordinates": [ 6174438.076745420694351, 1915157.2884411662817 ] } },
{ "type": "Feature", "properties": { "stop_id": "64788", "stop_name": "Whisman Station", "stop_desc": "Northbound", "route_info": { "route_id": [ "SC:Event-Orange", "SC:Event-Special", "SC:Orange Line" ], "route_type": [ "0" ] } }, "geometry": { "type": "Point", "coordinates": [ 6108762.598188504576683, 1968861.430704593658447 ] } },
{ "type": "Feature", "properties": { "stop_id": "65380", "stop_name": "Winchester Station", "stop_desc": "Northbound", "route_info": { "route_id": [ "SC:Green Line" ], "route_type": [ "0" ] } }, "geometry": { "type": "Point", "coordinates": [ 6140401.968636676669121, 1927590.361672088503838 ] } },
{ "type": "Feature", "properties": { "stop_id": "64789", "stop_name": "Middlefield Station", "stop_desc": "Northbound", "route_info": { "route_id": [ "SC:Event-Orange", "SC:Event-Special", "SC:Orange Line" ], "route_type": [ "0" ] } }, "geometry": { "type": "Point", "coordinates": [ 6110857.111387923359871, 1970452.460987091064453 ] } },
{ "type": "Feature", "properties": { "stop_id": "64743", "stop_name": "Tamien Station", "stop_desc": "Northbound", "route_info": { "route_id": [ "SC:Blue Line", "SC:Event-Blue" ], "route_type": [ "0" ] } }, "geometry": { "type": "Point", "coordinates": [ 6159143.760549336671829, 1938698.774494588375092 ] } },
{ "type": "Feature", "properties": { "stop_id": "64737", "stop_name": "Cottle Station", "stop_desc": "Northbound", "route_info": { "route_id": [ "SC:Blue Line", "SC:Event-Blue" ], "route_type": [ "0" ] } }, "geometry": { "type": "Point", "coordinates": [ 6182180.742362424731255, 1913518.216916173696518 ] } },
{ "type": "Feature", "properties": { "stop_id": "64794", "stop_name": "Fair Oaks Station", "stop_desc": "Eastbound", "route_info": { "route_id": [ "SC:Event-Orange", "SC:Event-Special", "SC:Orange Line" ], "route_type": [ "0" ] } }, "geometry": { "type": "Point", "coordinates": [ 6123025.770449504256248, 1972711.393149003386497 ] } },
{ "type": "Feature", "properties": { "stop_id": "65247", "stop_name": "Hostetter Station", "stop_desc": "Westbound", "route_info": { "route_id": [ "SC:Event-Orange", "SC:Orange Line" ], "route_type": [ "0" ] } }, "geometry": { "type": "Point", "coordinates": [ 6163833.306616425514221, 1969239.93683734536171 ] } },
{ "type": "Feature", "properties": { "stop_id": "64754", "stop_name": "Karina Station", "stop_desc": "Northbound", "route_info": { "route_id": [ "SC:Blue Line", "SC:Event-Blue", "SC:Event-Green", "SC:Event-Special", "SC:Green Line" ], "route_type": [ "0" ] } }, "geometry": { "type": "Point", "coordinates": [ 6149087.113339841365814, 1962370.720260843634605 ] } },
{ "type": "Feature", "properties": { "stop_id": "64767", "stop_name": "Karina Station", "stop_desc": "Southbound", "route_info": { "route_id": [ "SC:Blue Line", "SC:Event-Special", "SC:Green Line" ], "route_type": [ "0" ] } }, "geometry": { "type": "Point", "coordinates": [ 6149127.711027666926384, 1962225.976783916354179 ] } },
{ "type": "Feature", "properties": { "stop_id": "65241", "stop_name": "Mckee Station", "stop_desc": null, "route_info": { "route_id": [ "SC:Event-Orange", "SC:Orange Line" ], "route_type": [ "0" ] } }, "geometry": { "type": "Point", "coordinates": [ 6170924.540137335658073, 1960620.321858748793602 ] } },
{ "type": "Feature", "properties": { "stop_id": "64786", "stop_name": "Mountain View Station", "stop_desc": "Eastbound", "route_info": { "route_id": [ "SC:Event-Orange", "SC:Event-Special", "SC:Orange Line" ], "route_type": [ "0" ] } }, "geometry": { "type": "Point", "coordinates": [ 6103670.884946763515472, 1970115.075835093855858 ] } },
{ "type": "Feature", "properties": { "stop_id": "64821", "stop_name": "Mountain View Station", "stop_desc": "Westbound", "route_info": { "route_id": [ "SC:Event-Blue", "SC:Event-Orange", "SC:Orange Line" ], "route_type": [ "0" ] } }, "geometry": { "type": "Point", "coordinates": [ 6103670.884946763515472, 1970115.075835093855858 ] } },
{ "type": "Feature", "properties": { "stop_id": "64788", "stop_name": "Whisman Station", "stop_desc": "Northbound", "route_info": { "route_id": [ "SC:Event-Orange", "SC:Event-Special", "SC:Orange Line" ], "route_type": [ "0" ] } }, "geometry": { "type": "Point", "coordinates": [ 6109028.868981420993805, 1969066.576947838068008 ] } },
{ "type": "Feature", "properties": { "stop_id": "65249", "stop_name": "Milpitas Station", "stop_desc": "Westbound", "route_info": { "route_id": [ "SC:Event-Orange", "SC:Orange Line" ], "route_type": [ "0" ] } }, "geometry": { "type": "Point", "coordinates": [ 6157577.048131585121155, 1974349.291119918227196 ] } },
{ "type": "Feature", "properties": { "stop_id": "64784", "stop_name": "Cottle Station", "stop_desc": "Southbound", "route_info": { "route_id": [ "SC:Blue Line" ], "route_type": [ "0" ] } }, "geometry": { "type": "Point", "coordinates": [ 6182180.742362424731255, 1913518.216916173696518 ] } },
{ "type": "Feature", "properties": { "stop_id": "64762", "stop_name": "Tasman Station", "stop_desc": "Southbound", "route_info": { "route_id": [ "SC:Blue Line", "SC:Event-Special", "SC:Green Line" ], "route_type": [ "0" ] } }, "geometry": { "type": "Point", "coordinates": [ 6142068.740565583109856, 1974643.128130674362183 ] } },
{ "type": "Feature", "properties": { "stop_id": "64812", "stop_name": "Vienna Station", "stop_desc": "Westbound", "route_info": { "route_id": [ "SC:Event-Blue", "SC:Event-Orange", "SC:Orange Line" ], "route_type": [ "0" ] } }, "geometry": { "type": "Point", "coordinates": [ 6126042.196503251791, 1972844.519195094704628 ] } },
{ "type": "Feature", "properties": { "stop_id": "65387", "stop_name": "Winchester Station", "stop_desc": "Southbound", "route_info": { "route_id": [ "SC:Green Line" ], "route_type": [ "0" ] } }, "geometry": { "type": "Point", "coordinates": [ 6140262.70382334291935, 1927367.735476925969124 ] } },
{ "type": "Feature", "properties": { "stop_id": "64786", "stop_name": "Mountain View Station", "stop_desc": "Eastbound", "route_info": { "route_id": [ "SC:Event-Orange", "SC:Event-Special", "SC:Orange Line" ], "route_type": [ "0" ] } }, "geometry": { "type": "Point", "coordinates": [ 6103351.079812094569206, 1970282.050566762685776 ] } },
{ "type": "Feature", "properties": { "stop_id": "64818", "stop_name": "Middlefield Station", "stop_desc": "Southbound", "route_info": { "route_id": [ "SC:Event-Blue", "SC:Event-Orange", "SC:Orange Line" ], "route_type": [ "0" ] } }, "geometry": { "type": "Point", "coordinates": [ 6110743.546654418110847, 1970084.752733007073402 ] } },
{ "type": "Feature", "properties": { "stop_id": "65381", "stop_name": "Diridon Station", "stop_desc": "Southbound", "route_info": { "route_id": [ "SC:Green Line" ], "route_type": [ "0" ] } }, "geometry": { "type": "Point", "coordinates": [ 6153550.814386174082756, 1945342.923279762268066 ] } },
{ "type": "Feature", "properties": { "stop_id": "65374", "stop_name": "Diridon Station", "stop_desc": "Northbound", "route_info": { "route_id": [ "SC:Event-Green", "SC:Green Line" ], "route_type": [ "0" ] } }, "geometry": { "type": "Point", "coordinates": [ 6153550.814386174082756, 1945342.923279762268066 ] } },
{ "type": "Feature", "properties": { "stop_id": "New_VTA_StoryRd_LRT_Station", "stop_name": "New_VTA_StoryRd_LRT_Station", "stop_desc": null, "route_info": null }, "geometry": { "type": "Point", "coordinates": [ 6176155.615633174777031, 1952834.469320252537727 ] } },
{ "type": "Feature", "properties": { "stop_id": null, "stop_name": null, "stop_desc": null, "route_info": null }, "geometry": { "type": "Point", "coordinates": [ 6175963.258078262209892, 1952748.927168503403664 ] } },
{ "type": "Feature", "properties": { "stop_id": "65248", "stop_name": "Cropley Station", "stop_desc": "Westbound", "route_info": { "route_id": [ "SC:Event-Orange", "SC:Orange Line" ], "route_type": [ "0" ] } }, "geometry": { "type": "Point", "coordinates": [ 6160191.692508593201637, 1972353.50508525967598 ] } },
{ "type": "Feature", "properties": { "stop_id": "64813", "stop_name": "Fair Oaks Station", "stop_desc": "Westbound", "route_info": { "route_id": [ "SC:Event-Blue", "SC:Event-Orange", "SC:Orange Line" ], "route_type": [ "0" ] } }, "geometry": { "type": "Point", "coordinates": [ 6123025.770449504256248, 1972711.393149003386497 ] } },
{ "type": "Feature", "properties": { "stop_id": "64752", "stop_name": "Gish Station", "stop_desc": "Northbound", "route_info": { "route_id": [ "SC:Blue Line", "SC:Event-Blue", "SC:Event-Green", "SC:Event-Special", "SC:Green Line" ], "route_type": [ "0" ] } }, "geometry": { "type": "Point", "coordinates": [ 6151987.500911757349968, 1957329.957704588770866 ] } },
{ "type": "Feature", "properties": { "stop_id": "64799", "stop_name": "Lick Mill Station", "stop_desc": "Eastbound", "route_info": { "route_id": [ "SC:Event-Orange", "SC:Event-Special", "SC:Green Line", "SC:Orange Line" ], "route_type": [ "0" ] } }, "geometry": { "type": "Point", "coordinates": [ 6136516.022996500134468, 1974161.415183335542679 ] } },
{ "type": "Feature", "properties": { "stop_id": "New_VTA_StoryRd_LRT_Station", "stop_name": "New_VTA_StoryRd_LRT_Station", "stop_desc": null, "route_info": null }, "geometry": { "type": "Point", "coordinates": [ 6175942.586203590035439, 1952780.852629587054253 ] } },
{ "type": "Feature", "properties": { "stop_id": "64773", "stop_name": "Santa Clara Station", "stop_desc": "Southbound", "route_info": { "route_id": [ "SC:Blue Line", "SC:Green Line" ], "route_type": [ "0" ] } }, "geometry": { "type": "Point", "coordinates": [ 6157906.106200501322746, 1947702.654780760407448 ] } },
{ "type": "Feature", "properties": { "stop_id": "65387", "stop_name": "Winchester Station", "stop_desc": "Southbound", "route_info": { "route_id": [ "SC:Green Line" ], "route_type": [ "0" ] } }, "geometry": { "type": "Point", "coordinates": [ 6140401.948623597621918, 1927590.232735335826874 ] } },
{ "type": "Feature", "properties": { "stop_id": "65386", "stop_name": "Campbell Station", "stop_desc": "Southbound", "route_info": { "route_id": [ "SC:Green Line" ], "route_type": [ "0" ] } }, "geometry": { "type": "Point", "coordinates": [ 6141735.814394176006317, 1929644.235845178365707 ] } },
{ "type": "Feature", "properties": { "stop_id": "65386", "stop_name": "Campbell Station", "stop_desc": "Southbound", "route_info": { "route_id": [ "SC:Green Line" ], "route_type": [ "0" ] } }, "geometry": { "type": "Point", "coordinates": [ 6141783.442907840013504, 1929613.389778256416321 ] } },
{ "type": "Feature", "properties": { "stop_id": "64777", "stop_name": "Virginia Station", "stop_desc": "Southbound", "route_info": { "route_id": [ "SC:Blue Line" ], "route_type": [ "0" ] } }, "geometry": { "type": "Point", "coordinates": [ 6157442.80725833773613, 1941924.10826700925827 ] } },
{ "type": "Feature", "properties": { "stop_id": "64744", "stop_name": "Virginia Station", "stop_desc": "Northbound", "route_info": { "route_id": [ "SC:Blue Line", "SC:Event-Blue" ], "route_type": [ "0" ] } }, "geometry": { "type": "Point", "coordinates": [ 6157443.03626050055027, 1941923.72276908159256 ] } },
{ "type": "Feature", "properties": { "stop_id": "64743", "stop_name": "Tamien Station", "stop_desc": "Northbound", "route_info": { "route_id": [ "SC:Blue Line", "SC:Event-Blue" ], "route_type": [ "0" ] } }, "geometry": { "type": "Point", "coordinates": [ 6158905.053021505475044, 1939094.33505517244339 ] } },
{ "type": "Feature", "properties": { "stop_id": "64778", "stop_name": "Tamien Station", "stop_desc": "Southbound", "route_info": { "route_id": [ "SC:Blue Line" ], "route_type": [ "0" ] } }, "geometry": { "type": "Point", "coordinates": [ 6158905.122575178742409, 1939094.280921429395676 ] } },
{ "type": "Feature", "properties": { "stop_id": "64778", "stop_name": "Tamien Station", "stop_desc": "Southbound", "route_info": { "route_id": [ "SC:Blue Line" ], "route_type": [ "0" ] } }, "geometry": { "type": "Point", "coordinates": [ 6159129.359659507870674, 1938721.681929081678391 ] } },
{ "type": "Feature", "properties": { "stop_id": "64743", "stop_name": "Tamien Station", "stop_desc": "Northbound", "route_info": { "route_id": [ "SC:Blue Line", "SC:Event-Blue" ], "route_type": [ "0" ] } }, "geometry": { "type": "Point", "coordinates": [ 6159129.190696597099304, 1938721.587113007903099 ] } },
{ "type": "Feature", "properties": { "stop_id": "64742", "stop_name": "Curtner Station", "stop_desc": "Northbound", "route_info": { "route_id": [ "SC:Blue Line", "SC:Event-Blue" ], "route_type": [ "0" ] } }, "geometry": { "type": "Point", "coordinates": [ 6162329.594072669744492, 1932557.627328082919121 ] } },
{ "type": "Feature", "properties": { "stop_id": "64779", "stop_name": "Curtner Station", "stop_desc": "Southbound", "route_info": { "route_id": [ "SC:Blue Line" ], "route_type": [ "0" ] } }, "geometry": { "type": "Point", "coordinates": [ 6162329.3037189245224, 1932557.353706583380699 ] } },
{ "type": "Feature", "properties": { "stop_id": "64742", "stop_name": "Curtner Station", "stop_desc": "Northbound", "route_info": { "route_id": [ "SC:Blue Line", "SC:Event-Blue" ], "route_type": [ "0" ] } }, "geometry": { "type": "Point", "coordinates": [ 6162507.566157668828964, 1931977.149486422538757 ] } },
{ "type": "Feature", "properties": { "stop_id": "64779", "stop_name": "Curtner Station", "stop_desc": "Southbound", "route_info": { "route_id": [ "SC:Blue Line" ], "route_type": [ "0" ] } }, "geometry": { "type": "Point", "coordinates": [ 6162507.641288757324219, 1931976.671797081828117 ] } },
{ "type": "Feature", "properties": { "stop_id": "64741", "stop_name": "Capitol Station", "stop_desc": "Northbound", "route_info": { "route_id": [ "SC:Blue Line", "SC:Event-Blue" ], "route_type": [ "0" ] } }, "geometry": { "type": "Point", "coordinates": [ 6165041.222507670521736, 1925422.480509176850319 ] } },
{ "type": "Feature", "properties": { "stop_id": "64780", "stop_name": "Capitol Station", "stop_desc": "Southbound", "route_info": { "route_id": [ "SC:Blue Line" ], "route_type": [ "0" ] } }, "geometry": { "type": "Point", "coordinates": [ 6165041.225132346153259, 1925422.255772083997726 ] } },
{ "type": "Feature", "properties": { "stop_id": "64780", "stop_name": "Capitol Station", "stop_desc": "Southbound", "route_info": { "route_id": [ "SC:Blue Line" ], "route_type": [ "0" ] } }, "geometry": { "type": "Point", "coordinates": [ 6165075.738842844963074, 1925269.495250836014748 ] } },
{ "type": "Feature", "properties": { "stop_id": "64741", "stop_name": "Capitol Station", "stop_desc": "Northbound", "route_info": { "route_id": [ "SC:Blue Line", "SC:Event-Blue" ], "route_type": [ "0" ] } }, "geometry": { "type": "Point", "coordinates": [ 6165075.60432867705822, 1925268.827929332852364 ] } },
{ "type": "Feature", "properties": { "stop_id": "64740", "stop_name": "Branham Station", "stop_desc": "Northbound", "route_info": { "route_id": [ "SC:Blue Line", "SC:Event-Blue" ], "route_type": [ "0" ] } }, "geometry": { "type": "Point", "coordinates": [ 6166185.855060920119286, 1922256.666630834341049 ] } },
{ "type": "Feature", "properties": { "stop_id": "64781", "stop_name": "Branham Station", "stop_desc": "Southbound", "route_info": { "route_id": [ "SC:Blue Line" ], "route_type": [ "0" ] } }, "geometry": { "type": "Point", "coordinates": [ 6166185.846530750393867, 1922256.2811329215765 ] } },
{ "type": "Feature", "properties": { "stop_id": "65023", "stop_name": "Moffett Park Station", "stop_desc": "Eastbound", "route_info": { "route_id": [ "SC:Event-Orange", "SC:Event-Special", "SC:Orange Line" ], "route_type": [ "0" ] } }, "geometry": { "type": "Point", "coordinates": [ 6115954.213398426771164, 1972615.694521501660347 ] } },
{ "type": "Feature", "properties": { "stop_id": "65024", "stop_name": "Moffett Park Station", "stop_desc": "Westbound", "route_info": { "route_id": [ "SC:Event-Blue", "SC:Event-Orange", "SC:Orange Line" ], "route_type": [ "0" ] } }, "geometry": { "type": "Point", "coordinates": [ 6115954.213398426771164, 1972615.694521501660347 ] } },
{ "type": "Feature", "properties": { "stop_id": "65024", "stop_name": "Moffett Park Station", "stop_desc": "Westbound", "route_info": { "route_id": [ "SC:Event-Blue", "SC:Event-Orange", "SC:Orange Line" ], "route_type": [ "0" ] } }, "geometry": { "type": "Point", "coordinates": [ 6116301.109030097723007, 1972622.165637165307999 ] } },
{ "type": "Feature", "properties": { "stop_id": "65023", "stop_name": "Moffett Park Station", "stop_desc": "Eastbound", "route_info": { "route_id": [ "SC:Event-Orange", "SC:Event-Special", "SC:Orange Line" ], "route_type": [ "0" ] } }, "geometry": { "type": "Point", "coordinates": [ 6116301.109030097723007, 1972622.165637165307999 ] } },
{ "type": "Feature", "properties": { "stop_id": "65236", "stop_name": "Milpitas Station", "stop_desc": "Eastbound", "route_info": { "route_id": [ "SC:Event-Orange", "SC:Orange Line" ], "route_type": [ "0" ] } }, "geometry": { "type": "Point", "coordinates": [ 6157590.372580006718636, 1974372.888513669371605 ] } },
{ "type": "Feature", "properties": { "stop_id": "65249", "stop_name": "Milpitas Station", "stop_desc": "Westbound", "route_info": { "route_id": [ "SC:Event-Orange", "SC:Orange Line" ], "route_type": [ "0" ] } }, "geometry": { "type": "Point", "coordinates": [ 6157590.372580006718636, 1974372.888513669371605 ] } },
{ "type": "Feature", "properties": { "stop_id": "64783", "stop_name": "Snell Station", "stop_desc": "Southbound", "route_info": { "route_id": [ "SC:Blue Line" ], "route_type": [ "0" ] } }, "geometry": { "type": "Point", "coordinates": [ 6174466.423473507165909, 1915553.214814677834511 ] } },
{ "type": "Feature", "properties": { "stop_id": "64738", "stop_name": "Snell Station", "stop_desc": "Northbound", "route_info": { "route_id": [ "SC:Blue Line", "SC:Event-Blue" ], "route_type": [ "0" ] } }, "geometry": { "type": "Point", "coordinates": [ 6174466.423473507165909, 1915553.214814677834511 ] } },
{ "type": "Feature", "properties": { "stop_id": "64783", "stop_name": "Snell Station", "stop_desc": "Southbound", "route_info": { "route_id": [ "SC:Blue Line" ], "route_type": [ "0" ] } }, "geometry": { "type": "Point", "coordinates": [ 6174514.114651083946228, 1915544.748296171426773 ] } },
{ "type": "Feature", "properties": { "stop_id": "64738", "stop_name": "Snell Station", "stop_desc": "Northbound", "route_info": { "route_id": [ "SC:Blue Line", "SC:Event-Blue" ], "route_type": [ "0" ] } }, "geometry": { "type": "Point", "coordinates": [ 6174514.114651083946228, 1915544.748296171426773 ] } },
{ "type": "Feature", "properties": { "stop_id": "64737", "stop_name": "Cottle Station", "stop_desc": "Northbound", "route_info": { "route_id": [ "SC:Blue Line", "SC:Event-Blue" ], "route_type": [ "0" ] } }, "geometry": { "type": "Point", "coordinates": [ 6182296.567262008786201, 1913512.283529087901115 ] } },
{ "type": "Feature", "properties": { "stop_id": "64784", "stop_name": "Cottle Station", "stop_desc": "Southbound", "route_info": { "route_id": [ "SC:Blue Line" ], "route_type": [ "0" ] } }, "geometry": { "type": "Point", "coordinates": [ 6182296.567262008786201, 1913512.283529087901115 ] } },
{ "type": "Feature", "properties": { "stop_id": "64742", "stop_name": "Curtner Station", "stop_desc": "Northbound", "route_info": { "route_id": [ "SC:Blue Line", "SC:Event-Blue" ], "route_type": [ "0" ] } }, "geometry": { "type": "Point", "coordinates": [ 6162517.328933417797089, 1931952.306688338518143 ] } },
{ "type": "Feature", "properties": { "stop_id": "64779", "stop_name": "Curtner Station", "stop_desc": "Southbound", "route_info": { "route_id": [ "SC:Blue Line" ], "route_type": [ "0" ] } }, "geometry": { "type": "Point", "coordinates": [ 6162517.328933417797089, 1931952.306688338518143 ] } },
{ "type": "Feature", "properties": { "stop_id": "65381", "stop_name": "Diridon Station", "stop_desc": "Southbound", "route_info": { "route_id": [ "SC:Green Line" ], "route_type": [ "0" ] } }, "geometry": { "type": "Point", "coordinates": [ 6153603.699451014399529, 1945341.591589510440826 ] } },
{ "type": "Feature", "properties": { "stop_id": "65374", "stop_name": "Diridon Station", "stop_desc": "Northbound", "route_info": { "route_id": [ "SC:Event-Green", "SC:Green Line" ], "route_type": [ "0" ] } }, "geometry": { "type": "Point", "coordinates": [ 6153603.699451014399529, 1945341.591589510440826 ] } },
{ "type": "Feature", "properties": { "stop_id": "64748", "stop_name": "Santa Clara Station", "stop_desc": "Northbound", "route_info": { "route_id": [ "SC:Blue Line", "SC:Event-Blue", "SC:Event-Green", "SC:Green Line" ], "route_type": [ "0" ] } }, "geometry": { "type": "Point", "coordinates": [ 6157507.194596752524376, 1947716.151801005005836 ] } },
{ "type": "Feature", "properties": { "stop_id": "64773", "stop_name": "Santa Clara Station", "stop_desc": "Southbound", "route_info": { "route_id": [ "SC:Blue Line", "SC:Green Line" ], "route_type": [ "0" ] } }, "geometry": { "type": "Point", "coordinates": [ 6157800.985675841569901, 1947882.315182581543922 ] } }
]
}
